{"type":"FeatureCollection","features":[{"type":"Feature","properties":{"name":"County Armagh","source":"OSNI Open Data 50k County Boundaries (OGL)","simplify_tolerance_m":75},"geometry":{"type":"Polygon","coordinates":[[[-6.426454537318221,54.5680492066066],[-6.541003780465276,54.54233757727913],[-6.578563424757276,54.518022184939454],[-6.57888845830414,54.51538635142562],[-6.577077295903576,54.512964035090064],[-6.578638718376957,54.5112821453653],[-6.589074684199144,54.507623190215995],[-6.591924542262045,54.50365515992378],[-6.602329698027496,54.50336458870983],[-6.60418160639126,54.50686035807022],[-6.609923162761749,54.50732043104146],[-6.621880851031796,54.50288214096426],[-6.625980824606539,54.504708857008055],[-6.62998340835806,54.50383286898144],[-6.631033492722516,54.50078004038368],[-6.633859033639453,54.498243351114276],[-6.638160702667221,54.49729634943985],[-6.639998925051278,54.49052817920329],[-6.645378264617627,54.48797285497805],[-6.650769031302036,54.48693572270994],[-6.649271581242067,54.481836482899446],[-6.652217473210446,54.479817898262496],[-6.652712751642006,54.47827403057195],[-6.649216946684082,54.47327180533771],[-6.649702081300357,54.47035293143549],[-6.65790830328879,54.467327162101405],[-6.660819741624254,54.46444469797027],[-6.66807731725195,54.46301246661841],[-6.670935344835618,54.45839864213531],[-6.670169136442268,54.455516141844],[-6.674664050218827,54.45069021842748],[-6.677486934571915,54.449344638306876],[-6.680565638623733,54.4496386064496],[-6.682731631906359,54.44652195010507],[-6.686136871695068,54.44481332167111],[-6.692298946813132,54.444620256046434],[-6.697223701614296,54.44262873518759],[-6.69833069563543,54.43758403400896],[-6.693655443377458,54.43381946625473],[-6.694282240254141,54.429540252154816],[-6.700868229810792,54.42995496353806],[-6.703278753653255,54.428598421975224],[-6.704811876601956,54.421457868551215],[-6.702034406020193,54.41893188601575],[-6.701641609306196,54.416525308141914],[-6.70656875714015,54.41387564208094],[-6.706844441181166,54.41254861629412],[-6.705018700648285,54.409374544809815],[-6.70625232972197,54.40727841921937],[-6.709822415256981,54.40593255267026],[-6.710663212428304,54.4043985173488],[-6.71989513325154,54.402075268234924],[-6.728239166233956,54.40180576027861],[-6.730929285025639,54.403855991255185],[-6.73078584190436,54.405057860355555],[-6.729294541962581,54.405506254052035],[-6.729939508120805,54.406375791771524],[-6.734596041783643,54.40902300322063],[-6.745107987142889,54.409056977897684],[-6.748583566852438,54.4108555687899],[-6.756763812275579,54.40734784431474],[-6.759505432267039,54.40722949928597],[-6.766988012319473,54.40980148490758],[-6.771160522148503,54.41403456998918],[-6.7845244586139,54.414255740343606],[-6.786012343344027,54.4157570160972],[-6.794158047389363,54.41495478391275],[-6.796740429419262,54.41062244572933],[-6.796749027104422,54.40881959344264],[-6.799595392321797,54.408637048447005],[-6.799791353672476,54.40702133102049],[-6.802532132727098,54.40522224808539],[-6.800723876832167,54.405032773757924],[-6.800810918857623,54.40239428171616],[-6.805473684105933,54.40059821703717],[-6.805010003163718,54.399186299926676],[-6.807442956874662,54.39919849959654],[-6.807817305830773,54.39737508852747],[-6.806639887884191,54.39467189290421],[-6.803906642184341,54.39384696800379],[-6.80845951676686,54.39143593292062],[-6.806295393669158,54.39172345608614],[-6.804437712716117,54.39054186573988],[-6.80539714121698,54.389061462286115],[-6.807478000771648,54.388720120080386],[-6.806256976153429,54.38824505024047],[-6.807292802539158,54.386100852443526],[-6.804979969814972,54.384018059497656],[-6.804953438958378,54.37973245746158],[-6.808309762019658,54.378080854103196],[-6.807878468982294,54.37693162627562],[-6.80910403869887,54.37559920016471],[-6.81160784936097,54.37528981657134],[-6.812352460974949,54.373684236304626],[-6.809026791846374,54.37321685387244],[-6.810120260584987,54.37207153013646],[-6.812925889669111,54.371978671111435],[-6.812810031726729,54.368762939738076],[-6.814983782454006,54.36736169735227],[-6.813882461073428,54.366252900583575],[-6.820239243019967,54.3643356245725],[-6.819823793569083,54.362574079465176],[-6.821806954284396,54.36282392719319],[-6.82022124973987,54.36159050628228],[-6.8212873110081,54.36040554933248],[-6.822649581205289,54.36150478626243],[-6.826718303643108,54.360213637607366],[-6.82714486626042,54.35808185121929],[-6.832505942576115,54.35168300646629],[-6.831360162416749,54.34737892774427],[-6.834615722491949,54.344369505655905],[-6.835146594907419,54.3388833911164],[-6.83721086490401,54.335782781451094],[-6.839852480026013,54.33528177969691],[-6.842110161416419,54.333071753014515],[-6.851841673319483,54.33217542800428],[-6.853939905301452,54.33095507972333],[-6.853853822602309,54.32969670855447],[-6.859114718162661,54.330916263136416],[-6.864217365656804,54.330164836830875],[-6.865627960627282,54.32781970692014],[-6.865621586682357,54.326651225780594],[-6.863408510218482,54.32474289353202],[-6.864482928310629,54.32340426156293],[-6.863089452015454,54.3153668997264],[-6.856435567026753,54.31355943708855],[-6.857546714356248,54.311354778785365],[-6.856881745865278,54.31023000878203],[-6.859268175050075,54.308454325888306],[-6.857522657117899,54.306574466484285],[-6.857871275987238,54.30480338584597],[-6.859101243553944,54.3042830209656],[-6.852997146353692,54.30086898320138],[-6.850826805241786,54.297410242949724],[-6.853255872594636,54.29421983312218],[-6.852796356128032,54.29277711935231],[-6.851160192357125,54.29224471353858],[-6.854366748315529,54.29009569830843],[-6.86049848034815,54.28905268004907],[-6.861167442962379,54.28703644482324],[-6.858361692207137,54.282942597293406],[-6.861474316866839,54.281376540309374],[-6.867938068763091,54.28220133232789],[-6.867650251790191,54.28574937955111],[-6.869557640465503,54.28760986336576],[-6.874818451701088,54.287524301403906],[-6.875249624147723,54.28575313112538],[-6.877836958019638,54.28517047671364],[-6.875140776389208,54.28265089527062],[-6.875171495503009,54.28150512665988],[-6.876598768625045,54.281248881614296],[-6.878000783161956,54.2790373074795],[-6.871486333344786,54.275830345349696],[-6.865684847939443,54.27469722269573],[-6.864911343773257,54.273498688422315],[-6.866195698793351,54.26998283991682],[-6.862779870845765,54.2700180490696],[-6.858679553119072,54.26842863102323],[-6.852756957772575,54.26895670929012],[-6.851946923510754,54.26519130127698],[-6.843763388962281,54.26686617344931],[-6.841563098086278,54.265968539356095],[-6.839292940335103,54.26754220032457],[-6.833716676228565,54.262544529182136],[-6.827723682498022,54.26148552272537],[-6.827489498419875,54.26023717347515],[-6.829627373279881,54.257767699845445],[-6.829334361666626,54.247985509580325],[-6.826654315161441,54.24645378587161],[-6.824730810813633,54.242614782833115],[-6.819542291902208,54.2389910751103],[-6.820147137442745,54.233450396417986],[-6.815073054229257,54.227153405458424],[-6.816380321342145,54.2242896186767],[-6.815373394474621,54.22329115982821],[-6.811083928158224,54.223203705546105],[-6.808644763335821,54.22461428972764],[-6.800142538239819,54.22118521808393],[-6.802404282631516,54.217117613028634],[-6.801944111364656,54.21469517962476],[-6.80097772000533,54.213395452855586],[-6.796444759182386,54.212473995858865],[-6.795994624020345,54.21080658279768],[-6.794553383129939,54.21029770573668],[-6.795123812657235,54.20911240749913],[-6.790688087923424,54.208820676579194],[-6.785086674506457,54.20644968224489],[-6.777110707565216,54.2014472350516],[-6.77515623106162,54.19886573662604],[-6.768557257596387,54.200551217182394],[-6.765099362646958,54.198850011576965],[-6.756122211505,54.19925209066359],[-6.750645957125537,54.19490559889322],[-6.748884237758495,54.191044522443555],[-6.745024440458852,54.18821780377002],[-6.74381796239396,54.183755735360954],[-6.738676004884067,54.18156704485301],[-6.735101348175874,54.18586672128035],[-6.721989324614758,54.1816589416499],[-6.720589203792182,54.18712905726143],[-6.71322978962433,54.19114054236035],[-6.713883942724986,54.19478816064053],[-6.710185006710061,54.1980071694894],[-6.703026163560236,54.20037962618228],[-6.695342785017205,54.199235095586815],[-6.692121377017469,54.20023977095432],[-6.68776040582703,54.1949330521549],[-6.68259985056496,54.19339347633182],[-6.680292982671131,54.193682978384224],[-6.678126736059345,54.195591726360334],[-6.673529954788415,54.192533830024175],[-6.665363818075019,54.19315731859471],[-6.658629696644186,54.18490379792543],[-6.649033308166694,54.1796949789489],[-6.643893119933415,54.18001934945185],[-6.642241563859735,54.175438597011066],[-6.635958781577281,54.17087300521614],[-6.635625256339474,54.16700390604818],[-6.633672074253971,54.16232974439922],[-6.634239001000623,54.16137004899255],[-6.632683104515726,54.15744186225677],[-6.629775688633153,54.15390316449519],[-6.630982551156568,54.15326517196507],[-6.631601419412858,54.14718213364564],[-6.636695728174175,54.145801531920064],[-6.637612611119399,54.14466580147333],[-6.637132303023996,54.142952471291224],[-6.641176287550778,54.14209918877744],[-6.639967556005592,54.1404449457963],[-6.640757906183629,54.13847650395284],[-6.639045603608868,54.13701873712677],[-6.640102443202773,54.13390710793082],[-6.639594242068743,54.131878703819396],[-6.641940923401413,54.13026470740343],[-6.649420356707945,54.12954000256607],[-6.648916991193491,54.12735444449531],[-6.650691777064583,54.126857506863196],[-6.648628762252808,54.12442953663018],[-6.648374010313113,54.121640057325045],[-6.651473933484094,54.12154005589947],[-6.653929443717155,54.12365760357322],[-6.660609470034706,54.12405589896532],[-6.66125166683209,54.12146926315135],[-6.660688238210843,54.11759765541831],[-6.656170081297643,54.11096297646126],[-6.650254121630838,54.10689661680511],[-6.650082367340406,54.103950546154536],[-6.645596368391343,54.10086638940305],[-6.645223733738057,54.099401396415736],[-6.646215367299749,54.098288905020596],[-6.645483177084749,54.0961459405383],[-6.651928121211331,54.09304955411126],[-6.655234220604617,54.093625970861076],[-6.659205689881126,54.09607477358667],[-6.662044126811071,54.09274620032054],[-6.658658559694174,54.087674014674036],[-6.655883746927566,54.087396201014464],[-6.658803203300756,54.08371025877594],[-6.658017214712271,54.07579392812885],[-6.661219476391663,54.07360953181493],[-6.668239852999139,54.07378686559165],[-6.668758910784558,54.072546300989835],[-6.667364512891763,54.07084676347797],[-6.664798143232922,54.07026352061687],[-6.66399701145887,54.068663169934005],[-6.664731036080588,54.06607733905834],[-6.660943429236241,54.06278887236808],[-6.649676280297154,54.061338555061106],[-6.648602910060598,54.05928072157852],[-6.646388119443888,54.058514037667514],[-6.647543007440906,54.05701707619981],[-6.644907289600098,54.053073670999545],[-6.639667523089578,54.05003240680476],[-6.640754243052789,54.04900334213167],[-6.640378566946561,54.047939137483226],[-6.63581608666564,54.04563284104029],[-6.635526802254883,54.04368549308933],[-6.62957204444647,54.0429021320771],[-6.623764925634793,54.03654557824624],[-6.623684738581688,54.03836634441072],[-6.622558135465971,54.0389828917401],[-6.617300768759026,54.038742548340814],[-6.616556615333921,54.0421738274871],[-6.615477280740959,54.042498546835205],[-6.606928546757028,54.039723999106485],[-6.604518294789096,54.044888744508754],[-6.598351046975091,54.045536306900026],[-6.595179908646243,54.04448794082998],[-6.593198896819868,54.0466222615229],[-6.595219368471029,54.05235401540377],[-6.586455247208746,54.05746358294597],[-6.582036392663106,54.054916826017006],[-6.580106679949534,54.055546060728545],[-6.57610069628964,54.05320784511602],[-6.568880249421559,54.053435177736574],[-6.570049201565563,54.05160609811109],[-6.56908212338919,54.050852992880074],[-6.561349342670654,54.050423558837586],[-6.557465192077079,54.04905115753366],[-6.5525696419232,54.05157655023451],[-6.54929585203196,54.05053337304362],[-6.547474548445734,54.051876779205045],[-6.545621230812067,54.05138261705526],[-6.531755047499788,54.059639383943896],[-6.527995547011031,54.0590764597782],[-6.515316001305463,54.05254382478201],[-6.509444310939966,54.05307457122316],[-6.508743354463332,54.05344804823416],[-6.509710723324762,54.05734796311095],[-6.503554791104996,54.059698497064815],[-6.496235277032787,54.05936015236939],[-6.491799387871827,54.06269802210538],[-6.485179864032179,54.065132026295025],[-6.484091741774539,54.06662102465233],[-6.473361974306901,54.06624292453807],[-6.474030965191918,54.068201717818894],[-6.477884142514705,54.06935177661692],[-6.481633271072693,54.072484660183285],[-6.480266709803601,54.07623931360165],[-6.477987397698922,54.076929537852536],[-6.470254472331938,54.07330490257185],[-6.46625577766946,54.073636408240766],[-6.462172965660477,54.07039264819258],[-6.456291348811474,54.07236302106298],[-6.45019112352652,54.0679018454067],[-6.45082606177937,54.066246461493726],[-6.44895975506671,54.065076244833776],[-6.450160231052077,54.0646421581429],[-6.448544939292612,54.06390200223912],[-6.448281771352423,54.060729443036266],[-6.445590541428104,54.05813233589463],[-6.443652608987259,54.05786015167245],[-6.443519245733786,54.056323353243684],[-6.440743967839016,54.05744757048175],[-6.437277965896486,54.057199845932196],[-6.433208484992472,54.06081360807219],[-6.429755030405857,54.05820395819318],[-6.427334981433325,54.060601866487865],[-6.423135999562454,54.06054660052096],[-6.421501507248454,54.05933298185084],[-6.418269552341385,54.0619674330041],[-6.4147733806431,54.06151621040581],[-6.412368530388819,54.062474286928925],[-6.395223086240512,54.06139111140767],[-6.391164951572863,54.058682046736386],[-6.387315224995574,54.06144255979856],[-6.382851948976859,54.06819887487194],[-6.367881003036837,54.07006563499795],[-6.362628801549265,54.073458532330235],[-6.361965999755224,54.07671135032288],[-6.363181919162684,54.08757117414153],[-6.363672479460365,54.09063750022917],[-6.365759404800908,54.09395017419927],[-6.361470421925303,54.09609654207544],[-6.364460211959883,54.098622944021336],[-6.366354358761149,54.10197512250306],[-6.365589436093421,54.10392035520887],[-6.366708655308149,54.10463251142936],[-6.368073900329369,54.110742553961195],[-6.365734841177217,54.113790389551795],[-6.361392739780457,54.11332704699174],[-6.354820048838581,54.11027061598697],[-6.348977297854725,54.113877172839494],[-6.34592520335177,54.113677993060165],[-6.344778170377272,54.11175179013212],[-6.340032385914157,54.11182145935372],[-6.338492599243046,54.10864817344506],[-6.335994417036336,54.10855155091183],[-6.334773414852437,54.10563503959983],[-6.334783479587774,54.10347736079559],[-6.336099895049587,54.102124216794294],[-6.335319930758409,54.09869693012099],[-6.336247319452028,54.09500678911125],[-6.318974775891702,54.09109931711908],[-6.317596758091955,54.091147445227456],[-6.316498248110554,54.093741363830745],[-6.309553200824459,54.100977771162064],[-6.308708292123648,54.10672471380496],[-6.295141134143178,54.10962297996154],[-6.290601152738326,54.11283470510356],[-6.294336237648745,54.11500259519445],[-6.295532537475837,54.11753933788117],[-6.300948361315921,54.12164296182031],[-6.30698441945929,54.131221543840546],[-6.321550724608986,54.14755622194913],[-6.321279365483296,54.14858708496896],[-6.318561835550994,54.14953895801573],[-6.318768520293512,54.151049067754435],[-6.327779144339392,54.15731633783242],[-6.328341733002897,54.16139605770498],[-6.331934157129885,54.1634706120259],[-6.336725281185095,54.16333472461379],[-6.338339670297527,54.165089153297764],[-6.343328098862416,54.164820665627296],[-6.343437802154605,54.16878147330016],[-6.346013374533588,54.16886262541808],[-6.347181556144575,54.17092530693652],[-6.348481094503175,54.17098807081532],[-6.348779521770557,54.17310700305719],[-6.346941616586555,54.17407149121574],[-6.348564639968938,54.17659068503198],[-6.350240385137983,54.18453249875516],[-6.343723540627229,54.18464521306872],[-6.341847876641568,54.1836520626207],[-6.334734120675356,54.18498112040172],[-6.337406767127665,54.19020455093509],[-6.344206097099117,54.19309681128037],[-6.344800332783627,54.19194615840503],[-6.347412714970301,54.19228109055779],[-6.346974148010496,54.1947638956525],[-6.348617679256344,54.19898465703882],[-6.347438460077648,54.200682898656055],[-6.349793471400369,54.20361979025334],[-6.351332737179491,54.20916269478734],[-6.353876028576273,54.21277907020569],[-6.353639982854822,54.215810190596216],[-6.353963159457454,54.217320638108426],[-6.354318582012706,54.2162630964574],[-6.364356979098172,54.2257805089053],[-6.364953268049463,54.22718347377411],[-6.363435665390261,54.22783644478465],[-6.361677318452847,54.2312380334212],[-6.369488855250267,54.23780580050024],[-6.36919332766531,54.24333103717442],[-6.372857544450868,54.24560240390579],[-6.373732673764283,54.24772875515465],[-6.372342506024033,54.24991455835612],[-6.369889542313238,54.249804481568994],[-6.363559638118188,54.253774513633886],[-6.361245440287298,54.25792406601563],[-6.360333060737571,54.261552968047646],[-6.365593663743764,54.26634456719856],[-6.365572272851999,54.26978313283441],[-6.356179427368103,54.27230844458749],[-6.354526161744774,54.27428639051818],[-6.357963046086319,54.279570258662055],[-6.358475093628051,54.2821396139044],[-6.370613993918977,54.29116182040557],[-6.3713085258163,54.29276464562675],[-6.36807247520678,54.2996466375185],[-6.369084737579548,54.303536685574436],[-6.359804318717199,54.31371625898067],[-6.363107734308878,54.31648579353937],[-6.363695989306761,54.32588671226611],[-6.366065478390992,54.3294848979886],[-6.363035666292344,54.33620761142845],[-6.364784810465092,54.337458600961526],[-6.362931799532591,54.3411278388756],[-6.36544490432581,54.3457676134315],[-6.375069969976626,54.35152993984807],[-6.375508633677174,54.353932498647836],[-6.378295921460649,54.35664735627445],[-6.377611829219571,54.35880576386912],[-6.383381540762478,54.36575837473545],[-6.384392110756921,54.37145665553055],[-6.3893707187229,54.37373896570675],[-6.390647562063681,54.37548419980555],[-6.392962197266018,54.378969912683694],[-6.394087278453671,54.38629627193979],[-6.397691894487184,54.38882194938177],[-6.40010127706595,54.39323535730989],[-6.399177197059894,54.39625644772991],[-6.393122430343778,54.39554763790858],[-6.39125833660594,54.39696121760295],[-6.391221843314707,54.39891544873527],[-6.38740873427307,54.401943472148616],[-6.383848489552429,54.4034018406341],[-6.379705868038928,54.4030097099283],[-6.376996166042307,54.40436670138888],[-6.377259774268007,54.40650494694799],[-6.376235951692982,54.40745730866153],[-6.378670785088676,54.412105285810874],[-6.375488697442295,54.41370587994426],[-6.373824292376848,54.415867234235336],[-6.37386817714505,54.41942484769219],[-6.378666800245411,54.42281448037611],[-6.371183659160332,54.4279950238436],[-6.355554139348133,54.432571417646564],[-6.352798662376074,54.43502816681946],[-6.349522445977275,54.434084967932584],[-6.347600209684956,54.43500746764694],[-6.346908607649318,54.436835821760205],[-6.350164739940113,54.44121687001568],[-6.345635757700386,54.43978470704805],[-6.340662409528547,54.44417709471115],[-6.336108149636466,54.443832201846135],[-6.334894946258443,54.447147692664885],[-6.318941764262247,54.44426975409509],[-6.314841338939971,54.44182612417885],[-6.30842614716265,54.44414512548001],[-6.308126025766212,54.44582949874803],[-6.305439336970124,54.44648983673434],[-6.30240844450645,54.4500910323961],[-6.308967320546854,54.4511904133582],[-6.309390385459032,54.45442495273369],[-6.312331736086354,54.45545602743662],[-6.30992771069525,54.4582371535574],[-6.310560538633348,54.46082990265476],[-6.309286029221886,54.46278953042849],[-6.303464138608983,54.46445030587854],[-6.300841360532758,54.467272571275],[-6.300018849475606,54.47036768010936],[-6.301000917828003,54.47366869190973],[-6.298647420269629,54.47495492788389],[-6.288500773533833,54.473784565359054],[-6.283552663972404,54.47684378831267],[-6.28250980135831,54.478719990015804],[-6.280102723675481,54.47909091178446],[-6.285234320636198,54.48274362197416],[-6.296898966881323,54.48468252833817],[-6.295936550699726,54.48789325427485],[-6.299302795562955,54.489516656989075],[-6.30804693713632,54.49171084193857],[-6.311888089482438,54.49178927084532],[-6.314825861669415,54.4905325819288],[-6.316246611453104,54.49403194570128],[-6.31837107601908,54.49491703882901],[-6.325382834726071,54.49706310224833],[-6.328388759225149,54.49525873189305],[-6.3336591771628,54.49734687686645],[-6.33443667222197,54.50009898082021],[-6.331668191568904,54.50249245335238],[-6.338946748960627,54.506660434848214],[-6.380738597472743,54.51399787006347],[-6.390554025207726,54.522936437478364],[-6.426454537318221,54.5680492066066]]]}}]}