{"type":"FeatureCollection","features":[{"type":"Feature","properties":{"name":"County Cavan","source":"Tailte \u00c9ireann Counties National Statutory Boundaries 2019 (CC BY 4.0)","simplify_tolerance_m":75},"geometry":{"type":"Polygon","coordinates":[[[-7.2798120578462315,54.10257706889109],[-7.273390948400292,54.100654814373755],[-7.271051741242075,54.09755228152299],[-7.2632331373846855,54.09323920541783],[-7.258257954856119,54.096290597636425],[-7.2501423282603055,54.09501830659527],[-7.245901647965649,54.09271712464515],[-7.238038912834895,54.09479248706437],[-7.243059456307888,54.09866803170686],[-7.247406993897995,54.100006011159124],[-7.248131204799301,54.10187582203536],[-7.241639962050081,54.10209148996089],[-7.23735771455466,54.0999372991056],[-7.234567646965623,54.09694757762761],[-7.232377560837504,54.09654095479416],[-7.22337720809862,54.102396410147875],[-7.2191345555623325,54.100816679140095],[-7.2183041037261555,54.098108786856976],[-7.212118426100969,54.09610781434265],[-7.209864774639378,54.09631971996908],[-7.209871047336749,54.094757291645855],[-7.208954809222336,54.09540082952594],[-7.202321350837098,54.09240864738658],[-7.1975423645888075,54.09616028686383],[-7.194616997185955,54.09617807139565],[-7.193218041148832,54.09583831825262],[-7.192954932927682,54.09390739650191],[-7.190992046968298,54.09233589484436],[-7.1831943684853705,54.090213558358315],[-7.18070958156692,54.086499445240115],[-7.176277033436114,54.088374170963185],[-7.1665950505845,54.08927825868198],[-7.162984278665807,54.0874639087455],[-7.163787165234287,54.08376464458132],[-7.161062004212041,54.08419167225418],[-7.149966464912705,54.08211820106373],[-7.13407204076437,54.088572565727276],[-7.1331732392418585,54.092166222689556],[-7.126011949029529,54.09470726766661],[-7.118166436210897,54.095604579595566],[-7.101190820894558,54.09387997554741],[-7.098294924017183,54.08986535061424],[-7.093281598390213,54.08941001767018],[-7.091445109272679,54.08738226744059],[-7.0928460735045205,54.0826833254337],[-7.086939560742578,54.0817924718776],[-7.08042733619014,54.08544586013839],[-7.07807306380495,54.08893327677331],[-7.072982700108917,54.08882576297251],[-7.068036753472735,54.09211924193595],[-7.053376738308769,54.093810862690674],[-7.052030894630462,54.09536074454483],[-7.05001270142923,54.09567152970336],[-7.051363511391373,54.0971853854479],[-7.050836339503517,54.09947238869165],[-7.048811569184693,54.100596656750454],[-7.044224554057471,54.10111959358483],[-7.043345810984894,54.09950501951367],[-7.0396462228916095,54.09879511745468],[-7.038389239874246,54.09952606210141],[-7.035407079512952,54.09707366798501],[-7.031757089945429,54.096740288084035],[-7.026145897970458,54.09753787633256],[-7.023560283776023,54.09922693369237],[-7.017746596792061,54.098613568927725],[-7.015102244930993,54.096796528628815],[-7.015518532302785,54.094234228693],[-7.014154841799991,54.09273640252777],[-7.02266301302908,54.09090923522487],[-7.025456880551004,54.088795694656724],[-7.029263930250588,54.087860874911264],[-7.029383627717609,54.0841220399549],[-7.025544550878822,54.07932856192557],[-7.022577781004896,54.077903811914105],[-7.012212345468214,54.077667993316275],[-7.011007206852256,54.07706110036747],[-7.012171505475947,54.07486427459829],[-7.009034817651405,54.07357669154753],[-7.002270162801014,54.06479829201962],[-6.986528459354016,54.06195106292659],[-6.9873814161726875,54.0600952104897],[-6.98215052083623,54.054491544223346],[-6.98143616148939,54.05297925800109],[-6.982372491944857,54.051921543761566],[-6.977431757170956,54.04947311296275],[-6.977924290138055,54.04843491490625],[-6.975235258440406,54.04815699108671],[-6.974623072470349,54.04687994002185],[-6.967548615684117,54.04576932535618],[-6.968225644027267,54.04319042647236],[-6.966321561269929,54.04017343127611],[-6.961635189370768,54.03988535652623],[-6.9561225543999665,54.04329077302513],[-6.953387362455698,54.04153498081725],[-6.9533151816536,54.03925351983788],[-6.950151986631556,54.03806347985964],[-6.949012071871604,54.03640781569346],[-6.947075586679647,54.03531997956461],[-6.942937439431436,54.03557296125677],[-6.939756482409561,54.033462581350534],[-6.937402772193619,54.02924440527233],[-6.939336790306037,54.02826665449828],[-6.938951417952295,54.027562856260886],[-6.937381249580813,54.02579502824915],[-6.933965361911029,54.02475355187613],[-6.934895048174269,54.01895832019832],[-6.925822756578485,54.01406551752242],[-6.92509508522089,54.01191766891252],[-6.921073821081839,54.01326477894217],[-6.921340732313583,54.01469147530521],[-6.91965482546474,54.01560828088029],[-6.9148403935848055,54.01623197107647],[-6.910299667308989,54.015664850644264],[-6.90674541831593,54.01198802842779],[-6.901255462799876,54.00873848964868],[-6.896350816460325,54.01246992054908],[-6.888925513312259,54.01160509644357],[-6.887785706004811,54.00948680300927],[-6.89030028576632,54.0077180375593],[-6.8907046202041755,54.00321208994455],[-6.875579157224564,53.997768898876636],[-6.8814077300719045,53.99493897847592],[-6.8800737866321855,53.99256428941595],[-6.86864369987236,53.99013463065061],[-6.864110828425113,53.987937341879686],[-6.863374560329277,53.98553159505746],[-6.86703336261386,53.98353598615158],[-6.862481950124724,53.98012404475587],[-6.8630230412455555,53.978224051376685],[-6.860047461231042,53.97693182475304],[-6.861806098897709,53.974971613975804],[-6.857594357954218,53.9730521483277],[-6.856229031134241,53.970305258530345],[-6.857781525651938,53.96917224918343],[-6.852553257836739,53.96589673118449],[-6.854288202922678,53.963494649564836],[-6.848454585699667,53.95957530543295],[-6.844271196957182,53.95965802491477],[-6.844728448460358,53.95763634840377],[-6.842737990997541,53.954694830635155],[-6.838818532739012,53.95272738454092],[-6.840284101021518,53.95149517590771],[-6.839190676076653,53.94734432608438],[-6.833054464707009,53.945264945308786],[-6.83608502475391,53.942015824510676],[-6.829173854341605,53.9364864432827],[-6.8331725934474115,53.93470030375513],[-6.830818854956045,53.932435307662345],[-6.8193606227278885,53.93263206606031],[-6.815960606924575,53.93098592535554],[-6.811497160998323,53.931695357500104],[-6.809519923047723,53.9307233255399],[-6.80789287770276,53.92821299784479],[-6.797773333208533,53.92891397138458],[-6.793278478812624,53.92650676529731],[-6.79062156681315,53.92751771889493],[-6.783071151191768,53.92599868029952],[-6.777328757403812,53.927855017344754],[-6.776274474832909,53.92522524665797],[-6.764222925421014,53.92022851052953],[-6.763540967652169,53.91781903968876],[-6.762009635095436,53.91748031531174],[-6.762209482442943,53.91436627989473],[-6.767384368046325,53.91314870460042],[-6.769212786418679,53.91068008439957],[-6.776978899190979,53.913803972756845],[-6.779276891189162,53.91631614943775],[-6.7838523724515465,53.91106619238962],[-6.782439794311511,53.909464610556334],[-6.784101280337216,53.90742147248427],[-6.786283367543987,53.90746729367844],[-6.786013788013235,53.90573944613981],[-6.787385196182572,53.90338726043694],[-6.788943801900924,53.90301695993741],[-6.789823217518671,53.90017495005024],[-6.783497248791631,53.89776340892385],[-6.787508822954589,53.89327290173393],[-6.7853466812223004,53.88993380364034],[-6.788296718404554,53.88989606479853],[-6.7936401184241735,53.886726285442336],[-6.799193763405063,53.88697026942155],[-6.796558706513103,53.88914657728603],[-6.800584472778338,53.89073503620894],[-6.806150095493527,53.891713477678046],[-6.810253692319092,53.890214258542414],[-6.815312428406464,53.89110655818892],[-6.81308418009282,53.89209885695157],[-6.809732742106044,53.896455554502815],[-6.815643572224682,53.8983627082147],[-6.823128559453382,53.89752931873585],[-6.825152834538244,53.89626577722696],[-6.825536468668657,53.8939358088256],[-6.835413201494552,53.89522570173615],[-6.8371332080477965,53.894242465121955],[-6.837305040680463,53.89189136681691],[-6.842049521639895,53.89124808368632],[-6.842114162817087,53.890040108828195],[-6.846042159835791,53.888881358743454],[-6.845984018264342,53.88635102694962],[-6.841618336797778,53.88431362104949],[-6.840081493682343,53.8824495917494],[-6.84508399039896,53.87873104597814],[-6.851853340956058,53.878850908252176],[-6.862127406962191,53.87568338015269],[-6.869914181139081,53.87787833072342],[-6.873874741204449,53.87791959027135],[-6.877478790181958,53.87751549394939],[-6.881339867852107,53.87521061920062],[-6.880635588711207,53.87824815380419],[-6.884780359185545,53.88065919076581],[-6.896711769857615,53.88096671927134],[-6.902986895300431,53.883448113735724],[-6.909446911594066,53.88868410895826],[-6.911910011986388,53.888458475091696],[-6.917581852860138,53.89128592658098],[-6.924105820808808,53.892874000809286],[-6.935721736892028,53.891347189347854],[-6.933377575445073,53.88786720682453],[-6.934204556369657,53.885673414245666],[-6.932153401237991,53.884202260395234],[-6.933300473404733,53.882890720751774],[-6.9325767014835815,53.88104812827221],[-6.928578172305482,53.88019351896772],[-6.926324224834453,53.876397226051246],[-6.924243210644767,53.87529465483302],[-6.930554767954649,53.872169557143195],[-6.940776353453333,53.86933641993579],[-6.946324304291092,53.86657536166251],[-6.954918777786135,53.865443682601594],[-6.9565553084446385,53.86367520657919],[-6.966188746803046,53.869990686039394],[-6.973015494513467,53.87216732325242],[-6.974700645146985,53.87088106843121],[-6.972872550569133,53.86904651894558],[-6.973553314474659,53.86787443666279],[-6.972370992020454,53.86761528284213],[-6.972795275897815,53.866785859204306],[-6.971033179469895,53.86489379996716],[-6.968040942636539,53.86387698585381],[-6.9661104592414285,53.8610113422606],[-6.967749028704042,53.860353403529004],[-6.968332862400468,53.8587630880845],[-6.971693374855136,53.85842841472779],[-6.972412356019799,53.8569861145558],[-6.967726471869035,53.85353062947734],[-6.964484347215632,53.84916739331224],[-6.966359967513661,53.848067473125646],[-6.9639048363888785,53.84607831941172],[-6.962995084237986,53.843714608882046],[-6.959755154342541,53.84333021594153],[-6.957591539106251,53.84509813169245],[-6.955140731577402,53.84516617736816],[-6.952541997612523,53.84229123419157],[-6.955435683907468,53.840145893867074],[-6.952481750837614,53.83884924948746],[-6.9531963489235995,53.83575626443325],[-6.9469662648400154,53.83410140025933],[-6.941239869419849,53.8298181496552],[-6.934058184150307,53.827988275593746],[-6.932874088940286,53.82519814347639],[-6.930145137287645,53.82277785263834],[-6.9273440430328925,53.82279227977657],[-6.925222298737316,53.819856910267305],[-6.921462985089162,53.818880058463726],[-6.920190892714575,53.81713484613241],[-6.917379967098447,53.817000651988515],[-6.916905643061293,53.815986588144334],[-6.918359473862716,53.813179087005146],[-6.914977365520971,53.81212383848991],[-6.912813415275917,53.808939814344356],[-6.913751436086784,53.807483784513984],[-6.917109616681611,53.80616575937272],[-6.921319518074963,53.801096798839914],[-6.931135581309118,53.803807298562155],[-6.931788216551093,53.80262892602623],[-6.933536972859069,53.80284485742619],[-6.940100471672203,53.79846913962369],[-6.938740038120265,53.79541629280723],[-6.941525810154236,53.79337691837237],[-6.940126032018537,53.79172325671661],[-6.941930418742475,53.78933431030321],[-6.937883845054199,53.78732614717164],[-6.929659436987167,53.78576612311806],[-6.929320072574943,53.78506224472137],[-6.931708657341073,53.78348142178544],[-6.939368965605547,53.78212852779504],[-6.940724124538002,53.780736708598894],[-6.9514242712902385,53.78162854342703],[-6.954638907943886,53.78637156597592],[-6.963165995877115,53.79107818515764],[-6.972907250859366,53.78510988463461],[-6.9711820040801955,53.77769396716366],[-6.976190178562811,53.77599606778669],[-6.981467981135379,53.772657454101775],[-6.990724640128978,53.77545591359056],[-6.994283834462805,53.77841744356896],[-6.992927857783545,53.780102766631714],[-6.995435417499829,53.781122286122994],[-7.0009719025520605,53.77290542175988],[-7.001803009794404,53.76922611922762],[-7.000386410772205,53.76683967906274],[-7.002192571535411,53.76557413903157],[-7.012528378375245,53.76926015101266],[-7.020920858235577,53.76907751085858],[-7.027600165081184,53.77321276726539],[-7.032640791832605,53.77327356706204],[-7.038242097066534,53.776774864847745],[-7.042967581649065,53.77645508119773],[-7.0477186437244885,53.77424887273544],[-7.050231419170141,53.77170826500182],[-7.056588178687575,53.77310448471349],[-7.058345778394178,53.77198938174208],[-7.0666651589502525,53.772433277662145],[-7.080870389909489,53.77572137758581],[-7.087606277658739,53.77550109838396],[-7.091131289389555,53.774151697044005],[-7.0965220299367475,53.77634697322524],[-7.10501360218067,53.77657416347423],[-7.105462143702593,53.7816278283542],[-7.106600489227219,53.78361375313442],[-7.105460273905401,53.786271367649235],[-7.107424050234581,53.78935489437581],[-7.110719281725572,53.79146245782005],[-7.115146500794545,53.793451773882644],[-7.123357666120825,53.79376271646355],[-7.124413473162397,53.79178553983483],[-7.127803565611545,53.79052226323631],[-7.135812301146286,53.793970489778616],[-7.141325516683423,53.79929787829363],[-7.1539586563129784,53.80627698387008],[-7.15503228345054,53.80478932914613],[-7.1520885052365335,53.80117712135829],[-7.157302381187165,53.79778072662552],[-7.156718325773624,53.79410509817892],[-7.171353094944079,53.79578895313929],[-7.1761786239681244,53.79521637285137],[-7.176762115509997,53.794613115166406],[-7.1741172990365385,53.79246119465735],[-7.1749390894279275,53.79100199257286],[-7.178442414320395,53.791270973220556],[-7.184948242655251,53.788797252967235],[-7.193890884606423,53.79474574294919],[-7.204280981402935,53.78887546189635],[-7.206075974672984,53.786652169615266],[-7.207963751197339,53.78713917773136],[-7.212671074541069,53.78558117295878],[-7.213454500595804,53.78255599700417],[-7.210350344781741,53.78063990497342],[-7.215056803325354,53.77845911624177],[-7.219553462491962,53.77424306360611],[-7.214432882375693,53.77345411533859],[-7.214095255010312,53.77088665974695],[-7.224279946787291,53.77226538268758],[-7.229019367284708,53.771554942558254],[-7.240723028529934,53.7781342353471],[-7.247712940613614,53.77791729143254],[-7.248701921269082,53.77626553571544],[-7.253877643243118,53.773884897571314],[-7.256835673699329,53.77411957448739],[-7.2570815629596535,53.77639766772784],[-7.262507315694541,53.77902792963009],[-7.26510604210112,53.77815896748354],[-7.273003779402816,53.77917780763581],[-7.275273726266991,53.78110749533885],[-7.278349871982091,53.781785746323],[-7.279580839094873,53.78575449635854],[-7.277956327000671,53.786663080402704],[-7.280757357675139,53.79012409588317],[-7.279822407801502,53.7925646280604],[-7.284260043263208,53.795591568589664],[-7.284002225467894,53.79712241835562],[-7.2884876116259845,53.798635355993795],[-7.307957861672607,53.812769053316806],[-7.3329242083100175,53.80357735419039],[-7.377927554163274,53.78454804890554],[-7.382793664731555,53.785295567790016],[-7.387709405504621,53.782186503483544],[-7.397837541967786,53.77881502770495],[-7.409972726164199,53.77904919904236],[-7.412537404975037,53.785751805324146],[-7.410838951828985,53.78730454569658],[-7.411565528701084,53.7900145565263],[-7.4169628794204625,53.791019654674166],[-7.418672782788801,53.792709992768465],[-7.420735949600749,53.792339393600315],[-7.429983337404711,53.794830445698416],[-7.431490818325853,53.796017540169444],[-7.437585845625667,53.796053449470705],[-7.439948652608276,53.79824772854032],[-7.446825763298693,53.799621903937364],[-7.4494978871804385,53.8011333943188],[-7.456109815198883,53.802331365352686],[-7.462152097951519,53.80129806185537],[-7.466008935861845,53.80645598376746],[-7.468845559285258,53.80735985394529],[-7.468495131130615,53.80905239840491],[-7.469718204456316,53.81071737357847],[-7.475377274036415,53.812083640029385],[-7.472836178751852,53.81589856591237],[-7.4663977900608245,53.81869489814097],[-7.465833591943645,53.82337837931205],[-7.470201765318929,53.82938817272595],[-7.471472099056587,53.838496930053935],[-7.476375273873814,53.84302548533197],[-7.475873577227028,53.84564905233737],[-7.473450923229517,53.84795936082669],[-7.476755499778345,53.853624378266375],[-7.480920440990302,53.85401534214483],[-7.487495843821585,53.85227596825093],[-7.494460700524635,53.86034822459363],[-7.4982786630552205,53.859789242761586],[-7.49890064031824,53.858049082727895],[-7.500641021407719,53.85722837010171],[-7.505170106087609,53.860256788106724],[-7.514651691580178,53.86011019230574],[-7.515410044694525,53.859730442569806],[-7.514142489973389,53.85876222548176],[-7.51501414954611,53.85719246522716],[-7.5230059754002045,53.8621659778768],[-7.52796431821574,53.863664842343454],[-7.5412369661664345,53.85767720782517],[-7.543238318072837,53.853490368581056],[-7.554548877973666,53.85318027397298],[-7.562228287611405,53.85465997283398],[-7.570825058542715,53.854517338663904],[-7.578174319097595,53.85000367560522],[-7.58350989412327,53.85112126617127],[-7.585069702284889,53.85691132204849],[-7.582804762811098,53.8583065971671],[-7.580578316937652,53.86283129882566],[-7.576376649139931,53.865009745650724],[-7.571780190415082,53.873930644819026],[-7.572069461089685,53.880064632799],[-7.567716915475227,53.88023030743132],[-7.558556992655325,53.877706643943206],[-7.556015301992079,53.878597948352486],[-7.5572827521058565,53.88297614145345],[-7.556838254013294,53.88795854101261],[-7.5552621632315,53.8906670089763],[-7.549858961854791,53.89291893931941],[-7.551200790867501,53.89490195647599],[-7.556457276163925,53.89813834418209],[-7.557198586270615,53.90394283953314],[-7.561130692833853,53.905672967816706],[-7.574921691149739,53.907491738745],[-7.576376046584988,53.906006030271406],[-7.575449384409297,53.9040413578405],[-7.576640600567594,53.90174053265727],[-7.580200112170607,53.90313843555538],[-7.585472714897695,53.908684271185194],[-7.582913068647293,53.912382921378786],[-7.5831019252866545,53.914254842535954],[-7.5874508000517285,53.9183118344866],[-7.593541283616629,53.921199572720006],[-7.595914794763922,53.925007705946825],[-7.5957659567284255,53.92831825721841],[-7.603309046448514,53.93137158279751],[-7.6071890155421515,53.93830727244075],[-7.612254952465058,53.938413260159564],[-7.613323808451608,53.93962000646985],[-7.604082717670935,53.95048187859195],[-7.59981989818692,53.9501713938889],[-7.596557490247997,53.95336155804419],[-7.592124011994497,53.9546870148949],[-7.587258666739158,53.95756600972347],[-7.586371149602846,53.959148253825994],[-7.58627152357897,53.962694353314454],[-7.593846116588747,53.96639950320605],[-7.593727863059854,53.968670742912316],[-7.592763411508431,53.97018912293291],[-7.5855101905606315,53.97264645124776],[-7.5860073869569,53.97424065525786],[-7.584171040131726,53.9765087379902],[-7.585058247220413,53.9808884753899],[-7.589345856500278,53.981407463108226],[-7.590163376421063,53.98297100259937],[-7.593304744352208,53.98455803987553],[-7.599727059901932,53.985734611018835],[-7.600389536774426,53.98744028767163],[-7.599148600926974,53.991968022313316],[-7.593501131347282,53.99595572327948],[-7.594867521832713,54.00158254180269],[-7.593117195187704,54.00292935643964],[-7.59538561883864,54.005645070642906],[-7.597800597066025,54.00621792670302],[-7.5990119580486954,54.01018960475718],[-7.601843825059802,54.012205300836705],[-7.593011527919546,54.016518096490145],[-7.595904365890095,54.016445066350556],[-7.5972234613724625,54.01830687715127],[-7.597039637006408,54.02031977651191],[-7.598480256239356,54.02051943897649],[-7.600874152152335,54.023202264348456],[-7.608256981448099,54.02463329792093],[-7.611317644541135,54.026696775141986],[-7.61408265417175,54.025296026065526],[-7.611536749110621,54.02150507685638],[-7.611646728098425,54.019480362347345],[-7.619059688670974,54.01850029951967],[-7.63568283517688,54.02305464931587],[-7.640437248548225,54.02250608038123],[-7.642656285357714,54.027616512025745],[-7.646784675935531,54.0279229008945],[-7.646391470397192,54.03318986422565],[-7.644118438315103,54.03580228214174],[-7.640559309972772,54.03639318863063],[-7.637558964182296,54.03912003321924],[-7.635208550319403,54.03935714640837],[-7.637955936845917,54.0429103814197],[-7.643993440784171,54.04473962636286],[-7.649145532692032,54.040228698558074],[-7.65491691516337,54.042771072161315],[-7.654162749195571,54.04879060543856],[-7.657656337210919,54.05638424109041],[-7.663292935322799,54.055979754834446],[-7.666459917553875,54.0589022744956],[-7.6723206602506835,54.055752668317105],[-7.675551094208603,54.05728364561149],[-7.676134955436599,54.05964478957742],[-7.682074709154492,54.05918666501998],[-7.684935418436076,54.06021921256256],[-7.686521456376586,54.06234849206764],[-7.685921812434332,54.06373752984244],[-7.687474121899147,54.06809239299443],[-7.689104806225342,54.067981760717764],[-7.691549375730046,54.07019833628092],[-7.698569003311922,54.07230769850062],[-7.702254464054998,54.078759578497916],[-7.708903685753896,54.08422095295372],[-7.713115361343741,54.08306555887211],[-7.721145319085657,54.08484316451967],[-7.725266180972363,54.08468951506156],[-7.730826068167031,54.08224109199857],[-7.736594728090308,54.08292626067322],[-7.735907001632642,54.08896386668841],[-7.737581116684097,54.092161040296695],[-7.737083444728823,54.09352731866144],[-7.738697713820528,54.0944950679186],[-7.7449169635381345,54.09356213225133],[-7.750513683405152,54.09508121069373],[-7.751694959787044,54.096964341405545],[-7.751257055544678,54.10050047949113],[-7.752171647665005,54.101111901099465],[-7.751034033620593,54.10212387167583],[-7.757138701473824,54.102349336189654],[-7.755244501458216,54.104502209992425],[-7.756319590982552,54.106238454510226],[-7.761925167196266,54.10717434854144],[-7.76286584083388,54.10961417011311],[-7.770558382068766,54.1071120949387],[-7.7862248845350885,54.10769457405288],[-7.788417675390452,54.1083780985263],[-7.790100807794823,54.11300497239786],[-7.7942545584029554,54.11346917040129],[-7.794997774732616,54.116412384434405],[-7.7991023337461565,54.116566501032324],[-7.805013927918071,54.11289278799239],[-7.804928403444833,54.110645402732324],[-7.814125906921613,54.107829595672484],[-7.814897142020653,54.10593648912509],[-7.816317530109421,54.10565439963713],[-7.816162288979636,54.10317019178454],[-7.811623628055326,54.10167172812725],[-7.813294253607543,54.100417011027254],[-7.822297129301891,54.09645090007557],[-7.8313699734225795,54.09858831659711],[-7.829672703625207,54.1007507229194],[-7.84721610346585,54.1068724639716],[-7.858888066564747,54.11328997437594],[-7.850830531307631,54.11757995194701],[-7.8519435791110626,54.11904365254983],[-7.861281285321653,54.12253194353857],[-7.871008391959218,54.124335499823985],[-7.875254226241546,54.123697025387806],[-7.882107228547623,54.12780566909064],[-7.882815807413206,54.12930319852552],[-7.8816363035699695,54.13184774335111],[-7.8883016620477475,54.13561867135026],[-7.893581114789346,54.1354954786916],[-7.888381292077728,54.14179456096827],[-7.901077750669115,54.1479440265555],[-7.905132335438627,54.15388217530127],[-7.912314588381874,54.15458164858462],[-7.916599993992493,54.161221031402924],[-7.923404358484125,54.162029807232564],[-7.925134374098042,54.16344022085628],[-7.926411653006075,54.166813797193946],[-7.939017405205423,54.16868610682576],[-7.943882253749068,54.170815275736395],[-7.952981450110444,54.17889957813242],[-7.961990679531498,54.178727851718],[-7.968890539271747,54.177071112064766],[-7.975121121673209,54.178854104408025],[-7.98005657460066,54.178496826835065],[-7.988646386107059,54.17988886159965],[-7.991033378886559,54.18086471783495],[-7.991466520074716,54.182411272384336],[-7.994350624387498,54.18267117282097],[-7.999899650777143,54.185553160097875],[-8.000344509587503,54.1889601258608],[-8.004446007567328,54.190415423822856],[-8.005305060563373,54.19227925590595],[-8.013141650373685,54.19065099496702],[-8.013882543878783,54.18807600051553],[-8.021430570838248,54.18790506533255],[-8.023481484501353,54.18741160405012],[-8.023808398735206,54.18635579684026],[-8.024253944504272,54.18840077189539],[-8.029368297499458,54.19035450794074],[-8.03054736631471,54.189904033467165],[-8.029368761318395,54.18897689909792],[-8.030112556920777,54.18739681230596],[-8.03199895738867,54.18858229802184],[-8.03295385894551,54.18757718351908],[-8.035365131176285,54.187648951161215],[-8.035213969755635,54.18526698685441],[-8.042269583473129,54.18311239977104],[-8.045227654595806,54.184652852118134],[-8.044689214822078,54.18606172629535],[-8.048004158972947,54.18692851966441],[-8.0472238279751,54.18837895162809],[-8.048320244335809,54.191354296307615],[-8.046355755501924,54.19385688912279],[-8.045192823756022,54.19367812117275],[-8.050548550063496,54.195306717605256],[-8.050706866665921,54.19757536482657],[-8.045420474880606,54.20324227230804],[-8.039448431309026,54.204028893273225],[-8.039720564566025,54.204776363619956],[-8.035443448589303,54.206377140002886],[-8.033281078301714,54.208943917231984],[-8.032569880873398,54.212839145575394],[-8.033516457277548,54.214397468610414],[-8.034971132090453,54.21373521053319],[-8.033850769830602,54.21571126106246],[-8.0369317871551,54.217170860117115],[-8.036319683615366,54.219603756833266],[-8.03946384011915,54.22119376021561],[-8.039054302108818,54.22225985619521],[-8.044262279443938,54.22239146531997],[-8.046663212095572,54.22532138516602],[-8.045802056809743,54.22665951873112],[-8.04884853200416,54.22832714589313],[-8.049109006875302,54.23095233455904],[-8.05823430165951,54.23621432116488],[-8.054659903110247,54.2385939849527],[-8.05401371885924,54.242367195297554],[-8.049921654082256,54.244309987363245],[-8.049260495862116,54.2462683053719],[-8.04578084347419,54.24858042385392],[-8.041176465867707,54.25400500636874],[-8.03114256724814,54.25144173968632],[-8.009921485452601,54.24835092309687],[-8.003773610067963,54.249339486845976],[-7.998334635657726,54.254050538493864],[-7.991480097208341,54.2575466184063],[-7.986134717185655,54.262922517464126],[-7.985499542798369,54.26579600129914],[-7.974365560885792,54.273538070953165],[-7.974549675001822,54.28046559837591],[-7.972471230747431,54.28441408731545],[-7.96766588496911,54.28696436654235],[-7.964794177693823,54.29042637004585],[-7.957455090900806,54.294347685472566],[-7.946578906487867,54.3042900372665],[-7.930506374726257,54.30340353597262],[-7.9260935026914074,54.30457353697396],[-7.918828944388289,54.303149133926944],[-7.915520767560538,54.29704973003653],[-7.911716011052715,54.2959261094864],[-7.905980911396629,54.296612985132164],[-7.90166014546254,54.301427310680346],[-7.888258529090262,54.30051854750772],[-7.883769456730907,54.29668580106452],[-7.884184605096403,54.29485277174662],[-7.882302761353196,54.294036845637294],[-7.88102380125528,54.29194048545759],[-7.874323049745533,54.294669255205264],[-7.8619571139545545,54.293514568908016],[-7.864594065860301,54.28883492997418],[-7.870692442942643,54.28825854313825],[-7.870165362775413,54.28375701445344],[-7.871650521884645,54.28324597114948],[-7.873230879684463,54.27954545401118],[-7.87080763860685,54.2776352547964],[-7.8724677509950425,54.27406527269509],[-7.872739930623621,54.26994029970638],[-7.871705236157857,54.267957891135026],[-7.872696279812665,54.266170817931034],[-7.866628765612383,54.262689547273716],[-7.8650186556547,54.2603371344581],[-7.860474351292794,54.2602474972441],[-7.862249874621564,54.255260755528425],[-7.861164417776767,54.25445070178868],[-7.862088909065516,54.25255096497511],[-7.858947336911529,54.24312430072203],[-7.860003669954691,54.22962711379256],[-7.8585483342864295,54.22595133510724],[-7.855360918509687,54.22271836590104],[-7.856465521848875,54.22114450818931],[-7.861760257277647,54.218725030422256],[-7.83939165256905,54.20969672382185],[-7.811481315349961,54.200881664031265],[-7.8036517909270655,54.20702442833732],[-7.782469451482001,54.20739067015769],[-7.780522194993867,54.20873873327618],[-7.7752828421711335,54.2085640460022],[-7.7723866514023,54.2071722232441],[-7.7705215374783885,54.20733262890079],[-7.768164055240527,54.209477447635805],[-7.768620970641138,54.207435168875946],[-7.762249912477824,54.20748681648984],[-7.754344494584551,54.20985160890504],[-7.748464771661385,54.20945645653998],[-7.744563003592633,54.204346974524604],[-7.739389523187645,54.20354921926286],[-7.731234807212237,54.204810603531186],[-7.72315510860858,54.20342703749199],[-7.71409205263217,54.20422595913342],[-7.71044730690245,54.20315815072704],[-7.7020394978128515,54.207788275456764],[-7.692183865013949,54.20387738779728],[-7.689263120394098,54.20699204368216],[-7.685392196673174,54.20778335023794],[-7.68491979272329,54.20690321845777],[-7.686426747548686,54.206775922760166],[-7.6885286421731776,54.203686438936096],[-7.687166640346496,54.20040211356151],[-7.6884977739574945,54.199170723105404],[-7.683720976686449,54.19687755886272],[-7.685291463383007,54.19346178101292],[-7.681956246040748,54.19393063914401],[-7.679503788751415,54.192547648638936],[-7.678983854322925,54.190720946022296],[-7.679915569072958,54.18932057789556],[-7.678845994281703,54.18817927906898],[-7.67958124900127,54.18748320963769],[-7.677979108077722,54.18660912160193],[-7.676569318206201,54.18199819284219],[-7.671967043525563,54.181506899459606],[-7.668500370323998,54.18385845010382],[-7.66720831547792,54.18657524808216],[-7.664419230082042,54.18798254407107],[-7.656088127293512,54.18567558225288],[-7.65372519973216,54.18220623100839],[-7.645481727650159,54.17714434359318],[-7.645615944965645,54.17597907393672],[-7.628470600955312,54.16921322062213],[-7.628143814602773,54.16757260105932],[-7.625300570762706,54.165436565591975],[-7.626645305161857,54.161053869673694],[-7.625288150916914,54.16060476077322],[-7.625344449684987,54.153256216446096],[-7.6120177467414285,54.14757881041278],[-7.609398415866342,54.145579397761736],[-7.610389168525758,54.143795181818845],[-7.5920495154202,54.13988781950604],[-7.583095215906581,54.14250197399493],[-7.5794441505686105,54.141027834820534],[-7.574600582695252,54.1415393103432],[-7.573673432469875,54.14103081313436],[-7.575373708119113,54.13779529941415],[-7.575051186621057,54.13369267708911],[-7.569245322430104,54.1329072700781],[-7.566957232012514,54.13058294809941],[-7.565740929068849,54.126562710905795],[-7.55854944343985,54.127847523920046],[-7.547756707641511,54.122160276325324],[-7.546633734924339,54.122430911142594],[-7.546107636916873,54.12558259043284],[-7.544634813414697,54.12644116034915],[-7.54649963548164,54.12708403774524],[-7.546717392844337,54.1292098191059],[-7.544685736736778,54.12820276568766],[-7.541544716351593,54.128825622265644],[-7.537634560316315,54.12721733499289],[-7.535976822346291,54.12862368325676],[-7.537290776293612,54.130864021374826],[-7.531521178938479,54.13312386723291],[-7.528373934935232,54.135738093155695],[-7.523294627325307,54.13344283041581],[-7.521749552039065,54.13077925754457],[-7.519596341563602,54.12971020228815],[-7.5095239248512184,54.12996095275084],[-7.502827728121806,54.12633239551069],[-7.495373677439029,54.12601186420905],[-7.492752464586915,54.12460345646313],[-7.49214936871417,54.123169303828206],[-7.4854144374503955,54.123443219958276],[-7.479408390525979,54.122209712473946],[-7.47181402039477,54.12671716321765],[-7.472696299134204,54.130166616244736],[-7.471716228952134,54.13328593950913],[-7.467000522151624,54.13450031457394],[-7.4663793334372786,54.13707378119266],[-7.468567074948998,54.1408111395852],[-7.4661395543230284,54.14194170206309],[-7.462415092484503,54.14169322350142],[-7.453775473298667,54.144751123597324],[-7.45204640795444,54.1475565746973],[-7.442373783470707,54.1539267870205],[-7.431334586931794,54.152074891812966],[-7.426849350659813,54.154720591069434],[-7.418089926346556,54.1545512246126],[-7.409640464174643,54.156260937378676],[-7.408443479466934,54.15529204915619],[-7.408903926248325,54.15313366071621],[-7.412255696711002,54.14836095347239],[-7.425054531301171,54.14115167308666],[-7.420230342495589,54.13676667930044],[-7.403063337611933,54.14089247497246],[-7.399782726205388,54.14074779289088],[-7.391344777861663,54.136735744851656],[-7.387590873919235,54.13774217859147],[-7.38366667731811,54.14131164928779],[-7.375490196538576,54.14191636555743],[-7.372718056339588,54.139360743218525],[-7.3747799621834265,54.136996090737696],[-7.382086437986583,54.13469978798202],[-7.3926647340173846,54.12680945149439],[-7.394141695997486,54.122716075511796],[-7.391887996392817,54.12020003125313],[-7.389319342139178,54.12108930304162],[-7.388258468041944,54.122707401763186],[-7.379605434892788,54.12435243284857],[-7.374916957445541,54.12867498048282],[-7.369900769234847,54.13090834670834],[-7.363380928797887,54.131433481425034],[-7.355029462397254,54.12697647241064],[-7.351692218829186,54.1239826752325],[-7.349517885995411,54.12415663960852],[-7.34633613695251,54.12248539870365],[-7.346566303051929,54.11785094496274],[-7.34734617073407,54.11739368492089],[-7.344392605543657,54.11607388060263],[-7.342338479644764,54.11605934975897],[-7.340599609807206,54.11790137307501],[-7.336021947355323,54.11673840726151],[-7.33413649346948,54.12048118963913],[-7.3287332878162825,54.12275802496254],[-7.327055376397564,54.12457296539473],[-7.324708924331231,54.12347374740469],[-7.323244461374292,54.122188035298905],[-7.32466111289467,54.12102225558624],[-7.324276549934124,54.11779853361354],[-7.3221092249945965,54.117308168169494],[-7.321452781136364,54.11497640436691],[-7.319885893488097,54.11411012901113],[-7.321030762811607,54.11233740739622],[-7.321190971004505,54.10887231459128],[-7.314877957202651,54.10560664076404],[-7.310100978778698,54.10715550205478],[-7.307422900634912,54.10924871706516],[-7.30101879561697,54.1061372829481],[-7.293363971001688,54.107769070518785],[-7.2885706536271275,54.106973301830294],[-7.2798120578462315,54.10257706889109]]]}}]}