{"type":"FeatureCollection","features":[{"type":"Feature","properties":{"name":"County Down","source":"OSNI Open Data 50k County Boundaries (OGL)","simplify_tolerance_m":75},"geometry":{"type":"Polygon","coordinates":[[[-5.624696031847229,54.6779094144679],[-5.628668919591411,54.679389809237115],[-5.627884959881856,54.68015313911935],[-5.637214720404481,54.678328931905895],[-5.636077436407107,54.67581153471216],[-5.636450188874652,54.67279124678016],[-5.634579871485696,54.67248548791318],[-5.634104742253831,54.67111654139804],[-5.6360672361526,54.66884505906304],[-5.640271566447803,54.666878947833375],[-5.651820216686241,54.665853355331045],[-5.652859262394908,54.666291645011846],[-5.654001455391398,54.67026514845223],[-5.655921219890021,54.67096723920915],[-5.664330556377626,54.666341562541085],[-5.668003059172866,54.66602063016272],[-5.670262407757212,54.667197139118294],[-5.672234546220069,54.66760297521728],[-5.668448768558238,54.66585146142855],[-5.669427920051612,54.66515543774306],[-5.671300962458342,54.666088866330554],[-5.669299112711962,54.66477471777572],[-5.669530807699507,54.66389949045625],[-5.673432017892294,54.663089170631594],[-5.674444999995182,54.665198525152775],[-5.679389430804635,54.66873205912298],[-5.687709346776415,54.66796769143479],[-5.691128764475441,54.66500145998494],[-5.697875625487179,54.668280206366916],[-5.703512920605655,54.66728956600534],[-5.711199740000644,54.668018597901586],[-5.71433415680528,54.66688782917589],[-5.716640301721846,54.66805679385439],[-5.720531209680416,54.666970413698095],[-5.729497522583801,54.67071247841613],[-5.730422000917891,54.67257686292846],[-5.733770237297215,54.671935941302166],[-5.737626894919347,54.67357176820226],[-5.73886775403387,54.67491296835092],[-5.738796154212693,54.67661013602765],[-5.740801170950389,54.67744778907842],[-5.756815250807053,54.67150046297579],[-5.759150844992657,54.67159034554155],[-5.762953261066393,54.669296091780566],[-5.768676889283099,54.66860120077866],[-5.773460440491255,54.666005686450035],[-5.777112708101522,54.666116643905106],[-5.787630133710493,54.66264557871754],[-5.798138024205646,54.66157321027279],[-5.804446484889835,54.65954150173344],[-5.817801625849873,54.65393024001847],[-5.818012640044066,54.65264066105205],[-5.822636084046802,54.65165751088681],[-5.824179955156017,54.64944546268109],[-5.830483533968882,54.645363037116134],[-5.83544956606673,54.644108681699834],[-5.839561283849894,54.64172019477537],[-5.847233293523845,54.64007672066102],[-5.854883381084651,54.63385717305761],[-5.874505789264528,54.63854991453048],[-5.918430332343368,54.60446489556575],[-5.920306213973134,54.60156863830005],[-5.920406726340522,54.599112784248064],[-5.912882060581916,54.596171159485976],[-5.912741707454304,54.59485419552737],[-5.920223085857154,54.5900252319403],[-5.91887030507513,54.58585707530779],[-5.919694584898552,54.58389357609972],[-5.927767103904592,54.58032326891815],[-5.92783675700848,54.57783589622477],[-5.931072689210356,54.575343996290115],[-5.925393106491201,54.569513032163584],[-5.928687915844061,54.567426778346146],[-5.926990172676012,54.56456399983309],[-5.934380021693203,54.563411107168456],[-5.933646524468842,54.55995367137146],[-5.936416085281328,54.55773979314973],[-5.938732296726456,54.55779529058508],[-5.941743781955612,54.55603526034502],[-5.941180448873022,54.554129877777775],[-5.941905955453294,54.55344895147134],[-5.951646129557088,54.555506528859546],[-5.951828081229731,54.55356349912816],[-5.954288891279174,54.550454191818815],[-5.953823801396847,54.54785977358244],[-5.959970727143294,54.549062901328575],[-5.964672652469573,54.547659887964016],[-5.965459932781807,54.54645507829325],[-5.964881564657917,54.54374647485988],[-5.966043774932306,54.54255695838764],[-5.962822652719003,54.54083069263536],[-5.960334339345234,54.53770373485032],[-5.967617965764103,54.53600276260671],[-5.967071016452041,54.534681692395026],[-5.96898999599057,54.53256906297054],[-5.971825728125634,54.532720548376695],[-5.972524608591877,54.53090324973879],[-5.975134352026761,54.53165068684542],[-5.975583999582841,54.53055553926233],[-5.978003711171322,54.532332407678375],[-5.977242212744145,54.53363208120888],[-5.977916743365237,54.53510620247755],[-5.98451705699007,54.53539137346161],[-5.984581592140432,54.536414160539316],[-5.987130223750133,54.53741246268952],[-5.989212304482956,54.54150573131179],[-5.992987826833937,54.542919867462025],[-5.997840294493368,54.54241775479902],[-5.997561939690584,54.539838656735384],[-6.002440187629266,54.54050083482649],[-6.003751330501149,54.53882881089297],[-6.011270124655137,54.53564686698211],[-6.017837744069501,54.536404407148126],[-6.019221668812471,54.5343900600432],[-6.015012043620146,54.53305354525917],[-6.014253826250382,54.5312685197423],[-6.022943209860278,54.52951956844342],[-6.024975402961942,54.52799452892458],[-6.023028702718516,54.52616174172192],[-6.027256022438987,54.52509084121164],[-6.02310703274461,54.523312851041375],[-6.021261891127893,54.51943684271001],[-6.023964943235602,54.516905139750435],[-6.024120174793541,54.51438989431116],[-6.025234567456438,54.5136281227605],[-6.023257524721137,54.509581494156045],[-6.026434401518083,54.506931774025304],[-6.026471781632487,54.505356330911255],[-6.034158474837276,54.50361297168826],[-6.041338592183282,54.50499369795595],[-6.04670722268922,54.50076723398522],[-6.051230458701882,54.49889192277448],[-6.053698011383136,54.49978328780614],[-6.056368446674717,54.49777684056209],[-6.058680216404993,54.49784598965842],[-6.062213403969757,54.50018629261761],[-6.064865447525645,54.50054859721449],[-6.063471120902224,54.50206159863961],[-6.066825501814904,54.50460692001146],[-6.074875829359103,54.50600530958594],[-6.077573318341934,54.505803470493696],[-6.077697332201346,54.50501225768876],[-6.079045055085338,54.50578841166329],[-6.081959844480225,54.50530229093568],[-6.0872522381017,54.50346516243282],[-6.08676047124862,54.50247549009899],[-6.096934837524124,54.500782435083835],[-6.111504788813098,54.49631192614303],[-6.113016239254043,54.49478080340692],[-6.120160579766026,54.494522383797204],[-6.130546396231822,54.497347255773136],[-6.134479265205535,54.496053868504255],[-6.135509954979542,54.495010077110365],[-6.135054488753123,54.49395188735456],[-6.140227725642137,54.49029612019733],[-6.141217157209843,54.4876557649246],[-6.143425078170955,54.48602643441975],[-6.147368142336608,54.485189002057986],[-6.151095128318866,54.4826408329848],[-6.159800492074836,54.48137149473553],[-6.164701266472544,54.47956737582221],[-6.171706892852705,54.480027626796115],[-6.176500154947338,54.47680039555957],[-6.183478761897777,54.47854811784968],[-6.187993679633563,54.47737147591978],[-6.189185270088323,54.47845577057043],[-6.188930951526418,54.479867574029235],[-6.199432132873707,54.4832362930698],[-6.201000132707029,54.4862257475461],[-6.206090045993308,54.48717707696584],[-6.208661666207647,54.49018105091958],[-6.229129326036867,54.496097874589076],[-6.236383084791738,54.49431552373264],[-6.239884228755414,54.49456838531658],[-6.240866594224979,54.49323421249697],[-6.238495182794176,54.4918294467776],[-6.239819304911728,54.49063495846695],[-6.251268322318053,54.49229720017309],[-6.257664042887014,54.49160172248061],[-6.263157847582548,54.49487789057086],[-6.266067611100813,54.499062129704235],[-6.275794285106901,54.50084520200685],[-6.279952155463715,54.501084429764546],[-6.277813114123161,54.49688905857441],[-6.280599987454672,54.49575818770033],[-6.287560951397101,54.498153467617264],[-6.291229410992123,54.4971698948041],[-6.296260541452735,54.49773621045743],[-6.303051968409292,54.50240208077234],[-6.313102079357861,54.50387137083245],[-6.316630965223895,54.5071120489673],[-6.326431163445021,54.512010456421905],[-6.334733241614328,54.51100067290638],[-6.338881779098542,54.50922148280446],[-6.352851292927976,54.509255768783824],[-6.338946750503681,54.50666043486944],[-6.331668191568904,54.50249245335238],[-6.334436672185438,54.500098981718146],[-6.3336591771628,54.49734687686645],[-6.328388759225149,54.49525873189305],[-6.325382834726071,54.49706310224833],[-6.318371077561675,54.494917038850474],[-6.316246611453104,54.49403194570128],[-6.314825861669415,54.4905325819288],[-6.311888089482438,54.49178927084532],[-6.30804693713632,54.49171084193857],[-6.299302795562955,54.489516656989075],[-6.295936552242038,54.4878932542966],[-6.296898966881323,54.48468252833817],[-6.285234320636198,54.48274362197416],[-6.280102725217449,54.47909091180641],[-6.28250980135831,54.478719990015804],[-6.283552663972404,54.47684378831267],[-6.288500773533833,54.473784565359054],[-6.298647420269629,54.47495492788389],[-6.301000917790775,54.473668692807664],[-6.300018849475606,54.47036768010936],[-6.300841360532758,54.467272571275],[-6.303464140150419,54.46445030590018],[-6.309286029221886,54.46278953042849],[-6.310560538633348,54.46082990265476],[-6.309927712236459,54.45823715357897],[-6.312331737627458,54.45545602745815],[-6.309390387000111,54.45442495275526],[-6.308967320509831,54.45119041425614],[-6.302408446047346,54.45009103241776],[-6.305439336970124,54.44648983673434],[-6.308126025766212,54.44582949874803],[-6.308426147125623,54.444145126377954],[-6.314841340480581,54.44182612420035],[-6.318941764262247,54.44426975409509],[-6.334894947799255,54.447147692686116],[-6.336108149636466,54.443832201846135],[-6.340662409492228,54.444177095609106],[-6.345635757664181,54.439784707946025],[-6.350164741480716,54.44121687003673],[-6.346908607649318,54.436835821760205],[-6.347600209684956,54.43500746764694],[-6.349522445941162,54.43408496883055],[-6.352798662376074,54.43502816681946],[-6.355554140852433,54.432571418565495],[-6.371183659124704,54.42799502474158],[-6.378666801785344,54.422814480396774],[-6.373868178684853,54.41942484771292],[-6.373824293916531,54.4158672342561],[-6.375488697406778,54.41370588084224],[-6.378670785053231,54.412105286708844],[-6.376235951692982,54.40745730866153],[-6.377259774268007,54.40650494694799],[-6.376996167546075,54.404366702307556],[-6.379705869578119,54.40300970994895],[-6.383848489552429,54.4034018406341],[-6.38740873427307,54.401943472148616],[-6.391221843279552,54.39891544963327],[-6.39125833660594,54.39696121760295],[-6.393122430343778,54.39554763790858],[-6.399177197059894,54.39625644772991],[-6.399967547274916,54.39471656023962],[-6.398095784743985,54.389321516403534],[-6.394087278453671,54.38629627193979],[-6.392962197266018,54.378969912683694],[-6.390647562063681,54.37548419980555],[-6.389370720225841,54.373738966625275],[-6.384392112294938,54.37145665555115],[-6.383381540762478,54.36575837473545],[-6.377611829219571,54.35880576386912],[-6.378295921460649,54.35664735627445],[-6.375508633677174,54.353932498647836],[-6.375069969976626,54.35152993984807],[-6.36544490432581,54.3457676134315],[-6.362931799532591,54.3411278388756],[-6.364784812001823,54.337458600982345],[-6.363035667793338,54.33620761234728],[-6.366065478390992,54.3294848979886],[-6.363695989306761,54.32588671226611],[-6.363107734308878,54.31648579353937],[-6.359804318717199,54.31371625898067],[-6.369084737579548,54.303536685574436],[-6.36807247520678,54.2996466375185],[-6.371308527351386,54.292764645647495],[-6.370613993883513,54.29116182130358],[-6.358475093592336,54.28213961480241],[-6.357963046086319,54.279570258662055],[-6.354526161744774,54.27428639051818],[-6.356179427368103,54.27230844458749],[-6.365572272851999,54.26978313283441],[-6.365593663743764,54.26634456719856],[-6.360333060737571,54.261552968047646],[-6.361245440287298,54.25792406601563],[-6.363559638118188,54.253774513633886],[-6.369889543846712,54.249804481589734],[-6.372342507522157,54.24991455927485],[-6.373732673764283,54.24772875515465],[-6.372857545984188,54.24560240392649],[-6.369193329198557,54.24333103719518],[-6.369488855250267,54.23780580050024],[-6.361677318452847,54.2312380334212],[-6.363435665390261,54.22783644478465],[-6.364953268013959,54.227183474672124],[-6.364356979098172,54.2257805089053],[-6.354318582012706,54.2162630964574],[-6.353963159457454,54.217320638108426],[-6.353876028576273,54.21277907020569],[-6.351332737179491,54.20916269478734],[-6.349793471400369,54.20361979025334],[-6.347438460077648,54.200682898656055],[-6.348617679256344,54.19898465703882],[-6.346974147974644,54.19476389655048],[-6.347412714970301,54.19228109055779],[-6.344800332783627,54.19194615840503],[-6.344206097099117,54.19309681128037],[-6.337406767127665,54.19020455093509],[-6.334734120675356,54.18498112040172],[-6.341847876641568,54.1836520626207],[-6.34372354215827,54.18464521308978],[-6.350240385137983,54.18453249875516],[-6.348564639968938,54.17659068503198],[-6.346941616550732,54.17407149211374],[-6.348779521770557,54.17310700305719],[-6.348481094503175,54.17098807081532],[-6.347181556144575,54.17092530693652],[-6.346013374533588,54.16886262541808],[-6.343437803685061,54.168781473321204],[-6.343328100392728,54.16482066564836],[-6.33833967182786,54.165089153318895],[-6.336725282715344,54.16333472463494],[-6.331934157129885,54.1634706120259],[-6.328341733002897,54.16139605770498],[-6.327779144339392,54.15731633783242],[-6.318768520293512,54.151049067754435],[-6.318561835550994,54.14953895801573],[-6.321279365483296,54.14858708496896],[-6.321550724608986,54.14755622194913],[-6.30698441945929,54.131221543840546],[-6.300948361315921,54.12164296182031],[-6.295532537475837,54.11753933788117],[-6.294336237648745,54.11500259519445],[-6.290601152738326,54.11283470510356],[-6.279972516862734,54.110928044303876],[-6.268071357652071,54.10229334258358],[-6.265615142014604,54.102741406504144],[-6.258780448221393,54.09935696735564],[-6.255703438651162,54.100912281486444],[-6.254943573301558,54.100521324651716],[-6.256433260820625,54.09949532068759],[-6.252727565635896,54.098072145745014],[-6.254195261776924,54.09657838888866],[-6.248251008725886,54.09827185600176],[-6.246696368551614,54.099664886900456],[-6.234490538929029,54.10145333850704],[-6.231312720863776,54.0998859185631],[-6.226753760461365,54.10109016390342],[-6.222993042969074,54.10015976724779],[-6.215275551180539,54.10061460250014],[-6.212157320181421,54.09791484108421],[-6.2030604371199,54.09901839394654],[-6.198889894657835,54.09803474474631],[-6.190943392794402,54.09409569601701],[-6.191751483691628,54.09356193146991],[-6.190356060562168,54.09246636593679],[-6.190026053460084,54.084448243758395],[-6.185652644255702,54.079791424244604],[-6.183532347027192,54.07357503959458],[-6.180634827293237,54.07431349230749],[-6.175910476158228,54.073462715062846],[-6.171180520509031,54.070399319671054],[-6.169032438224423,54.0702610386675],[-6.166302206922957,54.06726130894714],[-6.156947124229148,54.06497556346052],[-6.149720229039363,54.06579510384531],[-6.138732090096553,54.06177806972302],[-6.135475885261115,54.06322789509944],[-6.134489301892336,54.06509811717705],[-6.125818455210777,54.066320665337045],[-6.121367920531809,54.06581455824555],[-6.117964717498139,54.06373624478337],[-6.111453027267159,54.06234584005844],[-6.105873072899762,54.0629417490292],[-6.104998970133297,54.06159420613716],[-6.095872437775001,54.063049148178116],[-6.090639446378151,54.05840830583708],[-6.084334591535701,54.05717301290721],[-6.080074209024484,54.05210972332532],[-6.074154037173668,54.04759078325404],[-6.077683433367246,54.048628873548964],[-6.078335991951873,54.048434685013135],[-6.077106539585339,54.047727556164155],[-6.080214638687723,54.047328268486815],[-6.078460932704361,54.04671028284704],[-6.081036278497191,54.04627406097845],[-6.080667244217792,54.046878352671236],[-6.083396531802218,54.04836944729061],[-6.088462847151362,54.047917399071636],[-6.091006161321537,54.04834369578308],[-6.092306782582419,54.049699196346666],[-6.095147459225067,54.048323390878096],[-6.098257819284641,54.048715203205106],[-6.099003014123457,54.04821682779981],[-6.098001548103209,54.04725354217285],[-6.100207011513468,54.04518216767728],[-6.099769499811504,54.04396000953252],[-6.102187301392659,54.04387967663616],[-6.107505824416745,54.04045530166596],[-6.088862986062279,54.036405491141224],[-6.081878441377327,54.029806674765524],[-6.070803250774888,54.029873206825364],[-6.065457841817731,54.02822370973106],[-6.063624427813028,54.02603012858331],[-6.065563787515664,54.02492555027431],[-6.063929296461696,54.024938769738306],[-6.063934155450297,54.02341751174337],[-6.062889057935453,54.02287836986953],[-6.039758785606423,54.033130756923974],[-6.020735716852127,54.03872112345392],[-6.018126264070247,54.04111601416552],[-6.013765693947212,54.042055479286645],[-6.013469439878665,54.044054870400466],[-6.011644962955811,54.044981419709394],[-6.00816561996889,54.05003864362975],[-6.002088908076231,54.05401018082031],[-5.992366901311565,54.058098172888926],[-5.988230152681705,54.05774620738192],[-5.995865383072222,54.060793584296064],[-5.995260538402729,54.06122204750874],[-5.988347197291011,54.05810817107731],[-5.987563631711868,54.058982938376104],[-5.980860674244153,54.05914634487453],[-5.971718076613715,54.061877074389955],[-5.962911966494929,54.06245601364826],[-5.961991033437507,54.06331876431817],[-5.962332048398506,54.06614941926033],[-5.957105915579821,54.06876904918056],[-5.957113220559558,54.07313059214684],[-5.952179888667314,54.077536779478606],[-5.936421007135026,54.08505928679888],[-5.934300038731606,54.08498027474638],[-5.934278248130736,54.08587030283446],[-5.917900367161133,54.094187428320176],[-5.91552416164719,54.09376100461064],[-5.907408594997425,54.099089038496814],[-5.903083985492258,54.0995306336529],[-5.896705689355569,54.104930026099005],[-5.894246769186504,54.10794582229538],[-5.897004212441041,54.10865935359613],[-5.894913672974966,54.108562124307255],[-5.892099249622687,54.11137277908384],[-5.891940174676225,54.11815902756594],[-5.886155040849675,54.121492604887216],[-5.886285630308489,54.126738304977906],[-5.889783240456239,54.130210077932716],[-5.889488082960186,54.13438579529034],[-5.876172673197734,54.15320148481272],[-5.874661072400563,54.16076911664686],[-5.871356160033525,54.16758006768645],[-5.872208583091987,54.177354971163695],[-5.876293145325968,54.18895989054894],[-5.884339001414438,54.19668098179972],[-5.883320106105132,54.197819926371686],[-5.883615325548655,54.198518435961184],[-5.884686132398672,54.19728154721526],[-5.885687526177365,54.1979766389516],[-5.884907287402253,54.198455224730274],[-5.887569261185747,54.19855533606936],[-5.890705380663134,54.200985301976736],[-5.890630833082649,54.203519664669095],[-5.892531676695258,54.20533068188852],[-5.888607238858818,54.21042951694457],[-5.889560870489003,54.21063800738059],[-5.878322430013447,54.21821981720208],[-5.854214094090491,54.23047792349136],[-5.838740604850551,54.236441546477096],[-5.830276145701538,54.241561698152594],[-5.82833739662105,54.2444732327721],[-5.828260001873333,54.24733041434593],[-5.833087203354214,54.251213486384515],[-5.838151905632249,54.25324091743659],[-5.840668369197615,54.2501899591743],[-5.846524881661177,54.250554495467895],[-5.851611933582923,54.24873358440468],[-5.856492763316512,54.24022021493625],[-5.859420919431485,54.238249028625255],[-5.857675918154913,54.240199922927665],[-5.859935738172717,54.246470254659066],[-5.856394095772291,54.25120732231661],[-5.851573067762016,54.251951457150604],[-5.851047474949047,54.25000600199752],[-5.849981014599487,54.249665703015246],[-5.849350725618737,54.25453312293314],[-5.843391483986378,54.257402804355],[-5.840579098985943,54.257200739313596],[-5.839323320365833,54.26154951529826],[-5.836995551018908,54.26298641651079],[-5.837322768906597,54.264459810167246],[-5.828762157695841,54.269991187631994],[-5.825811363146688,54.27723012263397],[-5.827563088070197,54.27548289306072],[-5.827895057015097,54.276668734665336],[-5.829687607885104,54.2769633490695],[-5.825719777607343,54.27854070147155],[-5.825552436675869,54.27763739903668],[-5.822532138956104,54.28126029916002],[-5.816833274705733,54.28448577612093],[-5.814464132706961,54.28451868778904],[-5.815328661485792,54.28533965641501],[-5.81492593771307,54.28625618563424],[-5.813656065282505,54.28464332540928],[-5.814735068544429,54.28372495516848],[-5.816364344150946,54.28415996286445],[-5.814883973096361,54.283360100127176],[-5.817327820632538,54.28226801718689],[-5.816267398211701,54.27964402272081],[-5.820369002971661,54.272235250518676],[-5.818872867604087,54.264664671628395],[-5.81594410566044,54.26108758121135],[-5.815848886772362,54.259385841765365],[-5.818207410518898,54.25708699827143],[-5.82614732673535,54.2562260686767],[-5.833378204212959,54.25803573975476],[-5.833826312613594,54.25667971035605],[-5.83295764020314,54.25482478779019],[-5.825493293102348,54.248244241455126],[-5.824788765044596,54.245368182422176],[-5.820817004774782,54.243321484980285],[-5.813473323063652,54.24250641892135],[-5.781838793715602,54.24601015358365],[-5.777977470698608,54.244378530460274],[-5.765000578848504,54.24697408518839],[-5.7626228645858,54.24607961841139],[-5.762705533839725,54.24685509750475],[-5.75888349028705,54.2476871442565],[-5.755902979903507,54.246202307011664],[-5.753655232463425,54.24671364499092],[-5.754101501274802,54.24905323935875],[-5.753081712721269,54.25020601728043],[-5.744444670796466,54.2522048821385],[-5.72614385684888,54.25295682179486],[-5.724220300797662,54.25194695313071],[-5.723365383481341,54.249551791949145],[-5.721189010729256,54.24864349900857],[-5.719383748159808,54.250657542225014],[-5.714390232292742,54.24921136937025],[-5.708436844704948,54.25145455606941],[-5.703456405350866,54.2500354070352],[-5.692598226828473,54.251291546989094],[-5.685379842322047,54.24982426842851],[-5.683574774275925,54.24743220166265],[-5.680705281526669,54.246982104557794],[-5.679953743035543,54.24738579722461],[-5.680733893291786,54.248052914502786],[-5.679632087882571,54.24820487711856],[-5.676948649907765,54.246482660253584],[-5.676947481662147,54.24441446226894],[-5.672639838399204,54.24015173154383],[-5.674595628750195,54.23868148439299],[-5.670631395271517,54.23875039031052],[-5.6728048012997,54.23687385301605],[-5.673176673373773,54.234949908831915],[-5.670704224612768,54.23288220032798],[-5.668936329107019,54.23540929913778],[-5.666422674176253,54.235354515547414],[-5.665861303428111,54.23178235009817],[-5.663463954005696,54.229861711664356],[-5.664396965622641,54.228677073818375],[-5.663947641273969,54.22677119601257],[-5.660578209386614,54.225683878083736],[-5.657654469755098,54.22631366151744],[-5.653974826788696,54.22947109062421],[-5.650788002243306,54.229394146395],[-5.650780606957667,54.230984801409505],[-5.647882851363707,54.231435386635326],[-5.642311947010382,54.2407927276703],[-5.639867897436774,54.24165642443762],[-5.63941727953364,54.24028704171512],[-5.636674896053827,54.240405640856245],[-5.637567806540684,54.2407882112936],[-5.636219199073588,54.24198552456057],[-5.636151412919123,54.2445376917391],[-5.63774090516873,54.2454682979437],[-5.639674460977746,54.249600164594696],[-5.636399071850193,54.252537625925655],[-5.639227350927657,54.252097444902056],[-5.640609452479434,54.2543625654788],[-5.645457109455786,54.25609591967839],[-5.642314766211603,54.25930656037762],[-5.637627044666016,54.260985276748784],[-5.63685150967634,54.26272766541755],[-5.638908135943991,54.263167009154834],[-5.636265862494888,54.263162384778624],[-5.636671782352838,54.25917155921959],[-5.633186775932717,54.25996357057426],[-5.629706258742998,54.25822876646321],[-5.629558627745622,54.25445731356828],[-5.634277969572377,54.25255521749651],[-5.629501272578658,54.251120182535395],[-5.629980852931618,54.25025122126877],[-5.627575887154993,54.25385812143031],[-5.628106445968084,54.25518445592562],[-5.624584343578555,54.25585838484991],[-5.619005091560489,54.25385359318497],[-5.618102763793197,54.250530570240265],[-5.619417065762119,54.24980001554285],[-5.618655343681574,54.246651337166455],[-5.614421211517008,54.24658724410146],[-5.609194214663618,54.248906998133556],[-5.604004081432444,54.254186005168485],[-5.604681434321956,54.25518374489031],[-5.602145243699211,54.25662893116337],[-5.603839215579511,54.25799452571474],[-5.601903081204824,54.260444089401325],[-5.604151390986441,54.26057419634316],[-5.604486978561944,54.25979144052474],[-5.606095259230457,54.26087624707569],[-5.605392548663808,54.26326768368277],[-5.608299450661709,54.26301905082107],[-5.6086885119433,54.26458477746775],[-5.607751569824432,54.265801456621624],[-5.605029406696131,54.266450531341036],[-5.603816973263213,54.26378457438519],[-5.601719116820433,54.263694484994915],[-5.600791481793999,54.2621416450452],[-5.598176153872747,54.263000204029964],[-5.598182438610482,54.26109415994151],[-5.595647143736643,54.2608936874532],[-5.588707034842806,54.2652994331402],[-5.588423292036149,54.267620885960824],[-5.586092672132167,54.270590483963744],[-5.581447313658854,54.272672764287925],[-5.576431470154067,54.27315354648596],[-5.574786704486799,54.274369581304306],[-5.575229878502161,54.27561297564353],[-5.572785494859819,54.27582798782213],[-5.570521674907866,54.27950943693216],[-5.566042277565098,54.28321397288365],[-5.563264388289409,54.28416628824441],[-5.5619751519329,54.28574226846581],[-5.562842672672487,54.28625932241312],[-5.560461123379514,54.28664674665326],[-5.55932902301521,54.287974778126404],[-5.560003156521986,54.289611063517505],[-5.557747900847371,54.29075690477593],[-5.557422212920517,54.292195892410675],[-5.558381761379669,54.29271574084439],[-5.557027382364276,54.293732157466074],[-5.558240139155794,54.29456431968933],[-5.556314268984013,54.29541295239954],[-5.556517114829744,54.29659177831055],[-5.553232692254142,54.300502607290774],[-5.552071422425743,54.30460818761479],[-5.549849972495936,54.306896935323884],[-5.545067628902611,54.308677421542676],[-5.542049666453039,54.30792346122585],[-5.539653792924402,54.31007231473594],[-5.540728522578167,54.31169234717203],[-5.538122783607342,54.312765527552344],[-5.527090335670326,54.31002806811685],[-5.525089443221116,54.3108384563578],[-5.525766858116944,54.31122497132298],[-5.522904047091746,54.31462033165199],[-5.523905324579937,54.31400820053288],[-5.523547638060513,54.314853112143425],[-5.524890937092779,54.315383083887745],[-5.532712482749323,54.31609351573108],[-5.535382158711579,54.31857412506953],[-5.539308448532721,54.31793121488544],[-5.542215284852865,54.31994108516725],[-5.54169423989835,54.32210338253318],[-5.542807246124155,54.32363438778033],[-5.539994689238419,54.325385794589515],[-5.539721823029596,54.326727314916894],[-5.540638624801699,54.32721020554657],[-5.539521973089106,54.328916107322634],[-5.542280312060035,54.32807148764256],[-5.54172798814506,54.32984651783946],[-5.544265038760088,54.33266482037926],[-5.543027662751942,54.334340524860366],[-5.543263045015501,54.33608217775257],[-5.54186274872715,54.33647711645638],[-5.540617420032902,54.338845095109924],[-5.541930663278739,54.340579249769156],[-5.543901993908989,54.34076599486227],[-5.543250655736137,54.342025667841696],[-5.544100276085136,54.343783513061545],[-5.54676441891886,54.343170261072885],[-5.548140937042339,54.344285249039004],[-5.548618729271825,54.34747209229449],[-5.547349067156384,54.348967260520055],[-5.54745787260894,54.35135303962403],[-5.550843747045805,54.35396879046657],[-5.550261245727431,54.35653401670122],[-5.551695957727061,54.36009660879763],[-5.549100602702313,54.365396534889854],[-5.551655136478215,54.36782864276629],[-5.550606219582927,54.36924879024186],[-5.555513762516412,54.37173323525374],[-5.554597599725959,54.37442481375724],[-5.55697133024502,54.376213431671125],[-5.561242787215984,54.37536303750506],[-5.56299460465359,54.37602043085239],[-5.564642114552521,54.374426950238245],[-5.565587318676181,54.37013556189669],[-5.561929266436525,54.37003104342756],[-5.561290657549265,54.36751469642776],[-5.566124004066622,54.36394513424958],[-5.568295004450647,54.364955206756974],[-5.569655161950183,54.36972023592609],[-5.576831372160775,54.37115719743403],[-5.577666445574481,54.372320803680914],[-5.575035115638167,54.37510272368632],[-5.573183502814004,54.37473980201016],[-5.574124446038133,54.37552864577575],[-5.570924367925739,54.37647916583562],[-5.572563799194158,54.37639613897974],[-5.569793424074485,54.38037932556436],[-5.572065605468519,54.38290216774233],[-5.58059387481927,54.38240484123278],[-5.583336038886652,54.38342014710927],[-5.581582403380835,54.38216996686126],[-5.583192380666266,54.381869975763],[-5.588104257741191,54.38454222971229],[-5.589382218863889,54.38334337907322],[-5.591238357057039,54.38385900540155],[-5.597214813507344,54.382062411233235],[-5.599084722742159,54.38036649516171],[-5.599008618473342,54.37832349763775],[-5.601338743778779,54.378680434669235],[-5.601119561340409,54.37771258358572],[-5.603666801135608,54.376825321351],[-5.605426570719615,54.37678081567124],[-5.607893982092496,54.37878640342306],[-5.614475400797462,54.37936066370592],[-5.617341900977615,54.37731211238243],[-5.621174960956537,54.377149862793736],[-5.622543262437784,54.37575536933824],[-5.624240122819522,54.3771566063659],[-5.62320453185311,54.37556538358222],[-5.635375961193628,54.37041913655213],[-5.64029058340171,54.37266664852485],[-5.640556232662794,54.369328536198864],[-5.646154441210283,54.369030426781116],[-5.644986415103006,54.36672585762569],[-5.646320889911904,54.36494373617128],[-5.651158855968514,54.36409566528214],[-5.655890717669385,54.36756075094041],[-5.658758650565814,54.36606890279864],[-5.661861216912121,54.36701050633755],[-5.663918111176287,54.36586678423364],[-5.663290798918601,54.36373786877184],[-5.665992888252195,54.36239460808071],[-5.667404108804064,54.36288886089333],[-5.667173906562231,54.36412387781392],[-5.668757114705712,54.36624087093822],[-5.672932245738101,54.36705669305921],[-5.675848463683293,54.36906341316923],[-5.679733838859069,54.36713827175823],[-5.680894868805821,54.36851634886699],[-5.680594357093465,54.37028888491296],[-5.685069704550426,54.37184903667895],[-5.68375450682197,54.37359653305924],[-5.680268334508283,54.37407514542229],[-5.680145217180754,54.37574450589433],[-5.679621564865717,54.374490390636424],[-5.678139066366549,54.37454302170735],[-5.67887412919342,54.37189122402361],[-5.677037671034748,54.371314511801266],[-5.67638304330835,54.37225100491401],[-5.677312245957636,54.37489080351526],[-5.678864242772836,54.37556844122201],[-5.677028365913318,54.376852913904585],[-5.67502120564308,54.37628969179427],[-5.67538055730564,54.37496818339725],[-5.674245003009371,54.37532617192143],[-5.670675573773987,54.377133135313095],[-5.665480537398764,54.38194709513698],[-5.66302533515252,54.38202008111187],[-5.661592510323829,54.38077891722686],[-5.654406014478471,54.38148661855952],[-5.654968286634671,54.383865945262755],[-5.65815848620443,54.38551129594288],[-5.654074704179362,54.38696324124633],[-5.654121254412288,54.390884841307106],[-5.652816292332934,54.390195067939565],[-5.652916144852892,54.387823850952095],[-5.650210563902562,54.38856446565845],[-5.649010734036404,54.391833883017334],[-5.646995369249233,54.39364374044738],[-5.647380747129016,54.39508331017729],[-5.650533019589148,54.39621550533216],[-5.650441143770577,54.39703143088409],[-5.649221553986099,54.398295137073056],[-5.647268560857587,54.39720238179161],[-5.646658804517412,54.397772931331545],[-5.646036554009157,54.39636181033931],[-5.641196938797351,54.4004735290137],[-5.640485083964634,54.40318874578049],[-5.642341147008866,54.405987578320754],[-5.640858029402612,54.40849432967817],[-5.641770679748095,54.41030710934073],[-5.644197903214851,54.41145665436649],[-5.645514091826625,54.41034846544143],[-5.649552147358407,54.41057679796664],[-5.648904032072527,54.415119153528245],[-5.647546812677756,54.412648021521036],[-5.644011976795129,54.41496760168662],[-5.64519741294274,54.41766827180352],[-5.647474452539343,54.41938961262301],[-5.643016988906996,54.42063397231901],[-5.645221766036421,54.421876922965225],[-5.641856616095933,54.4227353499419],[-5.642629658554642,54.422916974368626],[-5.642310833794072,54.42675720331403],[-5.638043753345202,54.426684489190535],[-5.639391932979262,54.42824742755923],[-5.642168426064804,54.427014501400976],[-5.644581584487642,54.42733651413765],[-5.64339160543552,54.429625961814544],[-5.644919528675308,54.43064504634271],[-5.63791622786129,54.42981912010974],[-5.637559694930412,54.432516642818435],[-5.633014779444075,54.43469347683035],[-5.631565624250793,54.43221973736108],[-5.633913025556728,54.43054415393309],[-5.632648603427247,54.42889346689059],[-5.631104167658881,54.42830553774653],[-5.628585533441947,54.43122642691371],[-5.629743238549829,54.43285654920733],[-5.629139312070393,54.434531523918714],[-5.63170143470013,54.43554097426122],[-5.630100869267521,54.43773893462141],[-5.637277223671588,54.44059270211616],[-5.638319809115022,54.43985497030229],[-5.636675592978831,54.4373045102737],[-5.64004275725716,54.438487433092156],[-5.64123693304334,54.44189843839099],[-5.63802334813828,54.4435970363149],[-5.641520292913198,54.44840656068762],[-5.643821803317643,54.44844447939018],[-5.64038957125581,54.449492814678976],[-5.63998510243836,54.44747743656669],[-5.636311154581196,54.446052881918675],[-5.6349597122655,54.44637807476218],[-5.634812167352009,54.44751633171382],[-5.633309415290802,54.44738803279392],[-5.634570405022024,54.449910807316854],[-5.629025414580664,54.453446672892014],[-5.627747989849751,54.45585980300124],[-5.627076933675469,54.45881865244329],[-5.628168154485597,54.46072579237657],[-5.627173677418315,54.46388354827596],[-5.629129912892648,54.46414915196923],[-5.630001517886346,54.460979624222055],[-5.632453269373548,54.459990183560116],[-5.630518484279331,54.45821427913746],[-5.629586030125258,54.454612036324356],[-5.636469683752587,54.4562622203796],[-5.635886368825265,54.45519557105845],[-5.637108346120526,54.454336263297336],[-5.634507677792979,54.451977176832585],[-5.641145675522945,54.450932713722324],[-5.647565602638672,54.45402718084389],[-5.64830656347174,54.452787236510666],[-5.651560211114984,54.45385887010638],[-5.649096243934784,54.45563956034136],[-5.644135934642186,54.454065829760125],[-5.640825318255346,54.45540215321373],[-5.640345181206161,54.456450879045974],[-5.641781072623663,54.45726994365503],[-5.643842218437893,54.455721667861184],[-5.644310403870614,54.457504973247325],[-5.646786291753116,54.45927654721381],[-5.639863345303603,54.45855174349864],[-5.639892665936658,54.46000907672265],[-5.642244505700017,54.460968249826244],[-5.642563987374603,54.46226193424593],[-5.639581639523019,54.46353471834077],[-5.639718559791174,54.464590466425435],[-5.642343847582169,54.46622179761068],[-5.644641015279765,54.46565084212272],[-5.647566670487229,54.46699278834236],[-5.649095785717095,54.465539024310495],[-5.653487220179217,54.4656595581918],[-5.652278060903743,54.46469370904876],[-5.652617852183626,54.4636593759517],[-5.654945105843708,54.46453657834116],[-5.656514369437613,54.46709402239908],[-5.656490586167243,54.46823532773437],[-5.653800857265735,54.46930906190049],[-5.651245561692545,54.468587729949135],[-5.649819151443677,54.47216610259198],[-5.646496858505734,54.47219883305282],[-5.64800812024207,54.473873565455804],[-5.649715019765357,54.47376407874713],[-5.650534840677834,54.472508041866135],[-5.654470220350667,54.474190364676126],[-5.653162213039268,54.47413018098566],[-5.65346978281235,54.47600827520601],[-5.650485425803268,54.47543811116985],[-5.650740881611586,54.47717985983586],[-5.646933763126599,54.47872849897752],[-5.646638619838543,54.48060916042666],[-5.644447432007406,54.480994133733205],[-5.647654488717598,54.48271225518903],[-5.653683728566106,54.483881132932304],[-5.652747558991524,54.486482851662146],[-5.64975661904649,54.48825916772412],[-5.645063515242798,54.485955061789355],[-5.64211587837626,54.485709386318135],[-5.639794381513307,54.48885121005956],[-5.643413754382467,54.490435950657506],[-5.644967605604743,54.48908166010384],[-5.649503152926959,54.48854963088338],[-5.648023142140462,54.490157403480815],[-5.650526946781667,54.49158765014149],[-5.651482933607764,54.493464062807845],[-5.654644597987215,54.49477615929757],[-5.652853575965444,54.495791569216],[-5.658417871440493,54.497829787600345],[-5.659889048631171,54.497579431296316],[-5.659068538855843,54.49636282280017],[-5.661281171636558,54.49487217885024],[-5.662603777503521,54.49536418269304],[-5.66236648071876,54.49461189773395],[-5.66510963867885,54.494294506796436],[-5.665175163657391,54.49217428302178],[-5.667118603113486,54.49138711344134],[-5.671419003808502,54.493383787516336],[-5.673695989307741,54.492685708633715],[-5.673783809221601,54.49357815996322],[-5.670390829994269,54.494328778785274],[-5.672864777474184,54.496378326943834],[-5.677656548630507,54.49697539166209],[-5.677167131374782,54.49836574766277],[-5.678267211237905,54.49957133364949],[-5.675517057522157,54.5008148767128],[-5.677443169532825,54.502760592399696],[-5.674385999484671,54.50729595737815],[-5.676069590800385,54.50980219371611],[-5.669844300539357,54.51168553834266],[-5.664805314376692,54.50976083328338],[-5.663159424293065,54.51249664693293],[-5.659471591691806,54.513738595998696],[-5.658283626413823,54.51589431613281],[-5.65455991822378,54.515247588338546],[-5.654700316061358,54.51413632162018],[-5.651261231967624,54.51231874342562],[-5.646153975295136,54.51374190434619],[-5.645426280579681,54.51246581389861],[-5.647041452567055,54.51169583709212],[-5.64480906131763,54.508481205640074],[-5.648200005290661,54.50818957487746],[-5.647251817848735,54.505585188717774],[-5.651107248133116,54.504046356549075],[-5.64820551275158,54.50152701536705],[-5.650166295856157,54.50134309994466],[-5.650825885058862,54.49913890019575],[-5.645987936112704,54.496076156023996],[-5.645459494641034,54.49755523201274],[-5.640668429537038,54.49592270443557],[-5.632498020157432,54.497728471863695],[-5.6236215601523,54.50313941465685],[-5.623642000376809,54.50552248081926],[-5.618992845159513,54.506716253130676],[-5.627901441021087,54.505811426573494],[-5.629155811440851,54.50331669482054],[-5.633972948000371,54.50153359868076],[-5.646775920845466,54.49936905779322],[-5.648078250895852,54.50116426062891],[-5.644781188017282,54.50164706333842],[-5.645469744536413,54.50462268829327],[-5.642556813632728,54.50821720509199],[-5.642829348922654,54.50973462806765],[-5.640984910896154,54.509390842160876],[-5.638567596106689,54.50700959344515],[-5.636247708545254,54.50764300593095],[-5.639007099489779,54.509997015835985],[-5.642916990992553,54.51000647871566],[-5.643009389120961,54.5112659736524],[-5.638140295581471,54.512164123823524],[-5.638651200752613,54.51410014493334],[-5.637584858649656,54.51496440830707],[-5.631337143292842,54.51526242744238],[-5.631470073463661,54.51620971989234],[-5.640269179169101,54.51761796778721],[-5.640641040827379,54.516736980274096],[-5.639225634305332,54.51578604373484],[-5.639947144573787,54.514985309046445],[-5.648754743685831,54.513885454501626],[-5.65361205977694,54.51727429197536],[-5.654069798234585,54.51866047809687],[-5.653025328301212,54.5196601002902],[-5.653855050533477,54.52015663798751],[-5.659789766556104,54.51840237600679],[-5.662867170091021,54.52010325105078],[-5.665608876442983,54.51891931158169],[-5.667846684510623,54.521795468927365],[-5.672866008715339,54.522490635863846],[-5.678089934074224,54.52050278732897],[-5.679884837551958,54.52046482356516],[-5.680461337655508,54.52149407492743],[-5.680955789930831,54.51974406924972],[-5.681532674550365,54.52076460587084],[-5.680280867736838,54.52362017417407],[-5.684622152714446,54.52582686329798],[-5.682342565671546,54.52615917517382],[-5.688272436573869,54.528421699476425],[-5.68800599236009,54.52934995285614],[-5.686210404693032,54.52917261859963],[-5.686488355613807,54.53027592337583],[-5.689118341719785,54.53177657789371],[-5.685521968566698,54.53346186914047],[-5.689317831103932,54.532014852412985],[-5.699271130394114,54.53378777818981],[-5.699127928386662,54.53230136786914],[-5.699907359875323,54.533749111683235],[-5.70818116488959,54.53744992571376],[-5.71383439234142,54.53640570010703],[-5.715196476570346,54.53437910307615],[-5.714677231735957,54.536506468765296],[-5.717360910995185,54.53703669365099],[-5.717443081642577,54.53785682936571],[-5.717859761897754,54.53720139976304],[-5.7235112383295,54.53817901860141],[-5.724960065329253,54.53912983752222],[-5.726270169493128,54.53829752964453],[-5.726906454265635,54.53825863178284],[-5.724800363020281,54.539422758130385],[-5.722784880589987,54.538395573501354],[-5.723519536371356,54.540057717541885],[-5.722653972025003,54.541394876384345],[-5.720895588710935,54.54156025319183],[-5.740722526003668,54.54592499972719],[-5.734020433874519,54.54580460783466],[-5.731439617051146,54.544450022401314],[-5.726723392140559,54.544240657940975],[-5.725208488933889,54.542901930291805],[-5.719955121253014,54.54174498632859],[-5.722326607122657,54.53965224274555],[-5.720477504186634,54.53912349126484],[-5.714509390949149,54.540025841703525],[-5.712408885036012,54.54243943988805],[-5.708614145017552,54.544309570361136],[-5.697162956366554,54.54666386381518],[-5.696873939676805,54.54835574100195],[-5.698869114131155,54.549670541251906],[-5.697291301747001,54.55585345104831],[-5.69910106604405,54.55871866614189],[-5.6976932573191,54.56136419991572],[-5.699398967080977,54.564838150510695],[-5.697318168769215,54.56583155001824],[-5.698557560058952,54.5684497369449],[-5.696756539436233,54.56942293048107],[-5.69673961494858,54.57165163009722],[-5.692067180422645,54.57406701575863],[-5.690073547720484,54.57733645360928],[-5.671518118850611,54.57911244493882],[-5.667570343733113,54.5752275922175],[-5.65843982810488,54.57177311507521],[-5.656655400322918,54.56858406807079],[-5.65061659032095,54.5677918256997],[-5.646523880287135,54.565536039658355],[-5.640771126715745,54.56528950368248],[-5.638915693589015,54.56333931025522],[-5.638948026301162,54.56180286103288],[-5.63305482796116,54.56180411859723],[-5.628882994505525,54.55980651344093],[-5.614456915432947,54.558458470649875],[-5.608826316955422,54.554833617919016],[-5.60773223031036,54.55349442895018],[-5.60866692532462,54.55254639437226],[-5.604848174533813,54.54911829595319],[-5.60240132184341,54.550020327472616],[-5.59586865701298,54.54862894967096],[-5.594406592253621,54.54597707402146],[-5.595271603082828,54.54492863025658],[-5.594234946106962,54.544085265297625],[-5.595258510883239,54.54106315156605],[-5.588043701544859,54.540571180833695],[-5.58700427044192,54.53658150169099],[-5.583440841349,54.534785926434864],[-5.582069640409028,54.53260382449],[-5.579098841840551,54.532224790404776],[-5.582384235276871,54.52934861692309],[-5.581892375155412,54.52804197728473],[-5.577851004951479,54.527933289689344],[-5.579309538508832,54.53081879622528],[-5.578564529101126,54.53213105001314],[-5.575086055457716,54.53192813236315],[-5.573364107179058,54.53433970619131],[-5.571082531218161,54.53383393474464],[-5.569439707296903,54.53642705114781],[-5.567543042720198,54.5342496685697],[-5.561993260752183,54.53362677845016],[-5.556536192340166,54.52711810522158],[-5.555883606589624,54.520234068020166],[-5.553074883350872,54.52018235690841],[-5.550824189751417,54.51822048777684],[-5.551341917734725,54.51454787032092],[-5.553717650088824,54.51376199930042],[-5.553408639738399,54.51123715993556],[-5.550063609606429,54.51198117967664],[-5.548533762112757,54.51114285910928],[-5.550543352889442,54.50944904331097],[-5.551433081628503,54.506781960541836],[-5.546184066972626,54.50371320830049],[-5.547873761010716,54.499657192876406],[-5.546828147812173,54.4962039421851],[-5.543288765226292,54.49522083862952],[-5.540817730735157,54.496001143358505],[-5.53795314528742,54.494685077589196],[-5.538821059707965,54.49306227868051],[-5.538058406810173,54.49173841624252],[-5.539107997673647,54.491154617133994],[-5.536839923215124,54.490519570501455],[-5.536917597953445,54.489325705811645],[-5.538590979082946,54.48767016888084],[-5.542448317683526,54.487330894395434],[-5.542389516672586,54.484901777781566],[-5.541576190561602,54.483837257007],[-5.537952133549698,54.48316644493664],[-5.533653679201077,54.485606893715136],[-5.529425875458477,54.48554045687476],[-5.533612843489581,54.484338174823385],[-5.530451813063365,54.4830767969998],[-5.537234263517335,54.48126840867749],[-5.533129309882253,54.48003611129318],[-5.540315921702987,54.47938012199108],[-5.539101569691834,54.477711758435404],[-5.539861629124903,54.477470931666694],[-5.531735902898768,54.47928005992222],[-5.531705674088675,54.47808345141738],[-5.530417192829394,54.47757298625506],[-5.532784809724751,54.47691597763307],[-5.53210333729137,54.47773416405636],[-5.532967993963076,54.47813485257711],[-5.533526025182932,54.47711534924556],[-5.534113022229153,54.47850665794628],[-5.535650340330133,54.47720732658147],[-5.535130516540907,54.476141645749784],[-5.53684274258345,54.47696904725507],[-5.541027786651632,54.47537958893765],[-5.538541748246239,54.474774635963655],[-5.538984380763977,54.47385107544128],[-5.537421785624706,54.474484445375225],[-5.534208100989957,54.47112694265727],[-5.533131245397476,54.47146722096822],[-5.532120661227867,54.469570178184206],[-5.533010570814234,54.46845159005394],[-5.535715939909274,54.46841497130151],[-5.537055262488828,54.46707446706958],[-5.541151134090809,54.46622030837032],[-5.540594687823022,54.46464092603949],[-5.544832770756404,54.46194684738732],[-5.543378961294509,54.4609824563192],[-5.546479017182427,54.459625350672425],[-5.548033056218812,54.459890843631904],[-5.550164425005748,54.45808556479462],[-5.554809039588298,54.45910634246507],[-5.557897444208872,54.45769461070098],[-5.549678498628332,54.457982690733246],[-5.539764807435271,54.462002604342636],[-5.540470667816402,54.46046555462186],[-5.538079236085172,54.460645367197685],[-5.537487742093703,54.45951487396554],[-5.536494316684324,54.46018086210149],[-5.534118674985467,54.45816727642126],[-5.536692078192216,54.45604098141468],[-5.535677159777793,54.4538023666483],[-5.533323717842188,54.453299752937006],[-5.530623832735988,54.455071817833804],[-5.529014776081009,54.45472354855664],[-5.533142199605924,54.4520629336071],[-5.532848351783751,54.45087729275588],[-5.5341710880029,54.450741375038305],[-5.534817839915581,54.44896894610412],[-5.533933778704569,54.44743505077652],[-5.53684332725468,54.446936163692286],[-5.534627181900151,54.44427013519416],[-5.537462763843224,54.44272650868814],[-5.534493391398789,54.43983364564459],[-5.53482362798497,54.43796308369091],[-5.537389536753934,54.438498231305246],[-5.539862315396602,54.43705274911134],[-5.544427067474127,54.43927703909131],[-5.547763535312067,54.43823135872784],[-5.543636362104245,54.43434639816733],[-5.540890915745925,54.43612674038616],[-5.536322667063174,54.43535014206296],[-5.536472383675921,54.4342119317936],[-5.534002143474358,54.43423681280248],[-5.533886706338031,54.43313668560989],[-5.537443041236787,54.433634994162006],[-5.534481791125216,54.43282872106235],[-5.536276382182714,54.43216562473931],[-5.535125823436242,54.43068776441264],[-5.538692863631957,54.431042464074004],[-5.540593372771668,54.433592265741865],[-5.543077209682569,54.43339686346487],[-5.542827978756472,54.432032322366354],[-5.538433703815286,54.430801899647165],[-5.537774816186827,54.42975027918776],[-5.538493709949568,54.42684702276653],[-5.540436631243561,54.426853192061266],[-5.539324198461804,54.42528636615455],[-5.541734536136795,54.42642865826699],[-5.541181018080346,54.427403265049165],[-5.541471021969841,54.42764454175447],[-5.542369795421958,54.42658925028122],[-5.543799716163836,54.426653760895114],[-5.543471602945262,54.42749932603505],[-5.544548973846194,54.4267364064757],[-5.547085310119334,54.427450403320464],[-5.540827173332351,54.42957883098993],[-5.54214297458202,54.43111527098404],[-5.546782773386179,54.43116533651299],[-5.548247729850362,54.43016958683596],[-5.547281994858303,54.42869640701616],[-5.548981656094433,54.42846248489305],[-5.549708891024173,54.43002822840708],[-5.548821908796495,54.43152435706626],[-5.545868440401973,54.432013283420744],[-5.544861832360521,54.433461477981595],[-5.546388975724954,54.434859540539314],[-5.548677338203838,54.434991401723124],[-5.554031776336534,54.43298292724814],[-5.554469293455242,54.43071052783962],[-5.557124635512932,54.42928718162001],[-5.561961009797002,54.428982242221615],[-5.564437637218879,54.42987413464308],[-5.564720371499281,54.42840668981443],[-5.566132071351486,54.42769750601031],[-5.565196948386054,54.42481350506445],[-5.568033555868184,54.425633949588274],[-5.571036795430837,54.42187278752389],[-5.576921498903498,54.42317697507738],[-5.572230509352082,54.41857682749977],[-5.575997028897022,54.414700585863976],[-5.578592808852792,54.41000252612823],[-5.578295701432666,54.40743221773977],[-5.57693649173699,54.40605697816069],[-5.579452811921026,54.40056564004763],[-5.577748489260697,54.39826420352315],[-5.574034920787788,54.39763726739987],[-5.573649365695659,54.39522629847731],[-5.5747949574932,54.393754516710864],[-5.57381518668323,54.39285679036024],[-5.570088531227849,54.39080852376082],[-5.561732380261956,54.39064419094652],[-5.555033416923451,54.38277158671946],[-5.548056395844864,54.37993621418028],[-5.547459905670697,54.37748346546852],[-5.545036352711427,54.376349971321176],[-5.544000256489163,54.37340924290747],[-5.539203422714365,54.369101748745656],[-5.540526374101653,54.36493731351393],[-5.534672249343896,54.36416265207004],[-5.528050322061098,54.35958154919837],[-5.530335701149363,54.355334928264966],[-5.530135254598851,54.34957463509433],[-5.526887518729242,54.34360809073159],[-5.522074432538434,54.34076487369861],[-5.520201233758617,54.34288248792275],[-5.51858301060915,54.34251586762419],[-5.513489308356937,54.34466449391237],[-5.511043376433415,54.34108359126602],[-5.511675597783801,54.3394909809327],[-5.510839733251117,54.33678906784948],[-5.506890820527882,54.333743410870746],[-5.505224395057723,54.33103757740383],[-5.502662607597735,54.332111188506126],[-5.500227136700675,54.33156957030292],[-5.50045111491055,54.33264576332786],[-5.497492628909885,54.33347494718626],[-5.495816176574229,54.335228608964364],[-5.499669068808698,54.33811905227789],[-5.499292178325587,54.340968282734785],[-5.496550148901873,54.341974312923675],[-5.499039825581775,54.343209590375764],[-5.495395173938602,54.34670009201832],[-5.495359661652104,54.348722382900945],[-5.496690844317933,54.34902772660889],[-5.494147911360303,54.34945456725273],[-5.497664663610209,54.34976430843079],[-5.49685603736248,54.3498685863208],[-5.498099482837212,54.351484408639145],[-5.49460468956442,54.35187659311722],[-5.49197505393912,54.349477345717126],[-5.49297480553279,54.35086185666657],[-5.491690493592672,54.35134005670747],[-5.491847569928287,54.35227925507526],[-5.492716166533453,54.35180813945186],[-5.493237644570608,54.35340450890977],[-5.490660404829442,54.35720231036502],[-5.48757124945833,54.35791090678539],[-5.483431210268276,54.355524939666914],[-5.480635658962016,54.35857015163665],[-5.481213917072536,54.36002459343875],[-5.480253869317807,54.36185115525517],[-5.48353792055237,54.36532920608891],[-5.486349404747945,54.36502689714434],[-5.488621910219713,54.36335227504549],[-5.491552375278064,54.3638892148942],[-5.492910962872092,54.36541850636619],[-5.492424086530165,54.369271905529054],[-5.486672184138687,54.37189663799412],[-5.486826446021539,54.37326743875265],[-5.484973817085881,54.3740990644346],[-5.485687798178682,54.375206345215084],[-5.489595404487019,54.37625510500705],[-5.484586082967232,54.38000556852234],[-5.482446297002935,54.383697828009154],[-5.473798620027742,54.384904348401314],[-5.470269556768506,54.38140158973083],[-5.468374376941402,54.38295995262462],[-5.462225318638538,54.383163031211836],[-5.459246805884612,54.388073366088236],[-5.460657513486377,54.389523142369534],[-5.458605749665079,54.39304672375599],[-5.461787824709829,54.3939327999232],[-5.460839440047734,54.39500444064071],[-5.462440657524694,54.396000748129765],[-5.461856121167061,54.39695620350945],[-5.464512035009058,54.39709058571402],[-5.463462890883368,54.39885178801659],[-5.46486766534123,54.39922219419794],[-5.463461236932002,54.400236509637054],[-5.465019621168794,54.400026868879195],[-5.46405640424228,54.402257667783374],[-5.46519788522968,54.40244144238223],[-5.463271900723925,54.403792199934244],[-5.464027616620152,54.40437023447659],[-5.462869452147348,54.40614648724632],[-5.463723681324284,54.40625943761121],[-5.462997196267863,54.409198095281546],[-5.463933331815317,54.410230631942596],[-5.463128442384486,54.41124293419748],[-5.464167088607606,54.414670024938495],[-5.467981073809655,54.41830660911437],[-5.472086178494605,54.41905545930878],[-5.472754229861861,54.424261715978005],[-5.478589828081542,54.42439165783806],[-5.479797381686807,54.42648311855651],[-5.479378653656632,54.42963723593629],[-5.477616228646079,54.43222468085725],[-5.471159397223298,54.436223530076965],[-5.461703565046812,54.439304977375926],[-5.457481913586173,54.43864249354387],[-5.455195272943025,54.43945304692266],[-5.454552403646795,54.441521744868716],[-5.45209846156278,54.44365846370602],[-5.45303754318711,54.444843919690136],[-5.450246645614603,54.44830225628601],[-5.45098029364865,54.44916748762269],[-5.450170035651836,54.45139359061116],[-5.440963757375844,54.454372409366265],[-5.435358268151319,54.457097591789314],[-5.438691571877584,54.45634303988858],[-5.438033296768605,54.45704428087456],[-5.438730857063811,54.45739609932593],[-5.436494415551693,54.45717339285023],[-5.439895133414068,54.45924411766871],[-5.438019527448017,54.46011025493678],[-5.439569789213577,54.46022428830853],[-5.436459743400664,54.465319500041375],[-5.435837817375359,54.46864784007417],[-5.436775711826239,54.469662365785695],[-5.435602567041654,54.47061949731792],[-5.436713381756266,54.4708295620221],[-5.436698715740714,54.47235770887707],[-5.440538467730662,54.47262391501044],[-5.441628359623023,54.47617835165245],[-5.440800474776619,54.47745083716131],[-5.438522513875636,54.4775508408258],[-5.438043433065999,54.48160245186582],[-5.433578403775218,54.48469130217042],[-5.432731243939751,54.487356794285525],[-5.436486915809563,54.490228516430854],[-5.442318310750192,54.489370626067874],[-5.45400936630027,54.492914880937406],[-5.459719958474286,54.49531701769018],[-5.462670447095059,54.498049366587715],[-5.465769474588676,54.50455296573557],[-5.46751471920935,54.514050739354936],[-5.470389884499715,54.51546369682843],[-5.471310863294721,54.51738410152248],[-5.471731261815784,54.52040626920838],[-5.470053191334189,54.52583808816801],[-5.474430774019932,54.52987811443436],[-5.47382377427728,54.53034821446024],[-5.477251286792485,54.530192878974844],[-5.481530831651362,54.53390660379421],[-5.483556152542645,54.53944175543521],[-5.482865704732665,54.542247063269464],[-5.479444613382431,54.54393984614803],[-5.480186398112577,54.544561036962804],[-5.481488067751309,54.543290793655935],[-5.483243894089452,54.543587085835355],[-5.484367589783536,54.54508983055077],[-5.483140555395069,54.54557115881328],[-5.48528424559712,54.5460572133209],[-5.484293926351514,54.550373747880144],[-5.477493710762643,54.559127330741255],[-5.477334137784172,54.564103443217185],[-5.479159530194384,54.56697260152198],[-5.485075104455433,54.57120436432461],[-5.489410004880972,54.57774188015282],[-5.495458193404005,54.57674463225258],[-5.500919425512307,54.579435694830735],[-5.503284050222171,54.582372128405694],[-5.504000537969912,54.58891628596983],[-5.507014320405531,54.59186908371021],[-5.516014135426357,54.59427121271306],[-5.521164766434026,54.59765474731431],[-5.524662428089546,54.604115855271864],[-5.524446156571622,54.60576429461629],[-5.528342503023055,54.610842088495],[-5.528162233793116,54.61347155301363],[-5.532273043841645,54.617340720525995],[-5.531306971064792,54.619078569459894],[-5.529444917797017,54.61975097588032],[-5.529693533446205,54.620782168265166],[-5.532335398359589,54.62087507596634],[-5.533705143241471,54.62286895941741],[-5.532721417962461,54.6271412831521],[-5.530226217152597,54.628607001262985],[-5.53189630572191,54.63052758796708],[-5.530805616438507,54.632271069619705],[-5.53164645077201,54.63388320264662],[-5.527880532291793,54.63680056557344],[-5.529017078171228,54.639228826993964],[-5.527552909440693,54.63974065127493],[-5.528680734009464,54.640622914858085],[-5.529361265431225,54.640019593329484],[-5.52971523940447,54.64213206921871],[-5.531589040126234,54.643401310350136],[-5.530128662503419,54.64490197263235],[-5.534781430418314,54.64278014156967],[-5.537519032649664,54.64390008391372],[-5.541016146340718,54.648158301372234],[-5.540383410027325,54.64958090340364],[-5.542530573565076,54.6521870910718],[-5.540287308301952,54.6529584282486],[-5.541739117688238,54.652823640720676],[-5.541683737214134,54.6541975824119],[-5.545049189209529,54.6543891772027],[-5.546670488841305,54.65573312330649],[-5.548103914893555,54.65501356759128],[-5.552513644900848,54.655761261564415],[-5.557906165794396,54.65873576283297],[-5.557681078857063,54.65947622155594],[-5.562635273006406,54.66126197352262],[-5.562074469411482,54.6619220792559],[-5.56310613801397,54.661390256704756],[-5.568073471468736,54.6640569203497],[-5.568088280852218,54.66596302695132],[-5.569483901576615,54.66533232649616],[-5.57124970965556,54.66640949927318],[-5.569508127549172,54.66731950106321],[-5.571917361178163,54.66724400414172],[-5.573197157369961,54.66966685973939],[-5.574991795800809,54.670151520908405],[-5.574172435072462,54.67138075207617],[-5.576628898709973,54.67531541639179],[-5.581191387735739,54.67528388307069],[-5.582711204206316,54.67740677425575],[-5.584459429252075,54.677890093907074],[-5.589003606253,54.67472057301849],[-5.591282364704583,54.674524723001156],[-5.593043203932995,54.67675220469454],[-5.595123518752009,54.67629963353424],[-5.597659789832838,54.67853714041271],[-5.599387302287341,54.67781517578798],[-5.598377472744376,54.677413041221776],[-5.599142647481477,54.67628107282734],[-5.602823491740081,54.67749466650254],[-5.606279961943786,54.67539466496147],[-5.611988821737588,54.67495848328403],[-5.615139021875483,54.67558321680743],[-5.616277805554689,54.6772020153035],[-5.617661697332225,54.676516254770235],[-5.621638860744299,54.67728720954047],[-5.620733373774284,54.679728056308534],[-5.624696031847229,54.6779094144679]]]}}]}