{"type":"FeatureCollection","features":[{"type":"Feature","properties":{"name":"County Kilkenny","source":"Tailte \u00c9ireann Counties National Statutory Boundaries 2019 (CC BY 4.0)","simplify_tolerance_m":75},"geometry":{"type":"Polygon","coordinates":[[[-7.160605751051244,52.27878877324869],[-7.170439844410698,52.27364503759709],[-7.180664991071887,52.26483388053657],[-7.191963316728272,52.257419386400876],[-7.199018851476256,52.2496336977248],[-7.212454381430497,52.243104898474776],[-7.221495855536215,52.24371176860459],[-7.230171333233743,52.24833953260868],[-7.236914946860701,52.25950172868857],[-7.23976945564143,52.26145650600961],[-7.246654808703258,52.26335937336449],[-7.2589037464049895,52.26451843750456],[-7.265000248058587,52.26740331191313],[-7.276292914306565,52.283061128697284],[-7.2832042880443915,52.288941255911965],[-7.284700647413443,52.29718634782101],[-7.2900151012144265,52.299743239952655],[-7.295339363608493,52.30065288851744],[-7.301164064983391,52.304143096077055],[-7.299838816016701,52.31107019217424],[-7.302561164255374,52.31557701739765],[-7.310694926751985,52.32135432649246],[-7.317978370791858,52.324237964875884],[-7.323363377344492,52.32917464980373],[-7.323929260025705,52.3308612714252],[-7.355951339414052,52.336071467481204],[-7.357241170454339,52.337409569175776],[-7.356890430349578,52.34041175983407],[-7.358135264869644,52.34194600641901],[-7.372160731216382,52.34300926375013],[-7.372299949479347,52.34446824926137],[-7.373726934242408,52.34533292784782],[-7.372139207021767,52.34563522852085],[-7.374162280055582,52.34681787460152],[-7.372899666656694,52.34707125631718],[-7.375894559471833,52.34792376957385],[-7.374981239597796,52.348834806762724],[-7.377272207852436,52.349419933135636],[-7.37606025964548,52.35018457137509],[-7.3773448298726025,52.35125464179256],[-7.380122351384625,52.35204245060431],[-7.382983898125386,52.35494543628066],[-7.388760684460544,52.35653598001452],[-7.39056907686227,52.359558455924585],[-7.39380287173753,52.360426295224066],[-7.394958725049738,52.36316253629722],[-7.397066074257983,52.364051703178355],[-7.396417098373081,52.36695350670301],[-7.3952170961194135,52.368776387913826],[-7.39401239485126,52.36845229242786],[-7.394024544471526,52.37234606441607],[-7.389626027646553,52.3777784202144],[-7.3921544795507526,52.38045781587925],[-7.388237795050686,52.38390745872236],[-7.390674142361428,52.38644561888704],[-7.394532577913441,52.3947936852762],[-7.393067156606946,52.39854550334947],[-7.390459565108827,52.39996058455668],[-7.3890993176177835,52.40754779625437],[-7.385478790934947,52.41040467468134],[-7.385458260486089,52.41560312683716],[-7.383212788386133,52.41650882564219],[-7.383668109914468,52.41781782734484],[-7.382449863476098,52.42032898005091],[-7.384697186734369,52.42466177443366],[-7.389323947602496,52.425553459767464],[-7.3910169154578105,52.428591551741356],[-7.395326886890695,52.42748888062335],[-7.399937386851039,52.42795111921646],[-7.4018913251355585,52.42995165372273],[-7.401499522057178,52.43167071605708],[-7.403518904396461,52.43445521023791],[-7.408367879399784,52.43539781759951],[-7.409745978551862,52.43802509273413],[-7.418694341464743,52.44198920391259],[-7.421591641483309,52.446841900542836],[-7.422945375215085,52.45207339398405],[-7.429362173850353,52.45317993368623],[-7.43056883495674,52.45505645932079],[-7.43254056307115,52.45497382187938],[-7.441050079221084,52.459619289114634],[-7.4410657613436975,52.46595906610798],[-7.46099234462057,52.465880615122074],[-7.462763549506329,52.46933772370053],[-7.467889710147138,52.47221743728783],[-7.46209683922988,52.47436971226489],[-7.459510941936074,52.47680413434703],[-7.458507215911543,52.48026842768512],[-7.459524290641057,52.482314897866395],[-7.4568874519733415,52.482639904039324],[-7.456023835895524,52.48417626907471],[-7.4439295345679115,52.49131334430299],[-7.439355946603887,52.493216875280645],[-7.43807889741634,52.49249409663146],[-7.432014246018411,52.49521623712157],[-7.432613771143646,52.49587928856865],[-7.430274306409025,52.497612117167265],[-7.429533526109556,52.50314619466924],[-7.425208392806779,52.504465371020615],[-7.4200654972457105,52.51091001938264],[-7.423728903273595,52.5139979446426],[-7.43244001106439,52.51856095014561],[-7.440003481100188,52.51387576552851],[-7.443424447258507,52.51038943007782],[-7.449978753888623,52.509302521011314],[-7.453386091744637,52.51102194215757],[-7.453217752297821,52.51229783601777],[-7.451492839408112,52.51287180175997],[-7.451726961685428,52.51592501624187],[-7.4502748140790755,52.51639856983232],[-7.451797827583694,52.51912498841231],[-7.454064602933798,52.5214952782805],[-7.458827836759981,52.52142143679694],[-7.457322651568923,52.52329068767553],[-7.457139975436844,52.52953572378352],[-7.458566989792041,52.53571518685265],[-7.456461483408624,52.539789228592475],[-7.45630937908425,52.54340368748363],[-7.452767655984981,52.54554254501199],[-7.454437834336942,52.54691801343819],[-7.454503799509679,52.54932599902603],[-7.454052489774244,52.55150194982747],[-7.451503833902012,52.55419156745049],[-7.45315797285334,52.55786111597695],[-7.4592264763503735,52.557993827176226],[-7.459349381264868,52.56001175135588],[-7.4556497569124565,52.563501583432355],[-7.457598072195107,52.56726976623161],[-7.45511961407381,52.57023148209062],[-7.45526242285438,52.57396727071046],[-7.458465554881758,52.574087528659646],[-7.452769698216265,52.57868678205214],[-7.451361073480794,52.581872854841635],[-7.461106556702179,52.58458324765663],[-7.47572991437816,52.590825678641686],[-7.475733330523484,52.592516773496655],[-7.479954593926995,52.596116610784975],[-7.478819939244212,52.597332899209306],[-7.481231262094145,52.60283916819277],[-7.481048820860717,52.60400747604651],[-7.478429863646985,52.60547910813281],[-7.478981683918332,52.60647142848253],[-7.476301107474209,52.60738216941942],[-7.4746741672181125,52.61111997555487],[-7.476078353451368,52.611942820911125],[-7.474605066165824,52.61457026135683],[-7.476262752102606,52.614886389129474],[-7.475268252739311,52.61595802101343],[-7.475963664288272,52.617119040632325],[-7.477932707390824,52.61734484261574],[-7.477341244014786,52.61822366485658],[-7.478650028845099,52.61872665511249],[-7.478200085896686,52.61973830155206],[-7.4821719029972185,52.620811662872164],[-7.483369676730013,52.62341512502762],[-7.488298035988948,52.62513937550063],[-7.489882150224672,52.62793094930948],[-7.4996591559870165,52.633266661714906],[-7.4993223160141165,52.634192379351305],[-7.502343156098924,52.635391579477805],[-7.502155047671429,52.63680989272147],[-7.503589316144921,52.637069041909356],[-7.503701606337796,52.6384182924304],[-7.510787592279733,52.64250750751351],[-7.512302630159578,52.647017157678235],[-7.521180862662569,52.65469498187933],[-7.5190197204578135,52.659149008119094],[-7.51980926547953,52.66178028933732],[-7.526716946267848,52.668638951815865],[-7.527469194728515,52.672849153179364],[-7.531441288917164,52.67381666389988],[-7.535569622024818,52.679076910290384],[-7.538588818068132,52.6803375589026],[-7.533593159683439,52.68324578250102],[-7.536232018380288,52.68923266651941],[-7.541702244672731,52.69331032226661],[-7.547029104489662,52.694795693492786],[-7.546631254547881,52.69799213520883],[-7.547682338483968,52.700413935605816],[-7.553478958857472,52.70268471817328],[-7.560552675778397,52.702754289046965],[-7.561011281369731,52.70574664586249],[-7.56970815532487,52.70847167079548],[-7.576720357933599,52.71251192085095],[-7.580947796689902,52.71127369144022],[-7.5871127060567956,52.7132116483806],[-7.59285733256092,52.716239301224235],[-7.594215807593548,52.717615877277346],[-7.594619403220725,52.72034809037862],[-7.603498176374448,52.719623850754104],[-7.6087116404951995,52.720981628150085],[-7.611106117403052,52.72442163541736],[-7.61473146252431,52.72538590087862],[-7.626174449717843,52.733689202718686],[-7.6478266761286555,52.73213105218987],[-7.648032981083257,52.73349385338236],[-7.646183353980158,52.735073959774994],[-7.654126374790253,52.74673270735506],[-7.669873871377646,52.75565854839882],[-7.669670437404772,52.75923518685536],[-7.66736879200989,52.76094578705284],[-7.671263698415975,52.77747869902167],[-7.674082370659732,52.78129376320857],[-7.662642878735329,52.78402067585767],[-7.654232065264863,52.78746660094368],[-7.652896689578856,52.789339484741745],[-7.647518429351569,52.78995652664938],[-7.635689469866284,52.7876801284022],[-7.62561058970449,52.78991955863934],[-7.61207919791719,52.79003586428227],[-7.6119815838337175,52.7919872694351],[-7.614514028688,52.79265559746069],[-7.613191048699089,52.79671818209772],[-7.61447962083943,52.80089929034295],[-7.613109605403898,52.80165858921599],[-7.616457276831774,52.80377398588473],[-7.616757469739398,52.80943038528825],[-7.612780654011565,52.81056819447477],[-7.608907931883904,52.80715957387985],[-7.606518685161354,52.81094655971729],[-7.601675119044013,52.81297397719039],[-7.599548101730356,52.81459714317424],[-7.600162106825569,52.815471316557115],[-7.594966810043075,52.81646347186483],[-7.584096281098057,52.82194808760984],[-7.582405845867166,52.823417057577124],[-7.582140248102096,52.82615743275997],[-7.579972856244627,52.82677615123723],[-7.578589356284395,52.828719493105254],[-7.573681569619215,52.82557346673181],[-7.573158269124798,52.823274676535746],[-7.5708460858977356,52.82201032328131],[-7.566270522048036,52.821897964153564],[-7.565539096066737,52.819228385989895],[-7.561631657606312,52.818835436042164],[-7.561727030217961,52.81718281498359],[-7.559615165626328,52.8169760805595],[-7.560328119758603,52.81531356224089],[-7.556691079749374,52.8144130098426],[-7.559515271653385,52.80865812234807],[-7.5537217302340425,52.80789799577433],[-7.5512036309286215,52.80643983505584],[-7.547401476635811,52.808229369356255],[-7.535080191276248,52.80324155860338],[-7.534106243309559,52.806446304400545],[-7.535115053510317,52.81012228928046],[-7.53396189006692,52.811442355975046],[-7.529053996644183,52.81124267933736],[-7.523651923366189,52.80810396455665],[-7.516027727819264,52.80661807148971],[-7.5193387885740055,52.801983324274104],[-7.516569607138254,52.801430011138244],[-7.516798945986512,52.800662322934244],[-7.507702663331269,52.800138013610095],[-7.5009246008318895,52.802245593464434],[-7.494887738848875,52.80105927337052],[-7.496093186184158,52.79922153803867],[-7.489574272108349,52.79760868047096],[-7.485968909478215,52.79166821272299],[-7.4759990756667785,52.785629192495506],[-7.45191008673686,52.78770699923835],[-7.449258400728469,52.786990152431436],[-7.447593362825494,52.78974176589837],[-7.446687675817365,52.79541789562003],[-7.439089947433216,52.796282957179976],[-7.430831383384277,52.80231412853787],[-7.425891558780463,52.804049918144024],[-7.42163943563138,52.80132261028309],[-7.41262601291866,52.800507587028775],[-7.403804134030145,52.79833689196288],[-7.399014866136993,52.795689933067],[-7.391029627553112,52.80428480163976],[-7.3907492971291475,52.80622218450728],[-7.392650761804451,52.80811898975224],[-7.390187934395189,52.811466605479616],[-7.390260835731313,52.8159637473962],[-7.388693063661446,52.820007117135134],[-7.385911167742623,52.8199891447002],[-7.383359638835019,52.821374294126024],[-7.383073002495147,52.82273149102495],[-7.380941426925362,52.82149477259446],[-7.378151374168619,52.82359129467278],[-7.376693703326043,52.82883054636731],[-7.3704076259481655,52.83178138741462],[-7.364247817113015,52.83049096942425],[-7.3612812564538075,52.82841026373887],[-7.359869688815626,52.823781647088346],[-7.361605587984836,52.81961023213821],[-7.360084316020958,52.81387416249583],[-7.355121694266029,52.81238552217928],[-7.349637464553078,52.81299291184551],[-7.347512507217433,52.811687361022024],[-7.34827719214013,52.81280637577205],[-7.346849190456951,52.813134143125446],[-7.348472775973227,52.81385890711506],[-7.3497744236655675,52.816844954834075],[-7.348524523473452,52.81971101572983],[-7.349706907614682,52.8199510044434],[-7.349958826456715,52.821167923274],[-7.347992759639047,52.82200836444633],[-7.346187244896202,52.82616701989054],[-7.3470777136192345,52.827484842531035],[-7.344518380904662,52.82963364239581],[-7.345576255938405,52.83332282340457],[-7.342736196384274,52.834914918573375],[-7.34415901382079,52.836483448417134],[-7.343524524919318,52.837105658420846],[-7.344843939149945,52.83767151533032],[-7.343789373435778,52.838194213051636],[-7.345331693198629,52.83898457250936],[-7.343397247019745,52.83930856148426],[-7.342885905176615,52.84147533751028],[-7.339709204701704,52.84309467945904],[-7.340242158866634,52.84393832087935],[-7.337418918873553,52.84409687335683],[-7.3379254982217645,52.84470488725999],[-7.335916371592574,52.84621276614143],[-7.336741343549649,52.84711778909134],[-7.335301082826252,52.848717759440206],[-7.3295584133081535,52.8517073474216],[-7.326544126509698,52.85806834850841],[-7.327195183848668,52.86008395682471],[-7.3243253201169685,52.8622670922911],[-7.31967040350649,52.861567757655685],[-7.3156998036642,52.86295692296761],[-7.311927242928148,52.8659833114046],[-7.308616863073291,52.866286747734804],[-7.307727852980229,52.864799429824444],[-7.3018702629242656,52.86166365912395],[-7.30128989289051,52.862911748789955],[-7.299115116615863,52.86360772296206],[-7.277298388997432,52.854232381593256],[-7.266579816827272,52.851856569103965],[-7.25952928415713,52.84905566867275],[-7.246611096854614,52.862247984562494],[-7.2432809356145755,52.86278839918508],[-7.244249927020991,52.866171932886445],[-7.242899077042881,52.86970722562636],[-7.245357440413492,52.87248411388698],[-7.247362777514213,52.87832887670541],[-7.225533252653924,52.878067513253406],[-7.220362151955193,52.877079546685664],[-7.2122598579773385,52.88181406236598],[-7.211915485213815,52.88471192661577],[-7.206794406729442,52.88699721705402],[-7.204432527964862,52.890716890523024],[-7.19644399329464,52.89394974170062],[-7.189100651416715,52.8939509433343],[-7.18409128488762,52.8913699656168],[-7.184648799641949,52.89042196998443],[-7.179911352679409,52.88961849336563],[-7.1776664898102664,52.887549091226525],[-7.176969286846963,52.88427584766417],[-7.175361993445038,52.88341996413281],[-7.168876686634389,52.883859314160624],[-7.16638802336611,52.88351537937736],[-7.165967705827655,52.88230438449958],[-7.163159371009733,52.88223389388264],[-7.164261894054889,52.87838959876469],[-7.159551288719544,52.87077408910022],[-7.157439519561142,52.87301355366643],[-7.154435906885952,52.873979788463046],[-7.153186944619683,52.87590945533386],[-7.150214392692219,52.87691386903713],[-7.148565991037137,52.8761813853601],[-7.147497785722134,52.87276795069589],[-7.139958470519685,52.8691195452922],[-7.138582674543864,52.86669747434583],[-7.140321778549269,52.85959992028442],[-7.138668115236068,52.856015606749416],[-7.140952122142394,52.85341583381672],[-7.1420136746180924,52.84972648690076],[-7.1407944823822085,52.84917144548935],[-7.141663333388873,52.84852563577104],[-7.136186398946109,52.846996241537454],[-7.130971709611159,52.84179355710642],[-7.128625194547901,52.84112279722368],[-7.128891519659035,52.83805193337358],[-7.122250522921979,52.83091253813629],[-7.122579106474711,52.82889852864237],[-7.119907982549269,52.82394931240558],[-7.09879930360178,52.82692069853386],[-7.090913601521376,52.82176984129072],[-7.09328561842123,52.82085500937378],[-7.089095607557582,52.81736862043711],[-7.082377423107561,52.81578466215218],[-7.076904525123429,52.81616343942024],[-7.070272995854324,52.812759800063404],[-7.069180655300566,52.80783337659263],[-7.062854856080206,52.79966127907366],[-7.059871135348042,52.79351093221261],[-7.065810267602056,52.78881222448369],[-7.067631507643274,52.7851781464516],[-7.0754748345636,52.783847712775604],[-7.079853392003791,52.78184296200517],[-7.082448894085685,52.77905123545965],[-7.090682192681036,52.776163488844624],[-7.085886421065126,52.77521642005471],[-7.081510796086273,52.769882501306775],[-7.083798660324228,52.76173741020711],[-7.083308169684303,52.7570769361295],[-7.101688878461211,52.74863943472527],[-7.102339694781496,52.74643487273018],[-7.098842109129832,52.73925722506793],[-7.092003112208642,52.73774954055333],[-7.090040694901154,52.73397518589072],[-7.09452618906054,52.731531464491724],[-7.099949817521424,52.73242799177597],[-7.104825152586059,52.731427309025186],[-7.107863207936823,52.72529429569798],[-7.093418068222697,52.72524943040796],[-7.080173905559899,52.726527951161806],[-7.070258529576075,52.71450383673096],[-7.06884789078834,52.71094807115375],[-7.065781213522082,52.70821415500593],[-7.056692110115495,52.71040412875691],[-7.052524935836764,52.70296244767593],[-7.050293243813002,52.70479061248629],[-7.050541889422887,52.70818336733173],[-7.049312623876209,52.71050626645464],[-7.042463219696654,52.715442919982415],[-7.038866080509364,52.71326111028283],[-7.036299438460539,52.709962099458004],[-7.028593927114568,52.70829651722715],[-7.025377377114118,52.70565091009339],[-7.02036503932322,52.70510680679129],[-7.015654045852462,52.70291838108481],[-7.011757551523459,52.69763496866536],[-7.003970543275312,52.693305259189295],[-7.006522080801578,52.691167433757656],[-6.99975906782519,52.68857547869095],[-7.0056450122761165,52.68484329301899],[-6.99570122812662,52.68108528698055],[-6.9976982668066725,52.6791319188348],[-6.991921627619936,52.67602580783266],[-6.993049641637156,52.673655695370556],[-6.987188397336392,52.6727054032949],[-6.987469219773448,52.67086940314525],[-6.979927669230093,52.668960814560975],[-6.986298049818791,52.66351171075989],[-6.9878381862245424,52.66022237083728],[-6.9873443133493565,52.64786554501688],[-6.985371805251628,52.64285617504352],[-6.989483113115688,52.63872517454658],[-6.991566901498266,52.63384072434075],[-6.988729988693664,52.629384229294054],[-6.980157428322521,52.62574850937503],[-6.980995160744277,52.62321531847738],[-6.985168761067957,52.620416186451905],[-6.984685202779509,52.617864738757476],[-6.979422913174658,52.61383501902008],[-6.973094636805232,52.611360311536814],[-6.969959394502558,52.603910461746864],[-6.9624033659184805,52.601803440897925],[-6.950580731785129,52.60029272013498],[-6.942844087349799,52.5953373111505],[-6.938950701178877,52.59071670882441],[-6.93294159175947,52.588689880133586],[-6.92717225873637,52.58814221082859],[-6.919055843460395,52.57670653751533],[-6.919282513983519,52.57456640958588],[-6.922370542602437,52.56963374570218],[-6.915319432648715,52.56374502591755],[-6.91494470414216,52.56150327552084],[-6.916634904555347,52.56114607106808],[-6.91910267127553,52.55837752370176],[-6.924595276283115,52.55768056019567],[-6.931115903755151,52.554161257616684],[-6.935210919804132,52.548918741777236],[-6.945434659903711,52.54633834510141],[-6.9461074058389105,52.541066947541026],[-6.953610668307964,52.540009541268006],[-6.958565266397754,52.53753437748793],[-6.95952813706631,52.53591600891282],[-6.9557264955773785,52.5313386833981],[-6.952559125018074,52.52984768238981],[-6.947604364559394,52.52858682286278],[-6.936380072304728,52.52823000752689],[-6.934692869334955,52.52727817891967],[-6.935108248163873,52.52386986207447],[-6.933009920809767,52.51695794001593],[-6.936736971018591,52.510607515869616],[-6.937067003068252,52.5054095320534],[-6.940315589310868,52.50176231988543],[-6.9405344936648135,52.499857049936125],[-6.933723608270606,52.48922197620743],[-6.924844465817378,52.485343928790435],[-6.927993389398213,52.48134257047654],[-6.927579701119052,52.4802154467421],[-6.9198726204687455,52.477328680457674],[-6.918599378914075,52.475242285227],[-6.91982669696375,52.47254782026287],[-6.923088516036575,52.4700800050346],[-6.933178285712195,52.46914177992936],[-6.9345488255671315,52.46726648641639],[-6.9325596148755855,52.46594620249691],[-6.927880675817361,52.466780740045955],[-6.917724342131622,52.46393794795317],[-6.914699729637342,52.46199907840801],[-6.915452929721004,52.4601658589481],[-6.9253588754283495,52.45578012600793],[-6.923391402140204,52.451200355037635],[-6.927310181256401,52.44209688222963],[-6.926604102908102,52.4399388754043],[-6.921805330784682,52.43446269140726],[-6.9163093889569405,52.431733865638236],[-6.915034324004378,52.42969277828432],[-6.918361957092769,52.42620070522803],[-6.9253968068274565,52.42478524007898],[-6.925197989484818,52.421342230295366],[-6.926549361218865,52.42025145386157],[-6.933040470266491,52.42006524681616],[-6.9409711532842655,52.421780172054824],[-6.9455752855305946,52.425060109253415],[-6.950161400037403,52.42566427586676],[-6.952585932191685,52.42566467222187],[-6.961432254687159,52.421576976743786],[-6.9617039351468275,52.41946635014752],[-6.956842724851551,52.41612832319049],[-6.94183366415832,52.412214381808276],[-6.940396201111504,52.408782827682806],[-6.9411372733098124,52.40286583654303],[-6.955667139926775,52.3989154364628],[-6.9568728659146,52.39188741183908],[-6.953721981601775,52.39031498921954],[-6.962579111202698,52.38196338548076],[-6.965233626782632,52.37816084573724],[-6.965371128863629,52.374167572424334],[-6.964001951131469,52.37046009217419],[-6.965037904044499,52.368398880773356],[-6.9703869997208265,52.36726055026765],[-6.987601274970505,52.367829102833895],[-6.991533931127928,52.364360683431144],[-6.993111771929776,52.361519967627935],[-6.993947058139665,52.355203069229546],[-6.99710331773668,52.348375659688486],[-6.9934659067243325,52.33979688168738],[-6.993576741668218,52.330624289280124],[-6.98612585848475,52.32370354741888],[-6.986516091248971,52.32136550089529],[-6.988529048669628,52.31899773542426],[-7.000412473753364,52.31513748298903],[-7.0036600221409095,52.31274750620505],[-7.006059145517709,52.30871066660957],[-7.006247471167811,52.30616653730869],[-7.0182111888443135,52.296148595974536],[-7.000823064319641,52.27833747301784],[-7.000172085916484,52.275699842640606],[-7.021175017316245,52.271278366953084],[-7.026206078322519,52.26914839438759],[-7.034372739106495,52.262298549293654],[-7.03794025810741,52.25634784401456],[-7.0427546837581945,52.25563040958027],[-7.070808806357038,52.25668595347778],[-7.087534919527688,52.25162398732241],[-7.092080964703279,52.25263890509708],[-7.096850875137781,52.25751796588083],[-7.100611954614796,52.26635099158577],[-7.09667108939431,52.26572804723963],[-7.096007710193176,52.26667364897019],[-7.09904975047301,52.2676090529507],[-7.097979827829798,52.26817124447567],[-7.100299387565173,52.270386786349924],[-7.105102031537603,52.268690675194634],[-7.105232065114201,52.26672724771562],[-7.132814088453388,52.26895351900458],[-7.1510578594119005,52.27927728390595],[-7.155422144425438,52.27982545254103],[-7.160605751051244,52.27878877324869]]]}}]}