{"type":"FeatureCollection","features":[{"type":"Feature","properties":{"name":"County Laois","source":"Tailte \u00c9ireann Counties National Statutory Boundaries 2019 (CC BY 4.0)","simplify_tolerance_m":75},"geometry":{"type":"Polygon","coordinates":[[[-7.089735242860634,53.00099560507502],[-7.086640891347753,52.9982727522192],[-7.084185058871813,52.998114282830024],[-7.081467980046436,52.996296794813226],[-7.079462978569605,52.99753989252396],[-7.075850371453917,52.99384339961527],[-7.070988785491618,52.99285597233236],[-7.06864040475129,52.99118100679734],[-7.065425888760237,52.983133515732355],[-7.057620460492065,52.98109513989209],[-7.056175103317483,52.978505132242816],[-7.0536312159333345,52.97825995258701],[-7.049402008677344,52.980789870038016],[-7.0483988501728385,52.97889395245594],[-7.0431349372299605,52.97695601477138],[-7.035180075230046,52.97872132881282],[-7.0227875051993385,52.97465067947004],[-7.017638673711336,52.975249166489135],[-7.019069122965288,52.97185173302761],[-7.022806696312387,52.9705704333402],[-7.020229400821899,52.96609511379779],[-7.014006090191262,52.96893619262444],[-6.989407832359321,52.97499973473359],[-6.983457763229091,52.97785142201584],[-6.980042448731188,52.97809665837464],[-6.9778764395630635,52.97428924991477],[-6.972343783760019,52.972019555017155],[-6.970383246532415,52.96904309205754],[-6.97035390687762,52.96502990252205],[-6.968996126386037,52.963463153755505],[-6.970270557481471,52.95889085334399],[-6.965780150178156,52.95598605002067],[-6.963773455096535,52.95325831729227],[-6.959840698373641,52.951772853280836],[-6.960248309112682,52.95027673875675],[-6.95926375452739,52.94904886295343],[-6.954856096955188,52.94737373085615],[-6.953628525965341,52.94351391356202],[-6.954329930174196,52.93871370907656],[-6.951620845444372,52.937128074138066],[-6.948897498336638,52.93257345341789],[-6.9460348083721835,52.93028647998236],[-6.945422718611963,52.926643444528274],[-6.937385306662177,52.92028268801295],[-6.934088187215495,52.912295355644375],[-6.936976202342993,52.90547540598186],[-6.935761088011784,52.89992553225548],[-6.940783351426231,52.89623345325438],[-6.943382862453667,52.89084362811696],[-6.940011580599429,52.886844921241554],[-6.9399467219006965,52.8773759098788],[-6.935809684216277,52.872205126871606],[-6.934145369188624,52.86657625116294],[-6.936785239539879,52.86044762246786],[-6.9337190250322305,52.85473150275947],[-6.935140482945214,52.85283509871671],[-6.931939041773888,52.84642784594442],[-6.932800652062242,52.84354135125597],[-6.946088056103602,52.83958997780259],[-6.940215384088266,52.83335662392425],[-6.937564348922859,52.82874041708388],[-6.939225114841738,52.825798229381824],[-6.94412825103951,52.82134261341005],[-6.9497087507989175,52.81845408448594],[-6.951583853299681,52.815045535748574],[-6.966285725246642,52.80932718467535],[-6.974474169741643,52.80974698167467],[-6.991123242175849,52.80798875528808],[-7.004530485352825,52.80921049255489],[-7.014084245524869,52.80690331775003],[-7.0120471160583575,52.80826123316035],[-7.021384653650323,52.81041792001243],[-7.0385383332200595,52.80840376106589],[-7.040383505040339,52.80771310347569],[-7.040192202907561,52.806258848368195],[-7.042960402297074,52.8021018065115],[-7.0432670818457295,52.80066316484546],[-7.041751798136691,52.797982571352556],[-7.0501485515150835,52.79430953015478],[-7.0603154283753335,52.79314955285099],[-7.061485200593577,52.79743771501182],[-7.069337499524318,52.808124049210704],[-7.070272995854324,52.812759800063404],[-7.076659361938935,52.81610243605196],[-7.082377423107561,52.81578466215218],[-7.089095607557582,52.81736862043711],[-7.09328561842123,52.82085500937378],[-7.090913601521376,52.82176984129072],[-7.09879930360178,52.82692069853386],[-7.119907982549269,52.82394931240558],[-7.122579106474711,52.82889852864237],[-7.122250522921979,52.83091253813629],[-7.128891519659035,52.83805193337358],[-7.128625194547901,52.84112279722368],[-7.130971709611159,52.84179355710642],[-7.136234714399681,52.84702201999],[-7.141332818739251,52.84785429935391],[-7.140823852352952,52.849348702745836],[-7.1420136746180924,52.84972648690076],[-7.140952122142394,52.85341583381672],[-7.138668115236068,52.856015606749416],[-7.140483216719661,52.861558140457745],[-7.138582674543864,52.86669747434583],[-7.14126220147409,52.87004851650423],[-7.147497785722134,52.87276795069589],[-7.148647940789771,52.87627435057564],[-7.150583223852744,52.87691884440554],[-7.153186944619683,52.87590945533386],[-7.154435906885952,52.873979788463046],[-7.157439519561142,52.87301355366643],[-7.159551288719544,52.87077408910022],[-7.164261894054889,52.87838959876469],[-7.163159371009733,52.88223389388264],[-7.165967705827655,52.88230438449958],[-7.16638802336611,52.88351537937736],[-7.168876686634389,52.883859314160624],[-7.175361993445038,52.88341996413281],[-7.176969286846963,52.88427584766417],[-7.1776664898102664,52.887549091226525],[-7.179911352679409,52.88961849336563],[-7.184648799641949,52.89042196998443],[-7.18409128488762,52.8913699656168],[-7.189100651416715,52.8939509433343],[-7.196315749040995,52.89395637894119],[-7.204432527964862,52.890716890523024],[-7.206794406729442,52.88699721705402],[-7.211915485213815,52.88471192661577],[-7.2122598579773385,52.88181406236598],[-7.220362151955193,52.877079546685664],[-7.225533252653924,52.878067513253406],[-7.247362777514213,52.87832887670541],[-7.245357440413492,52.87248411388698],[-7.242899077042881,52.86970722562636],[-7.244249927020991,52.866171932886445],[-7.2432809356145755,52.86278839918508],[-7.246611096854614,52.862247984562494],[-7.25952928415713,52.84905566867275],[-7.266579816827272,52.851856569103965],[-7.277298388997432,52.854232381593256],[-7.299115116615863,52.86360772296206],[-7.30128989289051,52.862911748789955],[-7.3018702629242656,52.86166365912395],[-7.307727852980229,52.864799429824444],[-7.308616863073291,52.866286747734804],[-7.311927242928148,52.8659833114046],[-7.3156998036642,52.86295692296761],[-7.31967040350649,52.861567757655685],[-7.3243253201169685,52.8622670922911],[-7.327195183848668,52.86008395682471],[-7.326544126509698,52.85806834850841],[-7.3295584133081535,52.8517073474216],[-7.335301082826252,52.848717759440206],[-7.336741343549649,52.84711778909134],[-7.335916371592574,52.84621276614143],[-7.3379254982217645,52.84470488725999],[-7.337418918873553,52.84409687335683],[-7.340242158866634,52.84393832087935],[-7.339709204701704,52.84309467945904],[-7.342885905176615,52.84147533751028],[-7.343397247019745,52.83930856148426],[-7.345331693198629,52.83898457250936],[-7.343789373435778,52.838194213051636],[-7.344843939149945,52.83767151533032],[-7.343524524919318,52.837105658420846],[-7.34415901382079,52.836483448417134],[-7.342736196384274,52.834914918573375],[-7.345576255938405,52.83332282340457],[-7.344518380904662,52.82963364239581],[-7.3470777136192345,52.827484842531035],[-7.346187244896202,52.82616701989054],[-7.347992759639047,52.82200836444633],[-7.349958826456715,52.821167923274],[-7.349706907614682,52.8199510044434],[-7.348524523473452,52.81971101572983],[-7.3497744236655675,52.816844954834075],[-7.348472775973227,52.81385890711506],[-7.346849190456951,52.813134143125446],[-7.34827719214013,52.81280637577205],[-7.347512507217433,52.811687361022024],[-7.349637464553078,52.81299291184551],[-7.355121694266029,52.81238552217928],[-7.360084316020958,52.81387416249583],[-7.361605587984836,52.81961023213821],[-7.359869688815626,52.823781647088346],[-7.3612812564538075,52.82841026373887],[-7.364247817113015,52.83049096942425],[-7.3704076259481655,52.83178138741462],[-7.376693703326043,52.82883054636731],[-7.378151374168619,52.82359129467278],[-7.380941426925362,52.82149477259446],[-7.383073002495147,52.82273149102495],[-7.383359638835019,52.821374294126024],[-7.385911167742623,52.8199891447002],[-7.388693063661446,52.820007117135134],[-7.390260835731313,52.8159637473962],[-7.390187934395189,52.811466605479616],[-7.392650761804451,52.80811898975224],[-7.3907492971291475,52.80622218450728],[-7.391029627553112,52.80428480163976],[-7.399014866136993,52.795689933067],[-7.403804134030145,52.79833689196288],[-7.41262601291866,52.800507587028775],[-7.42163943563138,52.80132261028309],[-7.425891558780463,52.804049918144024],[-7.430831383384277,52.80231412853787],[-7.439089947433216,52.796282957179976],[-7.446687675817365,52.79541789562003],[-7.447593362825494,52.78974176589837],[-7.449258400728469,52.786990152431436],[-7.45191008673686,52.78770699923835],[-7.4759990756667785,52.785629192495506],[-7.485968909478215,52.79166821272299],[-7.489574272108349,52.79760868047096],[-7.496093186184158,52.79922153803867],[-7.494887738848875,52.80105927337052],[-7.5009246008318895,52.802245593464434],[-7.507702663331269,52.800138013610095],[-7.516798945986512,52.800662322934244],[-7.516569607138254,52.801430011138244],[-7.5193387885740055,52.801983324274104],[-7.516027727819264,52.80661807148971],[-7.523651923366189,52.80810396455665],[-7.529053996644183,52.81124267933736],[-7.53396189006692,52.811442355975046],[-7.535115053510317,52.81012228928046],[-7.534106243309559,52.806446304400545],[-7.535080191276248,52.80324155860338],[-7.547401476635811,52.808229369356255],[-7.5512036309286215,52.80643983505584],[-7.5537217302340425,52.80789799577433],[-7.559515271653385,52.80865812234807],[-7.556691079749374,52.8144130098426],[-7.560328119758603,52.81531356224089],[-7.559615165626328,52.8169760805595],[-7.561727030217961,52.81718281498359],[-7.561631657606312,52.818835436042164],[-7.565539096066737,52.819228385989895],[-7.566270522048036,52.821897964153564],[-7.5708460858977356,52.82201032328131],[-7.573158269124798,52.823274676535746],[-7.573681569619215,52.82557346673181],[-7.578589356284395,52.828719493105254],[-7.579972856244627,52.82677615123723],[-7.582140248102096,52.82615743275997],[-7.582405845867166,52.823417057577124],[-7.584096281098057,52.82194808760984],[-7.594966810043075,52.81646347186483],[-7.600162106825569,52.815471316557115],[-7.599548101730356,52.81459714317424],[-7.601675119044013,52.81297397719039],[-7.606518685161354,52.81094655971729],[-7.608907931883904,52.80715957387985],[-7.612780654011565,52.81056819447477],[-7.616757469739398,52.80943038528825],[-7.616457276831774,52.80377398588473],[-7.613109605403898,52.80165858921599],[-7.61447962083943,52.80089929034295],[-7.613191048699089,52.79671818209772],[-7.614514028688,52.79265559746069],[-7.6119815838337175,52.7919872694351],[-7.61207919791719,52.79003586428227],[-7.62561058970449,52.78991955863934],[-7.635689469866284,52.7876801284022],[-7.647518429351569,52.78995652664938],[-7.652896689578856,52.789339484741745],[-7.654232065264863,52.78746660094368],[-7.662642878735329,52.78402067585767],[-7.674206750536936,52.78126972979638],[-7.6789832694976345,52.7944023486293],[-7.680462426991745,52.80552158157033],[-7.6898951379307,52.80868411966406],[-7.688571840551552,52.81582477550154],[-7.694747008565394,52.824723707339416],[-7.694323735487623,52.829322314878524],[-7.697348982062778,52.83186064610324],[-7.716426919861719,52.83747524541832],[-7.719343468575074,52.841542371746876],[-7.732173509349305,52.851975022375015],[-7.73465140018915,52.85836204923431],[-7.717401688985767,52.86519062783056],[-7.719752015774553,52.87116817053196],[-7.720701621067164,52.87745160411624],[-7.7228605490053175,52.87934177926244],[-7.725213114843149,52.88488413789092],[-7.725703728779324,52.88731381670475],[-7.724748654142225,52.888548074477136],[-7.713360163659455,52.891342847632856],[-7.708734130950654,52.89147372549038],[-7.707922421498133,52.894089977809074],[-7.708700074835648,52.89626539602849],[-7.7058191746136,52.90227522352956],[-7.699950074394949,52.904699510097835],[-7.692133679367446,52.91137012653111],[-7.684299827148391,52.914902420861786],[-7.68055519250834,52.9144013106514],[-7.675961154519467,52.9154106280798],[-7.671478268907056,52.918968505321146],[-7.665815182766037,52.92126701476517],[-7.6629050920078985,52.92459573314897],[-7.6641613089594,52.92693805432302],[-7.6602641549440715,52.93373524598981],[-7.661032676898454,52.935323337589715],[-7.669081692027046,52.934305763261854],[-7.678822741750995,52.93482516156703],[-7.685403324510225,52.933131625887874],[-7.692965762827389,52.93457216301803],[-7.702184868851637,52.93406828632006],[-7.705680239671811,52.93819109590709],[-7.710117722771318,52.94009253921583],[-7.711250303246359,52.94218079970976],[-7.722370422898187,52.944147280788684],[-7.725778301201272,52.94591750102274],[-7.724554468058177,52.94760488087733],[-7.7255176951787785,52.949370710923056],[-7.730172173492374,52.95277352302131],[-7.730443779055218,52.96310459241117],[-7.722186484625783,52.96776874271593],[-7.717502551554808,52.968850453283515],[-7.7154176516735165,52.97167106950622],[-7.716019286237186,52.972874652493324],[-7.715283162429538,52.97380395430687],[-7.708147913397064,52.97783003011393],[-7.708638882456833,52.98275490907615],[-7.703265604611414,52.98603978447239],[-7.712276503344082,52.98861333910451],[-7.7067376767688485,52.993622443650814],[-7.709039609594915,52.99700921963454],[-7.709205550688234,53.0093178705009],[-7.70226611201122,53.016068720925055],[-7.696872025060164,53.02711151560897],[-7.691065081909693,53.030948477474624],[-7.682328370139565,53.032539413703304],[-7.677518791279668,53.03203877807161],[-7.663908196223483,53.03631020368898],[-7.6544044211910025,53.040680779371435],[-7.658375739923667,53.05074309582625],[-7.638815540653718,53.06150397218353],[-7.622169315698809,53.0664082253963],[-7.606133925665001,53.07659202845702],[-7.6001628205762755,53.0839149593968],[-7.603633411047361,53.08654498797176],[-7.600653045333533,53.0894282425558],[-7.5950257298281745,53.091684473483774],[-7.5874593047499745,53.10058679536378],[-7.5865190653674945,53.1036818004311],[-7.591420834602695,53.106009626194314],[-7.613375502036422,53.11126004926157],[-7.610731301674832,53.11376170445302],[-7.610777300492066,53.118640143476085],[-7.623177263153661,53.12856745983969],[-7.624370329161056,53.12850380665469],[-7.625188453243293,53.13007999067976],[-7.631925664011398,53.130810572412585],[-7.635898045678452,53.13627890298338],[-7.645026360327593,53.14320292170906],[-7.646714003228067,53.147448075465],[-7.645658386409513,53.14954092467483],[-7.64595219790137,53.15176769391569],[-7.642643639208575,53.15409720787849],[-7.635368244099141,53.15651596396182],[-7.634297668287971,53.15737456944594],[-7.635301677406014,53.15899316226055],[-7.634761555094122,53.15984447025463],[-7.629474564439032,53.161862021168375],[-7.630715983116144,53.16670892827412],[-7.632518335463956,53.167999283363564],[-7.629479974192958,53.16877837682169],[-7.619971155814677,53.16970455673134],[-7.607328481492868,53.17279375899116],[-7.593280733042237,53.17178578993584],[-7.578711753180578,53.17583482072685],[-7.570413887958614,53.17434872180644],[-7.565235243365115,53.175956377010465],[-7.547320288116837,53.17678940092482],[-7.537350416576458,53.18307679287947],[-7.532328862779694,53.18457295093181],[-7.493794848135145,53.19027250631759],[-7.487213581924137,53.196915723308976],[-7.482258440287715,53.19403590735995],[-7.453245125636252,53.186340581665746],[-7.443177720675833,53.1852099094361],[-7.436096550318464,53.18749181140028],[-7.432294328778591,53.18691534757922],[-7.4270342608013875,53.19313631628628],[-7.429069597695668,53.20213606903614],[-7.430989596254787,53.20437288193137],[-7.4291857598368845,53.206752638798235],[-7.420168882106687,53.21031042074466],[-7.418158384146492,53.20808074028571],[-7.41560466674503,53.20800689735714],[-7.413760774532719,53.2107203894788],[-7.405631623815892,53.21259814946308],[-7.402769773307189,53.20978319325421],[-7.391202531069563,53.207404722112535],[-7.386087430202965,53.210462717517274],[-7.384191291480662,53.21350280273987],[-7.379939733155973,53.21565226338285],[-7.378702396515786,53.21282160386592],[-7.374950338725842,53.21010703975384],[-7.371545273981245,53.211032419061624],[-7.360399956586045,53.20841091810347],[-7.3596588797590865,53.2029755457176],[-7.353265098879445,53.19707173656294],[-7.340369131923628,53.19146302683798],[-7.33348523414272,53.18693382614505],[-7.317310416076475,53.169705232161625],[-7.318334698311736,53.16821993989618],[-7.333223770221053,53.169446327683865],[-7.325816407407856,53.155843748414206],[-7.3218854657510875,53.15303016365617],[-7.322151710426725,53.148317806307546],[-7.317864010529517,53.143482562639406],[-7.3139278753666,53.14152460128758],[-7.311325988059913,53.138758425612],[-7.300826036239409,53.134355339326305],[-7.297959381375265,53.1365452296561],[-7.285930245683414,53.137514601536104],[-7.272881352974404,53.135991256666685],[-7.269600197229137,53.140449251948105],[-7.2669469795853665,53.13810614397471],[-7.262328999772913,53.13759087505679],[-7.260001635882233,53.13953108864603],[-7.26248369065811,53.141347139677535],[-7.25925649275971,53.14324973061304],[-7.248078887730752,53.143506399824474],[-7.246363353505803,53.142752850419456],[-7.244937200532852,53.13938055761777],[-7.23765512447302,53.139164307338525],[-7.236093687156594,53.14275547785828],[-7.226293445284025,53.14995918017341],[-7.216901265734982,53.14948143964292],[-7.210178231265557,53.151747611351915],[-7.204196465346699,53.15564473079071],[-7.1986084920085505,53.15576519887979],[-7.196696537419203,53.16013863932594],[-7.192911840104399,53.16193651883072],[-7.192708023361721,53.16761821802241],[-7.180324590325708,53.17468894249966],[-7.178215944747352,53.16929563223449],[-7.175208966327199,53.16642814374507],[-7.177043646516926,53.161476096206435],[-7.172824054511361,53.159504863095904],[-7.171931583816601,53.15762725377189],[-7.158577260104525,53.15848306012827],[-7.151894601369842,53.15657472167433],[-7.139559054938994,53.15902212772208],[-7.124793185748112,53.1576376933564],[-7.115414330786125,53.158447131545365],[-7.1097282803595006,53.161837500619505],[-7.109874574987576,53.16431806785381],[-7.105921406528056,53.1682485346866],[-7.103235160094382,53.168661583987074],[-7.1020461352153,53.17100017138729],[-7.098985910737592,53.17244478514644],[-7.088991212463104,53.17205710647655],[-7.084174584103296,53.173156076682744],[-7.066402056712471,53.1695818288239],[-7.063940322797925,53.16626577373404],[-7.063321510224978,53.16202429976254],[-7.072732227828778,53.14934564300091],[-7.0773458698659,53.1506927242093],[-7.079128303507034,53.15342980946238],[-7.085782661903874,53.15784136153172],[-7.090425392687814,53.15752714077737],[-7.096233326767063,53.15912867671403],[-7.100504934637946,53.1581572961071],[-7.0985793874821015,53.15476499224454],[-7.093320443579553,53.151735800556246],[-7.093290323466562,53.14976907992233],[-7.096541168167486,53.14061005282384],[-7.102994698648733,53.13600498849454],[-7.091981996548459,53.1329802940557],[-7.088637970388734,53.12975432621003],[-7.083745776581025,53.12814793531761],[-7.085248915086743,53.125199793355726],[-7.0783373668645195,53.121638590060236],[-7.079301690208043,53.11894266425913],[-7.075663885615719,53.11633365057737],[-7.0771649392864,53.11497840734569],[-7.076383919118317,53.112355420604075],[-7.074835058162636,53.11184302652438],[-7.075450890813069,53.10976484248897],[-7.07324458167133,53.108742655664194],[-7.073770373414929,53.107129453503674],[-7.069294293890061,53.10623450700533],[-7.06713818022223,53.108367540519566],[-7.060952681340481,53.10646273764552],[-7.055469184159737,53.1006669620799],[-7.052925559661946,53.09401440741592],[-7.055525687974181,53.090145779132044],[-7.052091256771315,53.08660046271661],[-7.0513664359310395,53.08495991232056],[-7.052155680269116,53.08362744301127],[-7.050085049982395,53.08059500398412],[-7.048359484093841,53.08014740080508],[-7.048007691135417,53.077788620540225],[-7.045103583907775,53.07366569303977],[-7.047425235470995,53.06847932338516],[-7.053939124462183,53.06715364063546],[-7.053158921518022,53.06515748801447],[-7.048563274237304,53.060963056621],[-7.047426463873394,53.05889432025653],[-7.04786882444243,53.05654302765447],[-7.05975194156528,53.05259726125024],[-7.059948490838913,53.05037668439841],[-7.058812091920898,53.04899813404611],[-7.060086327184728,53.04370976973309],[-7.05431088252426,53.04129726884626],[-7.048240545853678,53.04194242150467],[-7.058018779763893,53.03765086010915],[-7.064798543575768,53.037519405523014],[-7.068649223830985,53.03614393672624],[-7.067316753326782,53.03527423391887],[-7.071870427294055,53.03117559597391],[-7.068717888981146,53.021253575320024],[-7.0756106996905785,53.01769457991483],[-7.086340803142259,53.01422571974007],[-7.085101263583198,53.01129952233328],[-7.089923901087452,53.00687972544883],[-7.090521436530155,53.003911776544314],[-7.089735242860634,53.00099560507502]]]}}]}