{"type":"FeatureCollection","features":[{"type":"Feature","properties":{"name":"County Meath","source":"Tailte \u00c9ireann Counties National Statutory Boundaries 2019 (CC BY 4.0)","simplify_tolerance_m":75},"geometry":{"type":"Polygon","coordinates":[[[-6.433175468292922,53.719166203416584],[-6.42764376263352,53.72087498926387],[-6.426807848974532,53.72495715139897],[-6.419630726513513,53.72585551926886],[-6.403485016825051,53.72045336913987],[-6.391800061337812,53.7188758620895],[-6.388932746764208,53.71460955059573],[-6.381081374246618,53.71451450337794],[-6.380410685046779,53.70745135135418],[-6.378945690018596,53.70757921577003],[-6.378197356964128,53.70470303065023],[-6.374076431697639,53.698491176876075],[-6.3644629883075705,53.70039069173408],[-6.36546441299465,53.702916012824176],[-6.355294366895307,53.705555311711926],[-6.3482239031709184,53.70525992291588],[-6.3309676833296065,53.70719871790802],[-6.328745237607666,53.705029606159805],[-6.329871157720134,53.70494308687707],[-6.328994056459321,53.70349887997625],[-6.330315930471343,53.70313586594974],[-6.329643670208388,53.70249206297689],[-6.326908101093965,53.703332430559215],[-6.319418021771552,53.70285052384289],[-6.312286463890076,53.708011511272964],[-6.313199333721017,53.70959930217509],[-6.319644560615175,53.71060107504111],[-6.323152907946584,53.71632097049996],[-6.310450309468708,53.71820580632069],[-6.310757636382979,53.7203562010183],[-6.2949741316737295,53.72115343007565],[-6.269735281696774,53.73221884430842],[-6.257460138313931,53.730635883608755],[-6.250733117610933,53.72394922917606],[-6.2471000233220835,53.72245334248518],[-6.247585570872438,53.721696373021295],[-6.243493580477575,53.72127738809083],[-6.245279350835354,53.72135877890659],[-6.24385275505304,53.7208295430118],[-6.243399868055211,53.71928711557665],[-6.2450964931828565,53.712333241995104],[-6.244563576969023,53.70342710350195],[-6.235608643763587,53.674641127982234],[-6.231509246624865,53.66417911620956],[-6.229962939379127,53.66358981288062],[-6.224663379653938,53.65524673214206],[-6.220973643923051,53.65429084209161],[-6.2200358682460894,53.64831053462807],[-6.212613119693152,53.6340610714318],[-6.216558955862757,53.63289615195359],[-6.216156645356716,53.63204525035656],[-6.218838695831323,53.63065060433958],[-6.22578776360422,53.62959931335449],[-6.224598987127346,53.62910343462506],[-6.225288584806507,53.62869302632892],[-6.2355381390765,53.62983928901354],[-6.236604254254118,53.63143944573972],[-6.237974898599467,53.63158999245764],[-6.238032676289542,53.63429861006695],[-6.241131558120848,53.63472173214842],[-6.247894599136341,53.63431185914641],[-6.2577459015544825,53.63167784022873],[-6.261393236196999,53.62900675788458],[-6.261473619086822,53.62670854192428],[-6.2679474839221,53.62388258505207],[-6.26711275816816,53.61727897289355],[-6.268502848622892,53.61565648034085],[-6.272211023679326,53.6152361954728],[-6.27358558984922,53.61398837992142],[-6.27292044592881,53.61330635520266],[-6.273896446202476,53.61221219796399],[-6.271651153033888,53.609087897535474],[-6.272366429283432,53.60647177714245],[-6.270937688568627,53.605219907110396],[-6.2723879554658994,53.60372256711177],[-6.271429636563248,53.59833263156679],[-6.281987086053749,53.59396094519671],[-6.282148042287335,53.59293140970367],[-6.281068735916375,53.59250558833312],[-6.284794385691164,53.591069391371235],[-6.285671972808505,53.58917802558138],[-6.287675928426544,53.58810510019927],[-6.295075175104147,53.587328768063706],[-6.300575694433191,53.58809446560654],[-6.310396303637072,53.584060377636874],[-6.31484810903443,53.57767014075552],[-6.3220552160744985,53.57438035457423],[-6.333347883164083,53.57187537982569],[-6.336640993356358,53.57353305083104],[-6.337409362184427,53.57499175075369],[-6.336587618523415,53.57619154284016],[-6.342660352819669,53.57447675154883],[-6.348020687765056,53.574581088653375],[-6.348807695481646,53.57637061758658],[-6.347461643324481,53.57673462421494],[-6.346188928333459,53.57961671882059],[-6.34322438662035,53.58024652441235],[-6.342727254070985,53.58198055081808],[-6.348574913538533,53.58134834556835],[-6.3607970067633595,53.58575757210918],[-6.364866366908416,53.5862733170177],[-6.368862703887773,53.588840100602525],[-6.380352019012572,53.58833210573543],[-6.3891355471857,53.59100481314018],[-6.390383105692943,53.58724165294726],[-6.389278078762482,53.58688906960055],[-6.3898722319211085,53.586100361785654],[-6.387731739947873,53.58643487361084],[-6.3881322154761415,53.585499725948644],[-6.386267775181996,53.58424812058912],[-6.387828391148851,53.582291025600085],[-6.387319077576761,53.580477316137355],[-6.394290055157068,53.58085729886997],[-6.401227330049452,53.57705004287478],[-6.402085893048661,53.57514119655619],[-6.401164257979957,53.57396893936335],[-6.402049919842784,53.57341835735888],[-6.40721614890638,53.572445459647426],[-6.414480791189726,53.57340810768975],[-6.417137451449817,53.5721706339867],[-6.417201533343038,53.571072308244794],[-6.418745064574582,53.571140682647496],[-6.419360543440403,53.56913716103667],[-6.4238546760167,53.56575609231518],[-6.42486645210562,53.561575657104015],[-6.423509749330439,53.56040856281166],[-6.42547429494576,53.55893883552799],[-6.428710128643607,53.559211864297616],[-6.428566263757114,53.55831905136554],[-6.429643737067101,53.55841024663893],[-6.431887441740171,53.55088100965618],[-6.435759481263453,53.54921742866251],[-6.434150025203483,53.54606199888634],[-6.4328467755322745,53.54564321490776],[-6.4326130147932155,53.54322279765876],[-6.419803385016639,53.54054542147067],[-6.419029226324619,53.53976741866949],[-6.422312322813259,53.53872637367369],[-6.4213911901681735,53.5382024683118],[-6.423259222742849,53.53496293456931],[-6.417951601033416,53.534125103251576],[-6.410807342699729,53.52863852958076],[-6.406717887745987,53.52757332617877],[-6.407628976053109,53.52638686087354],[-6.398743409325548,53.524333978688645],[-6.388895720555732,53.52464769675327],[-6.388664702891441,53.523450801151284],[-6.382627767862908,53.520609563002324],[-6.367477878698992,53.516528936453774],[-6.3665115756471735,53.515118123914114],[-6.367483110649167,53.50637065711276],[-6.3464713420711245,53.50189927028219],[-6.339680513419557,53.4914539174527],[-6.336966421561252,53.49036637334486],[-6.329249912181199,53.49189331219586],[-6.331698748814295,53.487959474918476],[-6.331261733086262,53.48576437914719],[-6.336804458066269,53.4822496927406],[-6.339573685988331,53.48183091588043],[-6.3380100489872175,53.47990736212184],[-6.3380995724237765,53.47762973498605],[-6.343209901322139,53.47524335580935],[-6.345992371375547,53.475132215753774],[-6.3503863332912465,53.4694887544277],[-6.35164716834988,53.46560228671451],[-6.353059955371084,53.465533070830254],[-6.354974755042262,53.46233558301107],[-6.354249496698134,53.46209484021941],[-6.355259997321082,53.45947077545135],[-6.3545378065428615,53.45270048503455],[-6.355677682435683,53.451471842403556],[-6.353066725493267,53.4477722358987],[-6.3652950688555,53.444452193934076],[-6.37770098904857,53.444387049173024],[-6.3871999588787665,53.43798458016371],[-6.395556291794174,53.440556519092155],[-6.396635709522761,53.43769577980145],[-6.40742744681794,53.440688474104554],[-6.411754436007896,53.440175700737115],[-6.415996232712633,53.435235059149186],[-6.419617203257677,53.43506255048284],[-6.416200729986545,53.432144201475886],[-6.41519246511954,53.429932833894895],[-6.4181597568568725,53.42756865038298],[-6.417946891657266,53.42431702955346],[-6.42134993130415,53.424188358656124],[-6.4219867677441504,53.42319222797898],[-6.4212610723947,53.416934927806224],[-6.429620223394166,53.414404290422254],[-6.433079752041273,53.414613847991376],[-6.434522221029118,53.41259980170631],[-6.43812952882622,53.41219766254081],[-6.437397595370356,53.411116318571004],[-6.433581100756485,53.41045906745277],[-6.439242235586702,53.40839243681826],[-6.439179942568904,53.40725052293474],[-6.441048759390651,53.40627333019814],[-6.438522452757976,53.403738544314194],[-6.441097963372162,53.40220987887391],[-6.439608308911694,53.400084728559705],[-6.4436687490388085,53.3996959081437],[-6.4474825684226404,53.394654785081485],[-6.446724382298108,53.39422691758434],[-6.449527132787092,53.39353771323903],[-6.451640520200691,53.39122211311206],[-6.454250071419501,53.39154085442109],[-6.459968840730726,53.388462442746395],[-6.463225869927315,53.389528487102325],[-6.465241597361711,53.38821492473632],[-6.468348468398436,53.38884414079346],[-6.4714104258810705,53.38756014481722],[-6.485187050291238,53.39024933803525],[-6.484956693724479,53.38768319344401],[-6.487639739680917,53.38864440304826],[-6.488496705653116,53.3868009015789],[-6.49083338684026,53.386700117064095],[-6.493535140266638,53.38425099755925],[-6.494879476431191,53.38433764724631],[-6.500715212432048,53.386484518125194],[-6.5068284016719335,53.38700253122752],[-6.507994027027267,53.38876087154701],[-6.514646144108374,53.39087103838737],[-6.51732615577414,53.38882661689769],[-6.520528138378077,53.390225099179105],[-6.522999949209353,53.39396990006325],[-6.533163660012254,53.39449859209037],[-6.538906888402834,53.39698344799962],[-6.539912649779757,53.40053514048324],[-6.545460303577876,53.403427208075485],[-6.546544665207569,53.40517525927519],[-6.548485553640884,53.40522009073939],[-6.55371564180905,53.40248723605609],[-6.564667368951408,53.39394645089754],[-6.568960005765004,53.39285310886049],[-6.570514035311738,53.39063897593252],[-6.567719883443722,53.38789609755569],[-6.573016070642453,53.389201215894644],[-6.578278371746563,53.38911102490297],[-6.593147910287889,53.396086345050335],[-6.609103991016525,53.39860875577543],[-6.6122225692733885,53.397493015200865],[-6.625001449557405,53.39791128390934],[-6.654133654635703,53.394910060720015],[-6.664221801456632,53.398491100351],[-6.665704567934922,53.40080951772595],[-6.665785405904433,53.404771276603114],[-6.669416535883673,53.40783367607581],[-6.679018621434485,53.40885497019425],[-6.692004126159945,53.41461278544104],[-6.694800051879942,53.414460428732625],[-6.6956824093481355,53.41585150172045],[-6.705321064341783,53.41764978685587],[-6.709455033169343,53.42051146990031],[-6.712443482071172,53.419553362581155],[-6.719717405841889,53.42045537602473],[-6.731421333782068,53.42537893638045],[-6.752659316288215,53.42919341196921],[-6.758511643026842,53.428213296728494],[-6.769481846469769,53.42878789038497],[-6.77737673607588,53.42586164427713],[-6.78223864206075,53.42184217535142],[-6.7856680339554805,53.42050974392094],[-6.786103234383291,53.42134193458152],[-6.7918214464983135,53.41805164100934],[-6.795612737952264,53.41796972228516],[-6.795456398744499,53.41335885200351],[-6.802002436425722,53.410289217130185],[-6.804360480787666,53.4041296196583],[-6.811554459839153,53.3984679368145],[-6.81997459303859,53.40120937594876],[-6.832602922363258,53.400682675011566],[-6.8355603768444615,53.40313069570045],[-6.842090132960552,53.40363491069288],[-6.843156602327406,53.40478610443215],[-6.847611202364503,53.404041392266116],[-6.853315039319509,53.40547418369334],[-6.861377048153477,53.4092159236701],[-6.861855330552649,53.411822480336596],[-6.864040632692643,53.41257725751433],[-6.883457249431845,53.41497839030683],[-6.885023921115993,53.416743145542306],[-6.884512054353029,53.417586102494305],[-6.886721143147552,53.417882303437324],[-6.88709403317428,53.42041689199963],[-6.889900932252245,53.42126414981806],[-6.889672274935529,53.42401851855846],[-6.891103751634279,53.42597449376335],[-6.9029033329291,53.4289494291068],[-6.910562258986456,53.43519568381374],[-6.914873030169977,53.437027441307855],[-6.914047133723629,53.44198222026682],[-6.915417365049889,53.444416938775234],[-6.915689528189204,53.448217220070426],[-6.917252820777441,53.449380444449154],[-6.93238230382789,53.4465346051898],[-6.949743406675834,53.44137974263049],[-6.951367677526469,53.444123016693844],[-6.958259126749351,53.447103624998945],[-6.96307768970139,53.45123733733222],[-6.977466197997483,53.44861534077187],[-6.986160006740718,53.442852271064424],[-6.989981652507576,53.44155413670431],[-6.995300818573936,53.441950562566824],[-7.001089023451795,53.43872474278031],[-7.0077739327328255,53.43679033732121],[-7.00931242990402,53.43566628294981],[-7.009591847044054,53.43252138773712],[-7.0120361393074,53.43031315919628],[-7.012192839778601,53.4275690042117],[-7.013771261481811,53.42514838886853],[-7.024627071892575,53.42077839153268],[-7.0263837358698735,53.41594991375503],[-7.033246761641373,53.409859568435294],[-7.045087852962472,53.40809434174895],[-7.056663536997544,53.401844996055566],[-7.075049640549624,53.39561233768251],[-7.07760321473957,53.38966638540753],[-7.076939542935037,53.38607875177964],[-7.079231726879565,53.38233378896823],[-7.096200147352376,53.38205188853043],[-7.1080157071070085,53.38508281781223],[-7.120539473099008,53.39022400379517],[-7.12702654144285,53.39532996126786],[-7.131374995385061,53.39621690140074],[-7.14200677868091,53.395640992020326],[-7.143996646671783,53.39684679838424],[-7.141489093357545,53.40347839484401],[-7.143478484153746,53.4048481109623],[-7.145830234557023,53.40446599106084],[-7.150758548434881,53.40711993565337],[-7.155402973720907,53.40725090655186],[-7.1558880147946695,53.40867593591594],[-7.164776155621846,53.413692824636584],[-7.175945650912067,53.41584172835574],[-7.1824258059786885,53.420563242580805],[-7.1922466893988295,53.42328779580149],[-7.1925425818184054,53.430839998356184],[-7.194895732042599,53.43481718644431],[-7.186226856489899,53.43385058881535],[-7.16724324737609,53.43828267226902],[-7.158691435158152,53.43915441997858],[-7.157051616653557,53.44481235764703],[-7.15595622551884,53.44482078210948],[-7.155622610939944,53.44692985307663],[-7.153047305954202,53.44767447162911],[-7.151339051924717,53.45012416434516],[-7.145793675452212,53.45037894283305],[-7.144376470833973,53.44921497972372],[-7.123577054734007,53.4459927090424],[-7.102883998423958,53.451682431226985],[-7.098989343408941,53.45181869152206],[-7.090858461278967,53.45526615828821],[-7.0872887486178735,53.459313130415495],[-7.0803366202804146,53.4644471586032],[-7.074371994506345,53.46707833617917],[-7.071179490463854,53.467222798572585],[-7.06971682511315,53.46607713259849],[-7.062990448287462,53.46889568994063],[-7.063471839865195,53.47072309688532],[-7.065917666080203,53.47238450466257],[-7.06379864829894,53.475412637452024],[-7.067129346503776,53.477279741214524],[-7.067071007320941,53.47921743801838],[-7.066283498722303,53.48356650230441],[-7.061842119734422,53.48319170321153],[-7.0618712169355105,53.48650832128292],[-7.066271817586041,53.49164180581091],[-7.068646249538682,53.49263455523903],[-7.068854312925853,53.49516798979867],[-7.064447195824027,53.49715036820296],[-7.042844751621082,53.50031750416386],[-7.03822909149258,53.50344071873699],[-7.035352743703652,53.50368640720009],[-7.036751848708144,53.50751904881767],[-7.038814835909205,53.508608186974556],[-7.0374010754411005,53.513017800658176],[-7.022967615569444,53.522319282183],[-7.023406681890579,53.52667849155955],[-7.021906269858181,53.536729012526195],[-7.018055181909289,53.5447547622371],[-7.030009764079778,53.55084453145287],[-7.035491306212193,53.55699943016062],[-7.031343897265535,53.567222246755385],[-7.023467477088126,53.57505463304481],[-7.014028362906071,53.57822054273342],[-6.995016526853307,53.57635098619383],[-6.989654256442247,53.578001681102364],[-6.995533162559735,53.58447624680373],[-6.995628703243839,53.5891587835798],[-6.9870548632247615,53.59002559648039],[-6.987113664124171,53.59136659979072],[-6.985621375376358,53.59134231935028],[-6.979827742180015,53.60520172868302],[-6.980367372519404,53.607765129078174],[-6.987972010381605,53.61291758460881],[-6.9874923230113195,53.616715494977996],[-6.988598994856514,53.618676723593204],[-6.9782084740643775,53.627730259549935],[-6.965200037518893,53.631295589077915],[-6.962706833834343,53.63482779164588],[-6.963486065720683,53.63622548374633],[-6.962075124956738,53.637780847461094],[-6.9629882485218015,53.638226235496525],[-6.962305892558628,53.64060058007663],[-6.963118587593037,53.64157243036553],[-6.962307635690291,53.644062211269656],[-6.960198249658561,53.64774184335309],[-6.958217448810061,53.647716490223075],[-6.956224633620215,53.649544666892254],[-6.958581744197004,53.653256394080536],[-6.954977758565658,53.65391464695029],[-6.955759426139784,53.656161245696936],[-6.959669839601891,53.65789779985077],[-6.964094916972105,53.65596655349369],[-6.972769053712918,53.65804916321133],[-6.973401290463683,53.65994692636874],[-6.977636227782664,53.66372170923455],[-6.9754403161884255,53.66621543605103],[-6.979932642144377,53.66773239735637],[-6.981005149334169,53.6689690350998],[-6.980555929993103,53.671088788693936],[-6.981995772645898,53.672157927520146],[-6.985278770970706,53.672130260774566],[-6.98997244878517,53.67603035653813],[-7.0006466913631495,53.67724846262239],[-7.003958012361378,53.6762910287018],[-7.005059309891246,53.67206652171121],[-7.003908604503649,53.66901328401477],[-7.004477049915462,53.66822888538826],[-7.008359465396472,53.666944553196494],[-7.0233427256216725,53.6717566051883],[-7.028948623474873,53.66205639423713],[-7.02888323596414,53.66058113357804],[-7.032198461831186,53.660462028669485],[-7.036608637912409,53.657271967515136],[-7.038122327292434,53.65975679149119],[-7.040537362513773,53.66051091227057],[-7.043327979615437,53.65917822518151],[-7.050393034630685,53.659249409217],[-7.057781932440554,53.652180225813915],[-7.059983652369798,53.648567636502015],[-7.066114597437665,53.644945064101464],[-7.068005821985834,53.64497250013923],[-7.06766084363886,53.64590110095763],[-7.069511966296542,53.64713997506752],[-7.0739103997718225,53.64821015115074],[-7.074143871849936,53.65083971081033],[-7.075533925034015,53.6523818316629],[-7.07953078809894,53.65227949505786],[-7.082332217120962,53.65338846553469],[-7.082187413760931,53.65445837588879],[-7.087613961992544,53.65572411239735],[-7.088569875523295,53.65797385847736],[-7.096094247372366,53.661413198679455],[-7.096887695215579,53.664600127934754],[-7.099285868513271,53.66590284090818],[-7.104298345985033,53.66635692114539],[-7.109078415019516,53.66881275999135],[-7.115398800271253,53.67873467775696],[-7.120468611939064,53.68286553749045],[-7.12252014391117,53.68247515773833],[-7.124910772489329,53.67888035921321],[-7.1235992313350724,53.67839566727152],[-7.126694079399819,53.67745745737364],[-7.130010792624443,53.673881087390505],[-7.135077298086418,53.67356584698144],[-7.137218547785047,53.676889236467055],[-7.142662819655276,53.67983307601738],[-7.1477296342344045,53.68465230954949],[-7.15315781148341,53.68594902212652],[-7.158027032440322,53.6853046737123],[-7.160235973161159,53.68694030356201],[-7.169111117966914,53.688751062520105],[-7.174226499025712,53.68822956843176],[-7.186244570666652,53.69198725302258],[-7.189963095938967,53.69142163721634],[-7.191882305976534,53.68986171712126],[-7.193355693104971,53.69102937426064],[-7.193754928218201,53.69368954575032],[-7.198310917798343,53.69686010807282],[-7.197673067608677,53.69735936912799],[-7.203331922047882,53.699953587527794],[-7.206574844750232,53.69914378177983],[-7.210239245184791,53.69640979531202],[-7.213257351576812,53.69898690453424],[-7.21415929586147,53.70357415170093],[-7.216280517984663,53.70480334595161],[-7.2193964825432175,53.70317080458654],[-7.2257798398402695,53.70332236773401],[-7.230367603012057,53.711423542186694],[-7.23532649111211,53.71420590690916],[-7.236584541793789,53.71387080260931],[-7.237946000028507,53.715986972598245],[-7.237094586015855,53.716363611026125],[-7.2393703252762025,53.7177474849227],[-7.238049759911635,53.71904745386888],[-7.238593716417047,53.720814253091845],[-7.234495542049089,53.72427745779216],[-7.235629890464327,53.726011158297275],[-7.232138649222687,53.72772769846901],[-7.235121144345561,53.730262720361914],[-7.23154307525102,53.731885686688315],[-7.229913268175783,53.73390084578918],[-7.231928408573343,53.735631634735],[-7.238131923998086,53.73581534083052],[-7.240187786802964,53.73944586511446],[-7.243881945412349,53.74255832370259],[-7.253875722719076,53.745230083772796],[-7.2577560013897475,53.74529214433126],[-7.267946958183898,53.75081017138054],[-7.273093613068734,53.75564242911517],[-7.275220334704321,53.76343252679135],[-7.282511851930476,53.76727692464844],[-7.280701490747414,53.76900258314403],[-7.286614192009348,53.77350288698794],[-7.286217468092715,53.774788846902226],[-7.292081171816587,53.778308623692055],[-7.3164266561405435,53.784163420534995],[-7.316649758402654,53.788573257699],[-7.336107183191021,53.78795544769611],[-7.341872427421672,53.79249887567636],[-7.343667894490768,53.799051974320044],[-7.307957861672607,53.812769053316806],[-7.2884876116259845,53.798635355993795],[-7.284002225467894,53.79712241835562],[-7.284260043263208,53.795591568589664],[-7.279822407801502,53.7925646280604],[-7.280757357675139,53.79012409588317],[-7.277956327000671,53.786663080402704],[-7.279580839094873,53.78575449635854],[-7.278385438673553,53.78181668515881],[-7.275273726266991,53.78110749533885],[-7.274009871817551,53.77955544097587],[-7.26510604210112,53.77815896748354],[-7.262533124034541,53.7790365806079],[-7.2570815629596535,53.77639766772784],[-7.256871427226843,53.7741292319303],[-7.253896882259275,53.773882177559535],[-7.248701921269082,53.77626553571544],[-7.247712940613614,53.77791729143254],[-7.240723028529934,53.7781342353471],[-7.229019367284708,53.771554942558254],[-7.224279946787291,53.77226538268758],[-7.214158564951503,53.77086839172472],[-7.214432882375693,53.77345411533859],[-7.219553462491962,53.77424306360611],[-7.215056803325354,53.77845911624177],[-7.210350344781741,53.78063990497342],[-7.213454500595804,53.78255599700417],[-7.212671074541069,53.78558117295878],[-7.207963751197339,53.78713917773136],[-7.206075974672984,53.786652169615266],[-7.204280981402935,53.78887546189635],[-7.193890884606423,53.79474574294919],[-7.184948242655251,53.788797252967235],[-7.178442414320395,53.791270973220556],[-7.1749390894279275,53.79100199257286],[-7.1741172990365385,53.79246119465735],[-7.176762115509997,53.794613115166406],[-7.1761786239681244,53.79521637285137],[-7.171353094944079,53.79578895313929],[-7.156718325773624,53.79410509817892],[-7.157302381187165,53.79778072662552],[-7.1520885052365335,53.80117712135829],[-7.15503228345054,53.80478932914613],[-7.1539586563129784,53.80627698387008],[-7.141325516683423,53.79929787829363],[-7.135812301146286,53.793970489778616],[-7.127803565611545,53.79052226323631],[-7.124413473162397,53.79178553983483],[-7.123357666120825,53.79376271646355],[-7.115146500794545,53.793451773882644],[-7.110719281725572,53.79146245782005],[-7.107424050234581,53.78935489437581],[-7.105460273905401,53.786271367649235],[-7.106600489227219,53.78361375313442],[-7.105462143702593,53.7816278283542],[-7.10501360218067,53.77657416347423],[-7.0965220299367475,53.77634697322524],[-7.091131289389555,53.774151697044005],[-7.087606277658739,53.77550109838396],[-7.080870389909489,53.77572137758581],[-7.0666651589502525,53.772433277662145],[-7.058345778394178,53.77198938174208],[-7.056588178687575,53.77310448471349],[-7.050231419170141,53.77170826500182],[-7.0477186437244885,53.77424887273544],[-7.042967581649065,53.77645508119773],[-7.038242097066534,53.776774864847745],[-7.032640791832605,53.77327356706204],[-7.027600165081184,53.77321276726539],[-7.020920858235577,53.76907751085858],[-7.012528378375245,53.76926015101266],[-7.002192571535411,53.76557413903157],[-7.000386410772205,53.76683967906274],[-7.001803009794404,53.76922611922762],[-7.0009719025520605,53.77290542175988],[-6.995435417499829,53.781122286122994],[-6.992927857783545,53.780102766631714],[-6.994283834462805,53.77841744356896],[-6.990724640128978,53.77545591359056],[-6.981467981135379,53.772657454101775],[-6.976190178562811,53.77599606778669],[-6.9711820040801955,53.77769396716366],[-6.972907250859366,53.78510988463461],[-6.963165995877115,53.79107818515764],[-6.954638907943886,53.78637156597592],[-6.9514242712902385,53.78162854342703],[-6.940724124538002,53.780736708598894],[-6.939368965605547,53.78212852779504],[-6.931708657341073,53.78348142178544],[-6.929320072574943,53.78506224472137],[-6.929659436987167,53.78576612311806],[-6.937883845054199,53.78732614717164],[-6.941930418742475,53.78933431030321],[-6.940126032018537,53.79172325671661],[-6.941525810154236,53.79337691837237],[-6.938740038120265,53.79541629280723],[-6.940100471672203,53.79846913962369],[-6.933536972859069,53.80284485742619],[-6.931788216551093,53.80262892602623],[-6.931135581309118,53.803807298562155],[-6.921319518074963,53.801096798839914],[-6.917109616681611,53.80616575937272],[-6.913751436086784,53.807483784513984],[-6.912813415275917,53.808939814344356],[-6.914977365520971,53.81212383848991],[-6.918359473862716,53.813179087005146],[-6.916905643061293,53.815986588144334],[-6.917379967098447,53.817000651988515],[-6.920190892714575,53.81713484613241],[-6.921462985089162,53.818880058463726],[-6.925222298737316,53.819856910267305],[-6.9273440430328925,53.82279227977657],[-6.930145137287645,53.82277785263834],[-6.932874088940286,53.82519814347639],[-6.934058184150307,53.827988275593746],[-6.941239869419849,53.8298181496552],[-6.9469662648400154,53.83410140025933],[-6.9531963489235995,53.83575626443325],[-6.952481750837614,53.83884924948746],[-6.955435683907468,53.840145893867074],[-6.952541997612523,53.84229123419157],[-6.955140731577402,53.84516617736816],[-6.957591539106251,53.84509813169245],[-6.959755154342541,53.84333021594153],[-6.962995084237986,53.843714608882046],[-6.9639048363888785,53.84607831941172],[-6.966359967513661,53.848067473125646],[-6.964484347215632,53.84916739331224],[-6.967726471869035,53.85353062947734],[-6.972412356019799,53.8569861145558],[-6.971693374855136,53.85842841472779],[-6.968332862400468,53.8587630880845],[-6.967749028704042,53.860353403529004],[-6.9661104592414285,53.8610113422606],[-6.968040942636539,53.86387698585381],[-6.971033179469895,53.86489379996716],[-6.972795275897815,53.866785859204306],[-6.972370992020454,53.86761528284213],[-6.973553314474659,53.86787443666279],[-6.972872550569133,53.86904651894558],[-6.974700645146985,53.87088106843121],[-6.973015494513467,53.87216732325242],[-6.966188746803046,53.869990686039394],[-6.9565553084446385,53.86367520657919],[-6.954918777786135,53.865443682601594],[-6.946324304291092,53.86657536166251],[-6.940776353453333,53.86933641993579],[-6.930554767954649,53.872169557143195],[-6.924243210644767,53.87529465483302],[-6.926324224834453,53.876397226051246],[-6.928578172305482,53.88019351896772],[-6.9325767014835815,53.88104812827221],[-6.933300473404733,53.882890720751774],[-6.932153401237991,53.884202260395234],[-6.934204556369657,53.885673414245666],[-6.933377575445073,53.88786720682453],[-6.935721736892028,53.891347189347854],[-6.924105820808808,53.892874000809286],[-6.917581852860138,53.89128592658098],[-6.911910011986388,53.888458475091696],[-6.909446911594066,53.88868410895826],[-6.902986895300431,53.883448113735724],[-6.896711769857615,53.88096671927134],[-6.884780359185545,53.88065919076581],[-6.880635588711207,53.87824815380419],[-6.881339867852107,53.87521061920062],[-6.877478790181958,53.87751549394939],[-6.873874741204449,53.87791959027135],[-6.869914181139081,53.87787833072342],[-6.862127406962191,53.87568338015269],[-6.851853340956058,53.878850908252176],[-6.84508399039896,53.87873104597814],[-6.840081493682343,53.8824495917494],[-6.841618336797778,53.88431362104949],[-6.845984018264342,53.88635102694962],[-6.846042159835791,53.888881358743454],[-6.842114162817087,53.890040108828195],[-6.842049521639895,53.89124808368632],[-6.837305040680463,53.89189136681691],[-6.8371332080477965,53.894242465121955],[-6.835413201494552,53.89522570173615],[-6.825536468668657,53.8939358088256],[-6.825152834538244,53.89626577722696],[-6.823128559453382,53.89752931873585],[-6.815643572224682,53.8983627082147],[-6.809732742106044,53.896455554502815],[-6.81308418009282,53.89209885695157],[-6.815312428406464,53.89110655818892],[-6.810253692319092,53.890214258542414],[-6.806150095493527,53.891713477678046],[-6.800584472778338,53.89073503620894],[-6.796558706513103,53.88914657728603],[-6.799193763405063,53.88697026942155],[-6.7936401184241735,53.886726285442336],[-6.788296718404554,53.88989606479853],[-6.7853466812223004,53.88993380364034],[-6.787508822954589,53.89327290173393],[-6.783497248791631,53.89776340892385],[-6.789823217518671,53.90017495005024],[-6.788943801900924,53.90301695993741],[-6.787385196182572,53.90338726043694],[-6.786013788013235,53.90573944613981],[-6.786283367543987,53.90746729367844],[-6.784101280337216,53.90742147248427],[-6.782439794311511,53.909464610556334],[-6.7838523724515465,53.91106619238962],[-6.779276891189162,53.91631614943775],[-6.776978899190979,53.913803972756845],[-6.769212786418679,53.91068008439957],[-6.767384368046325,53.91314870460042],[-6.76256952747853,53.913837195916045],[-6.762009635095436,53.91748031531174],[-6.757013707961695,53.91639781093307],[-6.754992634624421,53.914473099664654],[-6.744746075611936,53.91242755822868],[-6.739065828501165,53.91287229506464],[-6.735813189415383,53.91549676512734],[-6.730588601529724,53.91766839685725],[-6.729378758732744,53.916871543595626],[-6.7277776535025176,53.91141652174371],[-6.721458842461236,53.90728270481546],[-6.716144713193615,53.90552625737457],[-6.714711408593963,53.90352934723701],[-6.69985057956718,53.9006794227405],[-6.692186951426144,53.90200036085478],[-6.68654136447383,53.90095999220456],[-6.682646883984418,53.898423515307],[-6.678948591656249,53.89305076728044],[-6.664885366236489,53.891574057359485],[-6.657039735596072,53.88433513694989],[-6.65596950479183,53.885417659131924],[-6.652452569270225,53.88558392733853],[-6.643777232018026,53.88336639265843],[-6.64363849154159,53.88084137087863],[-6.6368890909806035,53.8794655013506],[-6.632084101675729,53.8803443030462],[-6.626324871485091,53.87981448698108],[-6.621966825879449,53.87752563721339],[-6.620779319067008,53.87496194057269],[-6.602053201674249,53.863377431997726],[-6.603469048063259,53.86158045763531],[-6.60004168008959,53.858412679162306],[-6.597537893408657,53.858025301262956],[-6.593540602237521,53.85149909013505],[-6.593162522271321,53.84959540178392],[-6.594534085962557,53.84827226253682],[-6.594968733444199,53.84565068102243],[-6.591638928918646,53.84502817637858],[-6.593482162213478,53.8424673416676],[-6.5985774637496935,53.839747104474085],[-6.598761594826601,53.83841487509762],[-6.594970622911385,53.83390771421282],[-6.592063614202097,53.83217908407428],[-6.593558754353531,53.829760432656485],[-6.583594599727934,53.82921781531848],[-6.582192837101497,53.827797489738145],[-6.5824970085327115,53.82462378187975],[-6.579543312008424,53.82262804650068],[-6.578625343651832,53.819325747162004],[-6.579767991627914,53.819012028789565],[-6.580105905678205,53.81752386524874],[-6.583574618584239,53.81650892952087],[-6.5787793432296375,53.81401854339763],[-6.580033308121315,53.81363390418581],[-6.580484990553329,53.810808148935266],[-6.577455383242113,53.80841635504496],[-6.580016648199731,53.807577130495645],[-6.580107857493177,53.80641396334018],[-6.577081724474638,53.80548646098347],[-6.579709414122534,53.804307511719536],[-6.579903301787371,53.80311689143965],[-6.577102638330515,53.802017025459165],[-6.575101947211479,53.79962420308874],[-6.575524258201223,53.79892437293923],[-6.571473694722371,53.79716977191771],[-6.560874709668993,53.796819217509515],[-6.553068035693466,53.79797245383333],[-6.552652138848355,53.79628201885835],[-6.554267376303844,53.79487050534216],[-6.552932549382306,53.794330751292314],[-6.5517295798067465,53.78747224773958],[-6.549325836479622,53.78446688382495],[-6.547820538745508,53.778022667717025],[-6.543385952573741,53.778820588565786],[-6.540402577451775,53.77808658496365],[-6.5372098443059174,53.7801789914015],[-6.527661812998847,53.774195114658156],[-6.529358272721379,53.77202770630637],[-6.528549973473606,53.769106624946566],[-6.520622992462308,53.769632505504575],[-6.519316495395306,53.767768607840466],[-6.515782178330878,53.766584871378235],[-6.503695170673775,53.76822181054231],[-6.485437881848521,53.76848554349914],[-6.478578527432089,53.769859534477355],[-6.469076087317955,53.77001467276803],[-6.455298686009941,53.766559093253925],[-6.45222125920165,53.76319432555989],[-6.449677300330655,53.7628669430729],[-6.450898867500014,53.76160803486223],[-6.450758684883905,53.75953542615789],[-6.447194377261182,53.75813042155594],[-6.447630907210485,53.75699181401569],[-6.451089913343313,53.75403539518592],[-6.458902718283296,53.751129623673606],[-6.458297114553594,53.750440993231365],[-6.459732574973817,53.74919878582977],[-6.459043227447404,53.74867665957188],[-6.46688878478025,53.7427085020294],[-6.466527387343763,53.74100526136701],[-6.469709012116139,53.738788983022616],[-6.472113536747276,53.738683455388674],[-6.473603820297096,53.73744100142057],[-6.4744875774522,53.73809038043963],[-6.4736082159600405,53.735756119915386],[-6.475631594058624,53.733896281373674],[-6.478866787829901,53.73430301707111],[-6.477723493523887,53.73346558515664],[-6.480133107654893,53.73080098493472],[-6.483925358186748,53.73000535680277],[-6.482721844914539,53.72571493888384],[-6.479242780539329,53.7260218641893],[-6.477846980213,53.72459899228126],[-6.4794309312059655,53.722509093756784],[-6.475742058058225,53.723121212168074],[-6.473263336724385,53.7215242133966],[-6.469943930467067,53.7213451779416],[-6.46426026471741,53.71359568366364],[-6.457335977989427,53.712701798750686],[-6.455417563505311,53.71310189218297],[-6.455644143474629,53.71438066617527],[-6.4543245170718855,53.71506311378071],[-6.448615633297183,53.71436381563297],[-6.442609738476612,53.71621835698359],[-6.440318651375659,53.715168385417215],[-6.436103805972889,53.71560088322014],[-6.435190933331766,53.716906510669574],[-6.437317825509833,53.71836702145158],[-6.437137203759661,53.71928346133473],[-6.433175468292922,53.719166203416584]]]}}]}