{"type":"FeatureCollection","features":[{"type":"Feature","properties":{"name":"County Offaly","source":"Tailte \u00c9ireann Counties National Statutory Boundaries 2019 (CC BY 4.0)","simplify_tolerance_m":75},"geometry":{"type":"Polygon","coordinates":[[[-7.982665119580972,53.337583874418875],[-7.975998197827784,53.33546199922981],[-7.968563589039712,53.335410808149284],[-7.960602912974523,53.336944781294584],[-7.95371697804604,53.33979975162731],[-7.943578161257825,53.34115577733424],[-7.941310549549214,53.344001591475596],[-7.94344800950113,53.34614324721482],[-7.942684788328589,53.3481438133393],[-7.943669186986176,53.350033522084985],[-7.9400763402899,53.35505979141424],[-7.9319368808869815,53.36157999613227],[-7.925867016398758,53.36149673876298],[-7.923450982039457,53.36318839156698],[-7.918871676779598,53.361367567835906],[-7.91258593580365,53.361057862881694],[-7.909199285460192,53.3616820995702],[-7.908714211182432,53.36268673526468],[-7.906087401685519,53.36244594239456],[-7.904791949239514,53.36042014799079],[-7.897126434970995,53.35769019628108],[-7.893286478439268,53.35372851948828],[-7.8827397474241145,53.348987924896896],[-7.867450310326707,53.34679597207017],[-7.854573919272262,53.347075316634935],[-7.846630917173496,53.34114587456821],[-7.840340720458458,53.34776002867494],[-7.844884864478283,53.34970285785229],[-7.837679017317453,53.35159174620797],[-7.836815446132934,53.35363002598628],[-7.8199893012991355,53.35626787032409],[-7.81835325220532,53.3563376285993],[-7.818306076079805,53.3545312206794],[-7.804520127859157,53.35041179274457],[-7.797948702300491,53.35037524499672],[-7.794351478269561,53.35316971747083],[-7.7845670558134135,53.34945964441342],[-7.77892915895857,53.349947669370614],[-7.777002181683098,53.34816633259097],[-7.772147310190283,53.3470047757124],[-7.762195505062221,53.34810752521768],[-7.750180761379864,53.352109302926685],[-7.717289755785082,53.360056602199315],[-7.714995524051296,53.36233716214119],[-7.70417048763853,53.36606929530332],[-7.70894267556151,53.369634844048484],[-7.711588254839273,53.37040709479209],[-7.71252101086978,53.369529965263766],[-7.715135122514347,53.36983598179563],[-7.709720511561322,53.37612612963474],[-7.709331303470982,53.38026887677958],[-7.705525014669736,53.379770490484255],[-7.701763398117813,53.38298834285894],[-7.696207768725465,53.38123898171986],[-7.691462721977825,53.38964483812975],[-7.695661429960404,53.39108684017805],[-7.689090838721823,53.3943018597228],[-7.684599563560977,53.39264938850802],[-7.679898134608051,53.394112615441784],[-7.678811553667097,53.39755476880689],[-7.6755507388417685,53.39902716347119],[-7.6796160449968465,53.40243534410023],[-7.665633461840366,53.4011828469889],[-7.6659766003678245,53.4051323387846],[-7.663587842660496,53.40976652043216],[-7.661570447229341,53.407958214774055],[-7.654500857844765,53.40534775402464],[-7.648616306242437,53.40488402576564],[-7.645359163155667,53.41097845000757],[-7.6419039947206855,53.409957816788534],[-7.641104953588778,53.410208021445186],[-7.642114412997621,53.41098791261286],[-7.641396033232532,53.41165121809482],[-7.638265501088463,53.41273812229982],[-7.631812286530383,53.41395772852104],[-7.627816770771307,53.41344209679502],[-7.624695773403807,53.41807473493202],[-7.619713724951335,53.41611928438272],[-7.619178834656891,53.41466647764104],[-7.615919496320666,53.41369020217731],[-7.613085048397506,53.41131005210529],[-7.606748817441065,53.411469219721944],[-7.605780713846824,53.40978746558828],[-7.606118129562349,53.40734866428593],[-7.60467455897971,53.40592556427818],[-7.607613206636887,53.40456609325347],[-7.606179131231693,53.40374148864303],[-7.606510102131028,53.402596462153106],[-7.604848363314373,53.401452765615986],[-7.605041662296701,53.40056051113096],[-7.5911507077440845,53.39899368571666],[-7.584673504214234,53.39603979153276],[-7.580174290855299,53.39030464352931],[-7.581899637262919,53.38706874305173],[-7.576978193737427,53.38415876414983],[-7.574989322115523,53.38098183529074],[-7.570585052875056,53.380939869303546],[-7.566236409417466,53.379511508301576],[-7.567151118092709,53.37826249658342],[-7.565679147370179,53.374929595773835],[-7.565782427617998,53.372301807113715],[-7.567813657641937,53.37013768543395],[-7.568384847194022,53.36777525444618],[-7.56756417920844,53.36175644115212],[-7.563478860567612,53.353763195952034],[-7.565920009314406,53.35186692010116],[-7.5616946749798055,53.349094519138816],[-7.562615239862724,53.34735719561791],[-7.556897993181014,53.34843144141434],[-7.554282302172553,53.34468948846865],[-7.542243722983055,53.33840460289821],[-7.539795095812901,53.335524208403086],[-7.537024838870969,53.327084706913865],[-7.528036339164309,53.32166261091328],[-7.525879627282221,53.32373980170636],[-7.525932588450857,53.324963580716805],[-7.530897483535528,53.32657517778321],[-7.530075097736447,53.3280817557517],[-7.532845324991465,53.32766743885198],[-7.534583798091921,53.33088850927743],[-7.534032117903625,53.3328703067421],[-7.532307388170784,53.332603025170194],[-7.530983212283463,53.333810304298375],[-7.530968746751191,53.33604589695419],[-7.532173072872559,53.33700674532462],[-7.529226579702767,53.33763312863092],[-7.529611324980386,53.33907016137146],[-7.531290553851263,53.33962978515408],[-7.528801317356171,53.34723962544067],[-7.51496291566601,53.34371414488555],[-7.509489250683172,53.34493659224054],[-7.493852172724523,53.34081940381949],[-7.495666443863379,53.3386752560311],[-7.496313364397055,53.334299457121816],[-7.494739957678184,53.33248698427281],[-7.4953140468477875,53.33114925613829],[-7.492523625363683,53.33019556937443],[-7.492557296289806,53.32940506765577],[-7.485372838798081,53.32917161277213],[-7.483694463302873,53.32967292177318],[-7.484672391747851,53.33158419317384],[-7.479042650158189,53.330774961497916],[-7.472263092375798,53.33271364101371],[-7.470596670578594,53.33149458828711],[-7.470733391953098,53.32933453475835],[-7.463171171870078,53.328248519219585],[-7.458791452126481,53.32088328400297],[-7.455828618610138,53.317962486058526],[-7.45161899465635,53.32013043418186],[-7.446375253156847,53.31982803094683],[-7.445031633122849,53.32103535982379],[-7.445404396993396,53.32202109798725],[-7.443064282381683,53.32264614157232],[-7.44455424848012,53.324035848651405],[-7.443733007977372,53.325438734419876],[-7.445076486530199,53.32639036800333],[-7.444246683397194,53.32875373756236],[-7.434692486129301,53.3297531712363],[-7.432252888585604,53.33233868241911],[-7.427727462614636,53.332095155740866],[-7.424667602742496,53.33472066469848],[-7.399125073948569,53.330241136199334],[-7.3877723125995916,53.335641198365906],[-7.369211140982289,53.34043695510543],[-7.367872999349685,53.341068811580854],[-7.36793123416606,53.343764806377116],[-7.365397780273195,53.34868580983335],[-7.3592903609407365,53.350337312304994],[-7.342526941067693,53.358717797233226],[-7.347402082572649,53.360186096851876],[-7.342952384972427,53.36337317949171],[-7.339339883987027,53.36461568916838],[-7.332759141496719,53.364216096535024],[-7.328702784980745,53.3657582181179],[-7.315243817937511,53.374870215544746],[-7.279051899850173,53.3934564605391],[-7.276120504766001,53.39599713370539],[-7.2783046031278404,53.39865378910602],[-7.27781229052116,53.39923514170908],[-7.274219536767565,53.39978403617088],[-7.27049623410691,53.39776170907178],[-7.255108219742397,53.39837764437112],[-7.252825032681348,53.39979925190922],[-7.245791579512402,53.400592008610396],[-7.231623589052408,53.40541097667211],[-7.221780904282754,53.40550827706881],[-7.215683390742801,53.40698698457047],[-7.211089730536897,53.41220099898542],[-7.2114278074247,53.4157966937329],[-7.213675487124187,53.418118870714615],[-7.208488536290091,53.42239562017442],[-7.199115634371567,53.42427898907325],[-7.1829915512768725,53.42079978949517],[-7.175945650912067,53.41584172835574],[-7.164776155621846,53.413692824636584],[-7.1558880147946695,53.40867593591594],[-7.155402973720907,53.40725090655186],[-7.150758548434881,53.40711993565337],[-7.145830234557023,53.40446599106084],[-7.143478484153746,53.4048481109623],[-7.141489093357545,53.40347839484401],[-7.143996646671783,53.39684679838424],[-7.14200677868091,53.395640992020326],[-7.131374995385061,53.39621690140074],[-7.126781051955597,53.39525581956452],[-7.123475481688124,53.391711059263336],[-7.120539473099008,53.39022400379517],[-7.1081651955165635,53.385134190930074],[-7.0979403985903,53.38229602157651],[-7.081373528755717,53.38186645392794],[-7.08526002629003,53.37694493069701],[-7.086508255755905,53.37237357233715],[-7.0890656701483445,53.369964806370845],[-7.088164770207105,53.36834689694262],[-7.0729422979304974,53.35891834899238],[-7.061532742172348,53.354258261669585],[-7.055138353790664,53.35420815893943],[-7.045953774125017,53.357359228833594],[-7.042118493578458,53.35671534344663],[-7.032907198547792,53.3488052256089],[-7.023851661829698,53.34339762461927],[-7.021587336165192,53.339312215286434],[-7.02483975240449,53.33752947774383],[-7.024601507913639,53.330870004326286],[-6.990489142798723,53.321353889706906],[-6.979292122082184,53.313286031484445],[-6.977712534227902,53.30766031246139],[-7.013326084187381,53.29633595671275],[-7.00658777741823,53.29251825280795],[-7.007337600422678,53.290998445609716],[-6.991501557710596,53.28627953333297],[-7.003525971131531,53.28147983807144],[-7.005239032588473,53.28330911847366],[-7.01538892690911,53.28200272906957],[-7.024425157499652,53.279151937703986],[-7.032144576436564,53.27984889199773],[-7.034296495711132,53.2783274618041],[-7.034747973145938,53.27628967558876],[-7.019079573724024,53.25322352948618],[-7.054603735727069,53.242723086354474],[-7.0548977875917815,53.24011615099337],[-7.051884943391906,53.23947017799211],[-7.0496450540733235,53.237585290400894],[-7.052559222280008,53.235561743218106],[-7.064396685452578,53.23625298216293],[-7.072197871102592,53.23483263384965],[-7.070854562970074,53.23317891732581],[-7.071961059302361,53.23025804769854],[-7.058293554594258,53.22885506307487],[-7.0491128635671245,53.22411896743939],[-7.04096778825393,53.22481045787108],[-7.037107840896871,53.227313531594774],[-7.036598905983621,53.22886365709315],[-7.026853137453361,53.22486098338236],[-7.022826220993147,53.22432871744892],[-7.020003625241046,53.22186683253994],[-7.012179159037882,53.21805340774484],[-7.014400479992552,53.213729390156956],[-7.019735305669742,53.213397356133285],[-7.024526313354498,53.21113532258589],[-7.02609166784642,53.21205487463963],[-7.028732987228192,53.211729280970076],[-7.035796538579637,53.20836708218084],[-7.041073206729626,53.20837275885855],[-7.041017370720228,53.207043742581284],[-7.037928708579482,53.206712623700085],[-7.035290212612613,53.204608690749005],[-7.036340414807501,53.20102787685733],[-7.035292506414353,53.19829567912946],[-7.03605074428401,53.19001833770631],[-7.069425268619236,53.19135495673864],[-7.077699531091026,53.19062699536546],[-7.086053463829765,53.188257830492205],[-7.086730116123559,53.187167732168106],[-7.0911510088574055,53.18870710473752],[-7.1003754883826655,53.18688711224438],[-7.109109759842684,53.18771050664456],[-7.114957526156604,53.18987933064497],[-7.1172266794441486,53.1887551439134],[-7.1195089765822575,53.189388806490534],[-7.123185889795991,53.18847427111605],[-7.128902125563644,53.19023464046737],[-7.135992547552037,53.18903793145316],[-7.142242294903077,53.19147072255505],[-7.14936039143609,53.19144280981228],[-7.151311410626325,53.192314709085146],[-7.158144371029293,53.19093978247727],[-7.160052061313699,53.18898388398281],[-7.165897060924441,53.18720628671071],[-7.168935204009912,53.18491355924585],[-7.165272441451779,53.1820883823948],[-7.159027669211956,53.18134649823356],[-7.135200799521896,53.17929292591323],[-7.124850746957652,53.18055038139783],[-7.106025877631179,53.16803401416937],[-7.109874574987576,53.16431806785381],[-7.1097282803595006,53.161837500619505],[-7.115542795065387,53.15841127274453],[-7.124793185748112,53.1576376933564],[-7.139559054938994,53.15902212772208],[-7.150123130080043,53.15650506841784],[-7.158686120253882,53.15848822401438],[-7.171665820617126,53.157520710635964],[-7.172907473153966,53.159566575188585],[-7.177043646516926,53.161476096206435],[-7.175208966327199,53.16642814374507],[-7.178215944747352,53.16929563223449],[-7.180324590325708,53.17468894249966],[-7.192708023361721,53.16761821802241],[-7.192911840104399,53.16193651883072],[-7.196696537419203,53.16013863932594],[-7.1986084920085505,53.15576519887979],[-7.204196465346699,53.15564473079071],[-7.210178231265557,53.151747611351915],[-7.216901265734982,53.14948143964292],[-7.226293445284025,53.14995918017341],[-7.236093687156594,53.14275547785828],[-7.23765512447302,53.139164307338525],[-7.244937200532852,53.13938055761777],[-7.246363353505803,53.142752850419456],[-7.248078887730752,53.143506399824474],[-7.25925649275971,53.14324973061304],[-7.26248369065811,53.141347139677535],[-7.260001635882233,53.13953108864603],[-7.262328999772913,53.13759087505679],[-7.2669469795853665,53.13810614397471],[-7.269600197229137,53.140449251948105],[-7.272881352974404,53.135991256666685],[-7.285930245683414,53.137514601536104],[-7.297959381375265,53.1365452296561],[-7.300826036239409,53.134355339326305],[-7.311325988059913,53.138758425612],[-7.3139278753666,53.14152460128758],[-7.317864010529517,53.143482562639406],[-7.322151710426725,53.148317806307546],[-7.3218854657510875,53.15303016365617],[-7.325816407407856,53.155843748414206],[-7.333223770221053,53.169446327683865],[-7.318334698311736,53.16821993989618],[-7.317310416076475,53.169705232161625],[-7.33348523414272,53.18693382614505],[-7.340369131923628,53.19146302683798],[-7.353265098879445,53.19707173656294],[-7.3596588797590865,53.2029755457176],[-7.360399956586045,53.20841091810347],[-7.371545273981245,53.211032419061624],[-7.374950338725842,53.21010703975384],[-7.378702396515786,53.21282160386592],[-7.379939733155973,53.21565226338285],[-7.384191291480662,53.21350280273987],[-7.386087430202965,53.210462717517274],[-7.391202531069563,53.207404722112535],[-7.402769773307189,53.20978319325421],[-7.405631623815892,53.21259814946308],[-7.413760774532719,53.2107203894788],[-7.41560466674503,53.20800689735714],[-7.418158384146492,53.20808074028571],[-7.420168882106687,53.21031042074466],[-7.4291857598368845,53.206752638798235],[-7.430989596254787,53.20437288193137],[-7.429069597695668,53.20213606903614],[-7.4270342608013875,53.19313631628628],[-7.432294328778591,53.18691534757922],[-7.436096550318464,53.18749181140028],[-7.443177720675833,53.1852099094361],[-7.453245125636252,53.186340581665746],[-7.482258440287715,53.19403590735995],[-7.487213581924137,53.196915723308976],[-7.493794848135145,53.19027250631759],[-7.532328862779694,53.18457295093181],[-7.537350416576458,53.18307679287947],[-7.547320288116837,53.17678940092482],[-7.565235243365115,53.175956377010465],[-7.570413887958614,53.17434872180644],[-7.578711753180578,53.17583482072685],[-7.593280733042237,53.17178578993584],[-7.607328481492868,53.17279375899116],[-7.632518335463956,53.167999283363564],[-7.630833158810266,53.166935374759014],[-7.6293677595062,53.162045010992436],[-7.634761555094122,53.15984447025463],[-7.635301677406014,53.15899316226055],[-7.634297668287971,53.15737456944594],[-7.635368244099141,53.15651596396182],[-7.642643639208575,53.15409720787849],[-7.64595219790137,53.15176769391569],[-7.645658386409513,53.14954092467483],[-7.646714003228067,53.147448075465],[-7.645026360327593,53.14320292170906],[-7.635898045678452,53.13627890298338],[-7.631925664011398,53.130810572412585],[-7.625188453243293,53.13007999067976],[-7.624370329161056,53.12850380665469],[-7.623177263153661,53.12856745983969],[-7.610777300492066,53.118640143476085],[-7.610731301674832,53.11376170445302],[-7.613375502036422,53.11126004926157],[-7.591420834602695,53.106009626194314],[-7.5865190653674945,53.1036818004311],[-7.587725889473691,53.09983742677683],[-7.5950257298281745,53.091684473483774],[-7.600653045333533,53.0894282425558],[-7.603633411047361,53.08654498797176],[-7.6001628205762755,53.0839149593968],[-7.606133925665001,53.07659202845702],[-7.610751520226483,53.07334051822192],[-7.622169315698809,53.0664082253963],[-7.638815540653718,53.06150397218353],[-7.658375739923667,53.05074309582625],[-7.6544044211910025,53.040680779371435],[-7.663908196223483,53.03631020368898],[-7.677518791279668,53.03203877807161],[-7.682328370139565,53.032539413703304],[-7.691065081909693,53.030948477474624],[-7.696872025060164,53.02711151560897],[-7.70226611201122,53.016068720925055],[-7.709205550688234,53.0093178705009],[-7.709039609594915,52.99700921963454],[-7.7067376767688485,52.993622443650814],[-7.712276503344082,52.98861333910451],[-7.703265604611414,52.98603978447239],[-7.708638882456833,52.98275490907615],[-7.708147913397064,52.97783003011393],[-7.715283162429538,52.97380395430687],[-7.717166611309915,52.96913596124687],[-7.722186484625783,52.96776874271593],[-7.730016850879312,52.96352739482913],[-7.730447564080735,52.95765678584341],[-7.743430843809475,52.96070085586218],[-7.747356900935662,52.96254530139729],[-7.7532023757573985,52.960823310745035],[-7.75910738054866,52.96078315238345],[-7.761116011406874,52.96367416263867],[-7.759651838861715,52.966226643894935],[-7.7703449097681485,52.97065825490625],[-7.773560789890484,52.97051224711982],[-7.774775237624893,52.971527986325235],[-7.777358788658289,52.97032007747392],[-7.781910971395942,52.97147120607936],[-7.791140564157538,52.970273431349],[-7.790494368987512,52.973012460849446],[-7.7913129466605096,52.97424166614051],[-7.79352865542804,52.97449783209042],[-7.793117779243841,52.97812462734118],[-7.797192655654699,52.97965617073588],[-7.798605371663987,52.981862072639764],[-7.802038875181631,52.98185685621349],[-7.803117510854222,52.98075685221673],[-7.812531373966688,52.97844551094778],[-7.815420424421424,52.974817696966355],[-7.818994756199753,52.975531201002624],[-7.825421478586583,52.97472973469942],[-7.826142052675573,52.97277528961678],[-7.823216826364217,52.97056591792117],[-7.824101787159533,52.96834572476312],[-7.826428120183853,52.96788706014245],[-7.826073608242374,52.966693890003846],[-7.82767051147283,52.96558704845405],[-7.8404791162653025,52.9646331602025],[-7.8374505950110676,52.96281863911821],[-7.839990440722,52.96056596579688],[-7.8446648291090435,52.95907722641493],[-7.845114777603126,52.955326878430405],[-7.864563920862234,52.956320204417906],[-7.865314462524567,52.95491666631937],[-7.86268215343161,52.95183911030805],[-7.8644627118019335,52.946959241266015],[-7.867205659940469,52.94576780355368],[-7.862484287197554,52.942645320647394],[-7.856013497864251,52.94039409563072],[-7.8499649931228825,52.93989217264852],[-7.847320179204845,52.93577463398491],[-7.843374659884914,52.93384271937307],[-7.844835868969552,52.932488377010216],[-7.851071182923283,52.93137250478869],[-7.860905255121659,52.9262632881042],[-7.8713644609588655,52.9237662167158],[-7.8606941288903815,52.91615790092996],[-7.863820673147835,52.91367934221],[-7.866683358215863,52.914575002466584],[-7.869970493697329,52.91337097390393],[-7.87394813057464,52.913691740374404],[-7.8790656454151655,52.91006028427975],[-7.881665975570069,52.91057893430435],[-7.891645903270625,52.90720708794006],[-7.893796673342071,52.90775409181183],[-7.891594678313123,52.90444291386071],[-7.884342530571708,52.89958242626492],[-7.887475501709722,52.89760504190833],[-7.893746857174339,52.896859631938554],[-7.893186733741354,52.894174987275704],[-7.8944964669861495,52.893325524605125],[-7.908637606816537,52.893696333473045],[-7.912217301075107,52.896666716023844],[-7.917360822381999,52.89697740426074],[-7.91688843369907,52.89617392371354],[-7.918928982190499,52.8931520349527],[-7.915340238200298,52.8910405328162],[-7.914772192083148,52.88663920168934],[-7.912352098835542,52.88425365167363],[-7.915090507829504,52.883042571097704],[-7.914138224371906,52.882123053794395],[-7.920044860488644,52.88061536658237],[-7.925419421595383,52.87702667449098],[-7.932459190997052,52.87626210144637],[-7.9351275344715555,52.88461881855369],[-7.939425079270225,52.88832121277954],[-7.956433250073548,52.89413926262789],[-7.961166245709496,52.89305013128041],[-7.9613047057810995,52.890979249737484],[-7.944987031191924,52.8798177474914],[-7.944157685298897,52.87793742528656],[-7.9458454321599685,52.87594009253016],[-7.944376212671947,52.87057572109378],[-7.944999455238378,52.866544878065696],[-7.949891840103398,52.86640686259443],[-7.954603549313966,52.861362931958084],[-7.962465858996703,52.85882321942068],[-7.96401865217532,52.85711533296325],[-7.960215199181699,52.8538086153318],[-7.9626346089072015,52.85077883732578],[-7.971546447438309,52.8481718327786],[-7.978695989943827,52.84944966259215],[-7.981890899339944,52.853125065889415],[-7.987139218407949,52.85405394345689],[-7.989117968631066,52.85587387542615],[-7.987554276136907,52.857497155743715],[-7.9883677507488065,52.858595980662514],[-7.995956335068529,52.86267716873031],[-7.996158008926611,52.86430822899007],[-7.998451126166398,52.8651576776364],[-7.998047059620835,52.866298933293855],[-7.99457348970341,52.86505020618939],[-7.993723995429735,52.87349550061769],[-7.991066677786655,52.87470612787115],[-7.987318432667337,52.879199831243746],[-7.994647794001408,52.88143478545344],[-7.9998394268938995,52.88141948315433],[-8.00725619544993,52.883873379147865],[-8.011545476754822,52.88384707441458],[-8.011616556958987,52.885573914317355],[-8.018569065214947,52.88755575490244],[-8.024277928322986,52.88705231710246],[-8.025637026917943,52.890492484143465],[-8.030533730143068,52.89015251112898],[-8.031603350738916,52.891021352112375],[-8.039629682226082,52.889151021542936],[-8.041737688424051,52.89781969000864],[-8.0474942875575,52.900105539042464],[-8.045966679610515,52.902740442318255],[-8.042958097740453,52.90290585264373],[-8.037916403942189,52.91179185001392],[-8.047554172489864,52.9192201428003],[-8.055110470956617,52.92810598907489],[-8.051489618278005,52.930440388461],[-8.051237700572578,52.933121036213215],[-8.049314174770691,52.933482808145186],[-8.047422677456082,52.93575458871599],[-8.045882315056005,52.939869162425275],[-8.039612197814504,52.9383544368478],[-8.02790726670131,52.93308811840434],[-8.017767280608371,52.93120667979856],[-8.012963064541552,52.92846730878717],[-7.993900257320091,52.93074045353031],[-7.98835016001544,52.93644407961517],[-7.984249641718522,52.93865193716214],[-7.986522710132725,52.94204072710475],[-7.98592135553364,52.94625948826341],[-7.983335855408039,52.947091120865494],[-7.979571763661368,52.946552638640405],[-7.975245137273674,52.94853150896602],[-7.975150076481941,52.95049323308821],[-7.97950343335087,52.95424426103956],[-7.98797409391214,52.965551999161725],[-7.986266949883466,52.97031811070677],[-7.987468047867336,52.97257494963374],[-7.996003194436689,52.97807943674137],[-8.0044872087287,52.981536436582],[-8.008199675935812,52.984146346023785],[-8.007945264697632,52.98506801095014],[-8.00453561728405,52.992316404247326],[-7.99721405535563,52.994660352286616],[-7.996399221976243,52.99744566953502],[-7.992779817517785,52.99881877900791],[-7.982192395430755,52.996957639051374],[-7.976341578763537,52.997271009184765],[-7.968835093722517,52.99496667400229],[-7.965857842238999,52.99581012942432],[-7.9596982114160495,52.99249962910533],[-7.9499516552765215,52.99542791512964],[-7.952774154624164,53.00219088908799],[-7.960131820288805,53.00642287782224],[-7.962767039285019,53.01151036193895],[-7.963427739863739,53.0165195590565],[-7.959861787548101,53.021846108928486],[-7.962281798099506,53.02267434564071],[-7.963660370870194,53.02507952882425],[-7.961995888736003,53.02784129890299],[-7.962166177691904,53.03100457030466],[-7.955420315568879,53.03274630228621],[-7.963534250670598,53.04188613834435],[-7.9545978103212835,53.046585371657834],[-7.943246109547084,53.04367898391275],[-7.936323380230879,53.044832812832134],[-7.93678835543847,53.04838866717479],[-7.936063650992238,53.0492198731844],[-7.939185977708155,53.05161267362491],[-7.9352325867293345,53.0539835504835],[-7.93399701157577,53.060871804817594],[-7.931558484605679,53.06131544540139],[-7.930519569071544,53.063489820186646],[-7.927046795781544,53.065787992651124],[-7.926905917240881,53.0707243522588],[-7.929263879118709,53.07392319563967],[-7.92815854875915,53.075148451756334],[-7.928507299829606,53.078380256685065],[-7.922676609106023,53.081917881020715],[-7.92067897866258,53.08516785803793],[-7.921683954439636,53.08701567920239],[-7.9203384098249385,53.088844047592346],[-7.927372635025473,53.09441763613962],[-7.928246127739488,53.097053280742806],[-7.925701304958187,53.09935219104649],[-7.920865596732836,53.10007562616881],[-7.919857865617059,53.10307704282325],[-7.921085308818491,53.10488907270288],[-7.928637654158664,53.10793237119325],[-7.929867730981614,53.109401175834904],[-7.936210281908905,53.10981893133339],[-7.93777570239882,53.11241354413877],[-7.937869171685587,53.11528559532866],[-7.940484415505607,53.117929010873],[-7.945905070527756,53.11975003692517],[-7.948039331454053,53.121833212026665],[-7.951556453980392,53.12208287834585],[-7.955250807531236,53.12537815671844],[-7.9648006255062835,53.126323299649286],[-7.967713908888133,53.12833079144574],[-7.974286898458491,53.12911940631754],[-7.974305101538273,53.130340966979816],[-7.973268064884238,53.130663938324425],[-7.977420265366645,53.13417389725519],[-7.9838815075723915,53.13540963314754],[-7.992312095648609,53.138982815365985],[-8.001596265980236,53.138251059966244],[-8.004520359843513,53.13905762574923],[-8.008835954289347,53.14388624431066],[-8.014959268525715,53.14429800280211],[-8.020076165605369,53.14811900689472],[-8.024547112185624,53.14819334748093],[-8.033164974084789,53.15033803813835],[-8.033768907269929,53.14929269910266],[-8.036997078969097,53.149558382062864],[-8.03752613131316,53.15053365397371],[-8.039314570520045,53.149621484870174],[-8.04484439981214,53.1512152487832],[-8.045658520128326,53.152495133336814],[-8.054964994912101,53.15390096451978],[-8.05734464189698,53.15689179510498],[-8.061818790925761,53.15966066536364],[-8.070945223320876,53.16138068319925],[-8.074522584713609,53.16324986013805],[-8.074051651241296,53.16476069631243],[-8.075643537564732,53.16515489936828],[-8.077030099788672,53.16724804684436],[-8.081454332133388,53.16689478268989],[-8.083874478431795,53.17004333217373],[-8.08140820671018,53.17238525465974],[-8.074287522204811,53.17597983178691],[-8.06947092204768,53.181787594884874],[-8.065710676188381,53.18367141817613],[-8.061682675371104,53.187964766237116],[-8.049905990490943,53.19360772183706],[-8.037168661107357,53.195071386937094],[-8.033842450654042,53.19378450942575],[-8.03020976941438,53.19403903150242],[-8.023309459665288,53.195804688038216],[-8.020314085194622,53.19456621310586],[-8.009364964004085,53.19442471684224],[-8.001938691584344,53.192634719319],[-7.993210770166646,53.1932086953216],[-7.984955544557481,53.19997631719934],[-7.983345969618003,53.20275935946277],[-7.974249482723744,53.20941640248354],[-7.971237285735341,53.21315977056224],[-7.970612214848291,53.21777669076944],[-7.969254104182266,53.21884303853771],[-7.969847787863461,53.22096870665745],[-7.968369245193085,53.2225323691854],[-7.967336821634356,53.22646330500847],[-7.971848417070601,53.23311958582931],[-7.981377126590957,53.23917622210159],[-7.999480905025187,53.24470189279373],[-8.002847373879497,53.248765061459025],[-8.00678979064168,53.2506321283113],[-8.02760978339074,53.25332077916686],[-8.029344863010673,53.263144695654454],[-8.034947189043043,53.263944704605144],[-8.039830630483317,53.267591951337465],[-8.042809400845364,53.27152310124804],[-8.05580635753871,53.2742910287164],[-8.051897878874193,53.27703364152565],[-8.048894828390614,53.28095531344866],[-8.04954700818633,53.28218628477698],[-8.04624314284632,53.28880146480987],[-8.037340433518258,53.291479136998085],[-8.031800258329499,53.29502014975013],[-8.029549671075442,53.300318933849155],[-8.024122649910009,53.30410563823529],[-8.02581323254936,53.30700719199711],[-8.025320934746146,53.308663841508995],[-8.027924170358443,53.31302828198997],[-8.026558368508237,53.31696452012022],[-8.026818931044136,53.32148778250764],[-8.021070633458317,53.323954437366424],[-8.012316491397423,53.32446359613943],[-8.004125764396685,53.32195656454674],[-7.996555259736608,53.32418209939306],[-7.99125344603607,53.327529596054546],[-7.986191187778149,53.3291437227178],[-7.989668634461914,53.33112797089082],[-7.98882720626611,53.33365134011744],[-7.984859487380665,53.33674543981852],[-7.982665119580972,53.337583874418875]]]}}]}