{"type":"FeatureCollection","features":[{"type":"Feature","properties":{"name":"County Tyrone","source":"OSNI Open Data 50k County Boundaries (OGL)","simplify_tolerance_m":75},"geometry":{"type":"Polygon","coordinates":[[[-7.380886463486607,54.93964958818865],[-7.383822896361819,54.944068814591766],[-7.391774146054549,54.9454673112071],[-7.403711562177404,54.942038080072564],[-7.42514868079208,54.94333012329268],[-7.436425557329698,54.940372675968526],[-7.447062369543316,54.935613533623176],[-7.447980437507852,54.934089750455215],[-7.448302825632313,54.923469707106264],[-7.445351498378135,54.91248410142718],[-7.446292734576692,54.90923015289673],[-7.452203851767483,54.901617674938],[-7.45332566617254,54.89687559606958],[-7.442218928567299,54.87939870057385],[-7.442003139859198,54.875087888455475],[-7.443509580442062,54.87051977697967],[-7.455307681548798,54.86007313721289],[-7.456481730285814,54.857203921785526],[-7.45607924536719,54.85379678207885],[-7.46079780706169,54.853889978272974],[-7.460598580676999,54.850478635124425],[-7.470027899749629,54.83968094864155],[-7.470680045214914,54.83510398736682],[-7.480964627519843,54.831348053022374],[-7.481611539333463,54.827632473609555],[-7.483864999515667,54.82399731248275],[-7.495245665342403,54.818835972304555],[-7.500330977965882,54.8178447195837],[-7.51686052274723,54.80832244212736],[-7.528103605488393,54.80759723719284],[-7.529439429264147,54.80548303303113],[-7.527688546012633,54.802692111977635],[-7.538864974944461,54.80089674732611],[-7.541533306399581,54.79899544660781],[-7.541607014436395,54.79634861379108],[-7.54572667311031,54.7936116237123],[-7.549017553061415,54.789415209849494],[-7.544061564888155,54.786599258328835],[-7.543801917440396,54.78549739041069],[-7.544205272356009,54.7796976189831],[-7.548181120991663,54.772723709712835],[-7.54622242590688,54.767282627235254],[-7.547249376420449,54.75514930503078],[-7.538902608128621,54.75145533649021],[-7.534495238904244,54.74713811961603],[-7.538578651758924,54.74635541831515],[-7.542629158136019,54.741741769179725],[-7.548957136915464,54.74006993860521],[-7.5571830413532,54.74511972493337],[-7.578870346411644,54.74294349300474],[-7.575596007179358,54.7478819735461],[-7.576929758523997,54.74993390512348],[-7.58551277548131,54.74955928806904],[-7.589028781537526,54.74359395587633],[-7.600921140521607,54.74592578848573],[-7.606565995517074,54.744214205313085],[-7.617013843296667,54.74348386271702],[-7.620330964213194,54.74569645224096],[-7.638366813286265,54.75143703200811],[-7.671649967740781,54.73551018243003],[-7.677196754887768,54.730986122727266],[-7.689552346645468,54.72879408184105],[-7.697543091353007,54.72591104201649],[-7.696913922717036,54.72501511488225],[-7.697648923792767,54.72404371846638],[-7.700288129256441,54.72513581206673],[-7.712315471099839,54.72503022184303],[-7.727880591017503,54.718122940734645],[-7.735029712463581,54.71630436001346],[-7.735080063982427,54.7146102724189],[-7.740412784799946,54.71179052355031],[-7.744447378666538,54.70553044325075],[-7.746041282724828,54.70440612784889],[-7.749669270643997,54.70418010091598],[-7.754413438959253,54.70583514762955],[-7.754211200305494,54.70749515696851],[-7.760055769261452,54.70664343270635],[-7.778149647698741,54.7103457498342],[-7.77851488389727,54.711140063412714],[-7.776204326501396,54.71240237271664],[-7.778873864140314,54.715643933819024],[-7.78799127896817,54.71937978735245],[-7.794626967416039,54.71983898955359],[-7.800704200085907,54.718322057349496],[-7.801586551079243,54.719139519746626],[-7.804742638389861,54.718799130539075],[-7.807232531369078,54.7206799600717],[-7.807519308006526,54.722528954626],[-7.812205586336063,54.7238884913541],[-7.8121106607738,54.72627924164237],[-7.816714334330382,54.729190899655414],[-7.816530748133388,54.73201822608732],[-7.81781530035766,54.733620563958866],[-7.824702142519458,54.73595254247029],[-7.829312957334198,54.7353943143041],[-7.835721576288972,54.7369381787262],[-7.839322335523381,54.734948762367154],[-7.840104394585365,54.73346682147833],[-7.846012245632241,54.73129498443962],[-7.848154725757406,54.72911819099904],[-7.855024519752098,54.726648221690375],[-7.879433613433292,54.70266244889089],[-7.88396763911356,54.703970282189296],[-7.890794362390369,54.70379669613395],[-7.893783406824627,54.70274329624712],[-7.895378221088099,54.700812505157884],[-7.907084156918593,54.70369802718658],[-7.90894996765015,54.70172234707055],[-7.911006344278515,54.701319422024056],[-7.917511612601592,54.702538676335536],[-7.921362324490302,54.69654148267732],[-7.912417133135002,54.69422024004821],[-7.907813537328978,54.689385675830245],[-7.899395923444154,54.69119911047875],[-7.89955503562946,54.68944646708053],[-7.898162406788448,54.688187093785025],[-7.898677036004072,54.685846927071516],[-7.913812161641968,54.67476182566831],[-7.912148971002998,54.67401531325625],[-7.911033596959721,54.66992982519164],[-7.908173364745612,54.66651213882671],[-7.904532238541119,54.665925172613996],[-7.905078743617265,54.66410561953027],[-7.903765175427827,54.66246436628537],[-7.899505724144777,54.661359902502035],[-7.897303878223803,54.658684222246606],[-7.893201954214553,54.65674819662405],[-7.886731771284439,54.65701182162107],[-7.881933145855806,54.655119949011734],[-7.877786663662556,54.6556550458539],[-7.871091985599209,54.65331106793332],[-7.865438709595038,54.65263092054314],[-7.864396405810535,54.65150629995424],[-7.856885463072484,54.650418832132985],[-7.855899236013158,54.644373457300645],[-7.853891934697031,54.64250622579316],[-7.857039044360068,54.63945406047143],[-7.856307415963342,54.63830736513051],[-7.850468137440504,54.63607555362226],[-7.850395278245544,54.634839704089835],[-7.852177079128641,54.6346397559741],[-7.85194882103214,54.63344872741079],[-7.853693713015871,54.632731587252266],[-7.851519653376228,54.63079250720121],[-7.844407966008851,54.633490550308096],[-7.838684870340124,54.63427948390299],[-7.828190514240599,54.63307813279186],[-7.822804524017218,54.635794148727825],[-7.818466332556264,54.64033940265152],[-7.816012025404395,54.64048446847202],[-7.816238651685357,54.6414735101569],[-7.813255116060995,54.6437893422873],[-7.813544618841732,54.64116985554889],[-7.808671421805397,54.639791451224234],[-7.803393587512258,54.63403074745643],[-7.794535078385926,54.63239816217227],[-7.791007396750214,54.63331316445866],[-7.783072959555695,54.632782423893595],[-7.778678774349983,54.62911191569495],[-7.778598998295338,54.626873561342435],[-7.771029420846456,54.6205306112244],[-7.757329094043855,54.62561072583191],[-7.75673205664662,54.62181194406968],[-7.754146990424276,54.620413729572],[-7.754120122323794,54.618413810830546],[-7.743078883254149,54.62012101566121],[-7.741505748203758,54.61793811623339],[-7.738325028916793,54.61903227865893],[-7.738428211686672,54.62107728661471],[-7.736090953740602,54.62343134714948],[-7.724702153916654,54.62744440562491],[-7.715516353460587,54.62933325926827],[-7.709600654161848,54.63474101933892],[-7.707792603350721,54.6346909358627],[-7.704979567379517,54.63277408751145],[-7.703158871223883,54.627534412457514],[-7.706077028210673,54.61955133189894],[-7.698530125770825,54.61837056841984],[-7.693307028392243,54.618895047360525],[-7.694869098535365,54.61778424716859],[-7.694123809852012,54.61389519935395],[-7.696578524529069,54.61165444955657],[-7.696432129143906,54.6104854255536],[-7.703401223004973,54.608287588674685],[-7.69637343547239,54.60794644835072],[-7.691524587863837,54.61031497585901],[-7.69008838289009,54.6091359085877],[-7.689994524031062,54.60721108336844],[-7.693841604033365,54.60501886928234],[-7.692032481306391,54.60373358505737],[-7.68195977446205,54.604844996587644],[-7.676441546843445,54.60360276390416],[-7.676024344514591,54.60252309797457],[-7.679027047943214,54.599497872879965],[-7.674142686119646,54.59586715548414],[-7.676207596143231,54.593962667159],[-7.67618081208587,54.59243465755733],[-7.673752697280524,54.591372040115964],[-7.673844319502252,54.58955236246192],[-7.672039351018335,54.587929609547714],[-7.668073122579004,54.58578414369036],[-7.669439728647955,54.58414764420352],[-7.668906222114019,54.58315747427534],[-7.659542520502225,54.58382792508007],[-7.657850626051455,54.58267721498687],[-7.642721785788266,54.58478050087126],[-7.640499668414874,54.58349492457755],[-7.624730516279749,54.584690876231384],[-7.622922779922167,54.583629158940894],[-7.624425849187169,54.5799263248708],[-7.620115412601295,54.57716710455177],[-7.614213588524432,54.57541805773026],[-7.609533830116805,54.57547032724687],[-7.601860719694824,54.5729960255963],[-7.599568040359688,54.569089208141705],[-7.599262214657777,54.56589573641998],[-7.596516716661053,54.565426792291525],[-7.59081552227982,54.56688005839099],[-7.588507827668756,54.56871291773505],[-7.586869080220652,54.56759705721619],[-7.588255832481146,54.564061007499966],[-7.549028385423764,54.57037184152485],[-7.545202615728277,54.57022274990565],[-7.53912896683015,54.56608181807547],[-7.537566541876218,54.56192413420235],[-7.530139935716029,54.557682147222444],[-7.528041175812805,54.5551566668069],[-7.530415539225581,54.553637596316044],[-7.531096154809647,54.55146011153849],[-7.536500700412939,54.548424408554304],[-7.544943928275406,54.54668092052175],[-7.545724941011627,54.545859010803085],[-7.543614564335578,54.54428438052841],[-7.548868382882707,54.54333757195416],[-7.558017158832362,54.54400071904574],[-7.56005352057054,54.54149110992778],[-7.560122395957083,54.53872734267496],[-7.56192351287977,54.537074484716726],[-7.556934288374555,54.53425185014227],[-7.556803070535149,54.53212289751018],[-7.562949777690783,54.53093985708179],[-7.564493216348839,54.52922682034162],[-7.561779587908855,54.528463767316246],[-7.571557411174362,54.520543848077274],[-7.572792934737722,54.516508872674535],[-7.571209141389274,54.51263784620528],[-7.572539693710288,54.51082206612479],[-7.576193601341357,54.50914857910532],[-7.576283553143848,54.50699211492702],[-7.574918170283812,54.50586436643604],[-7.581090219307305,54.503112280242895],[-7.581952839826271,54.4979002164727],[-7.587587264560928,54.49782973976262],[-7.590811454521614,54.49508277902311],[-7.596839744812647,54.49464664395055],[-7.59878222769463,54.49325927963364],[-7.610625208978381,54.49341060944673],[-7.610830315097692,54.4921075527006],[-7.615767424058023,54.49223566282176],[-7.616929175512798,54.49174494439902],[-7.614785081458335,54.4899847405364],[-7.630902234732647,54.486550939915425],[-7.63574794443806,54.48382344905689],[-7.636491338723362,54.48261181361256],[-7.63523385714278,54.4792474250318],[-7.630736493103718,54.47725603017034],[-7.628552912551084,54.47540637136023],[-7.629132803527685,54.47434305685022],[-7.618507667825692,54.47097936277565],[-7.6182525413218,54.469360111128374],[-7.620847972921305,54.46804210478581],[-7.620529410618246,54.46636938040585],[-7.617390282579923,54.465518177475154],[-7.622211882172129,54.46215666894908],[-7.620426975759278,54.459109136238766],[-7.608294033225529,54.46222462530531],[-7.605568045575678,54.46104679175473],[-7.607271883349055,54.456573265424396],[-7.608589814624394,54.455813152248],[-7.610593058133031,54.45599958681089],[-7.611685803554857,54.45816699881745],[-7.614269694213658,54.45806297642419],[-7.622546551439111,54.45498700380545],[-7.630537323305195,54.45361824184788],[-7.625069967787332,54.44867847392864],[-7.624272426460964,54.4430784377348],[-7.626301016309162,54.440297410350404],[-7.624370740031321,54.43952109560909],[-7.622403804778766,54.44109127437214],[-7.61254278022839,54.44036319462667],[-7.60389213552239,54.43449371316569],[-7.594737099467332,54.43700304323914],[-7.584429062373421,54.43137078037397],[-7.577463510280579,54.433835020692484],[-7.567569823537871,54.43169367040106],[-7.568700011829761,54.43432701286075],[-7.559106877265286,54.43546132351719],[-7.558757868733413,54.436426955321416],[-7.561979362919334,54.4369097414435],[-7.553828243914676,54.43884946098329],[-7.551912135295627,54.43665123792689],[-7.554600725188015,54.43504758035834],[-7.554020108818072,54.43398176697331],[-7.555221169696346,54.433357016837505],[-7.547312548500204,54.43415913117719],[-7.540728714540713,54.42988676925052],[-7.539976813201454,54.42810830690344],[-7.540876250660166,54.42673054915241],[-7.526235911813733,54.42138436623836],[-7.532927660324459,54.418435234309776],[-7.52795579872698,54.413768125989414],[-7.517103441793811,54.411999721704596],[-7.514713602948052,54.40897871097972],[-7.509321208986928,54.40556732192483],[-7.503665056945732,54.40875417964684],[-7.495626317081317,54.411102827980436],[-7.493821276160355,54.41379206187909],[-7.480076595121407,54.41647526270125],[-7.472079669832674,54.42131689535263],[-7.451760400619309,54.425631072153685],[-7.443235872422557,54.42642357689883],[-7.426042330336623,54.43272530205004],[-7.422731578712743,54.435226259268426],[-7.421331841041223,54.439669226301895],[-7.427732077902102,54.442419156872866],[-7.426765086326015,54.442684373958166],[-7.404587133640985,54.44019445424063],[-7.402220765912467,54.441261622828435],[-7.396685389764622,54.44031273121142],[-7.390559425211197,54.4427763407762],[-7.387391123753927,54.438220790505916],[-7.381477529833076,54.43938181240462],[-7.3764684686231,54.43683894564105],[-7.366594739089868,54.43743947424459],[-7.361287134915952,54.43190569847413],[-7.359460298080809,54.42560359898032],[-7.357231123092959,54.422108167410045],[-7.35981683017768,54.42149217791796],[-7.361585886285968,54.41966132774858],[-7.349501858572625,54.41572851259555],[-7.346421234139686,54.4131274585873],[-7.347186091261443,54.41097385961236],[-7.344549336158095,54.408776226085486],[-7.339934616657156,54.40868881722793],[-7.335091744422033,54.40578581996467],[-7.330262352498564,54.40467656599136],[-7.331999998951043,54.401743825576695],[-7.330664391942535,54.39850007999089],[-7.328635470463986,54.39805727959684],[-7.329000243426785,54.39694278961015],[-7.332977154255568,54.39622315414604],[-7.333344218891606,54.39496688624526],[-7.337313803467994,54.39231447583801],[-7.334857849304069,54.38818313260126],[-7.340244298186156,54.38401112817681],[-7.331114858655457,54.37839219124067],[-7.331913259149445,54.37664361989287],[-7.330759012156802,54.374300136863454],[-7.334494722740851,54.37173627406871],[-7.328636564147229,54.37001829951295],[-7.321600101147985,54.36979924932956],[-7.320953256601613,54.36835312272973],[-7.316090613415228,54.37072878647835],[-7.311156211280212,54.37128525919536],[-7.307737309273683,54.368327166351094],[-7.302361583818255,54.36770051930552],[-7.300916929192315,54.368984423768026],[-7.296539378827597,54.36882978175369],[-7.298313886121909,54.37270002090025],[-7.301709201381215,54.37438250995209],[-7.295402860188594,54.376391031677855],[-7.294969638003243,54.37474790018154],[-7.292215251736653,54.37383285859212],[-7.289436649625573,54.37047683392111],[-7.283649166961804,54.37262256669172],[-7.280823024919623,54.37187781677114],[-7.276604619183371,54.36677373420309],[-7.275440143957952,54.36303621099902],[-7.271169202015383,54.36096529771749],[-7.273538670135216,54.357518949049435],[-7.27129341104051,54.356179443617776],[-7.270634997302862,54.35428777665934],[-7.270738011399845,54.34729199635579],[-7.271904426050111,54.34428727093545],[-7.261422269092822,54.340635399748024],[-7.260830222863385,54.33937345941101],[-7.262596928601361,54.33733907582822],[-7.258679399055023,54.33299168844404],[-7.255020804632585,54.33331469909454],[-7.247559576513289,54.329147070601316],[-7.245978439298852,54.327249225346634],[-7.241010775800716,54.328148438328874],[-7.237054080354658,54.32546263009803],[-7.233308321035646,54.32695370979981],[-7.227151495907101,54.32703319155146],[-7.22671103383292,54.32989229162263],[-7.222449532249749,54.33379807118507],[-7.211053334762779,54.33469064858057],[-7.205936604472991,54.33692743667006],[-7.201550652877905,54.337078179183365],[-7.200772433392922,54.33756772761214],[-7.201752068930354,54.340929672072775],[-7.20104183886279,54.341846359834136],[-7.194618055939562,54.34202817082583],[-7.188496652926014,54.337681092428525],[-7.183001470824086,54.33996602842946],[-7.16653601556867,54.336460088764476],[-7.162409485201515,54.33710581445434],[-7.15200149348878,54.33555607693075],[-7.146694213924412,54.339361548766355],[-7.141506177042605,54.339279812187186],[-7.140071408670354,54.34277017108366],[-7.136918689506611,54.344635636955346],[-7.128711802963264,54.34540854568652],[-7.123875524246549,54.35056558191603],[-7.11955535652788,54.35116324839172],[-7.117525747638804,54.35258697993657],[-7.112255072967582,54.35263842920641],[-7.109406246064571,54.35459526420265],[-7.104347603798769,54.35552440476866],[-7.102089440133438,54.36045242228334],[-7.10898815626798,54.36535815170974],[-7.109931771856433,54.368062177024854],[-7.106396197126002,54.36785644006039],[-7.099916281462956,54.37173104989449],[-7.092792542594168,54.37422804432491],[-7.084845395594511,54.37855101252537],[-7.083737985046469,54.38159906469803],[-7.074731744060567,54.386548371821696],[-7.070624814619953,54.390504187654805],[-7.071944876022391,54.39180240718424],[-7.070507203909845,54.392420460131625],[-7.071364830686315,54.39361799793908],[-7.07000971241243,54.395674698630806],[-7.065645854086538,54.39804497264392],[-7.057025110880163,54.40706813180162],[-7.05649606834245,54.40832258880146],[-7.057817419995417,54.411165004506294],[-7.055011260021615,54.41027505166172],[-7.053230889071305,54.41235069657541],[-7.042656890779024,54.41514325871715],[-7.040864014329443,54.41771296719504],[-7.038285306154207,54.417692184653035],[-7.029251854114012,54.421572219462334],[-7.025236703099767,54.418935357223745],[-7.01989280452618,54.41808193757548],[-7.019538114812656,54.41606214671082],[-7.016933233395932,54.414198718322545],[-7.015012642300808,54.41458477708179],[-7.016513391944729,54.415750930811576],[-7.013285159907307,54.416984533288584],[-7.011933908430902,54.41630276621743],[-7.012855170330739,54.415267612976386],[-7.010235546792065,54.415791456314956],[-7.004373096350941,54.413266227758264],[-7.001501474856226,54.4133019933111],[-6.999400686580454,54.41088484048152],[-7.002041625278584,54.409811177952164],[-7.000167635718117,54.40776842300437],[-7.000410098711343,54.40672576280582],[-6.996067275265339,54.4066439937815],[-6.995835274973137,54.40540395203481],[-6.987932801932618,54.40737932158908],[-6.989909847308235,54.40776812104591],[-6.989433866957668,54.40939470935482],[-6.982066180958631,54.40957028278805],[-6.97889272559354,54.40851651522713],[-6.98062757245655,54.40747868908838],[-6.977194223439066,54.40614199299985],[-6.977064325613887,54.40351254812644],[-6.978141284868494,54.402098555524354],[-6.975841966941954,54.40046305045289],[-6.967188802955109,54.40138287639701],[-6.959045161675224,54.39773172989927],[-6.959358466638981,54.39447668722747],[-6.960386246715236,54.3935607275862],[-6.959771127779229,54.39246672804486],[-6.949166177929881,54.390199622135356],[-6.94416913032096,54.39121893049144],[-6.94367377852171,54.389361097485434],[-6.945604047557904,54.387098050688586],[-6.93883445920639,54.38450946493327],[-6.937997516656478,54.38333585907731],[-6.933245456679794,54.384554268799015],[-6.924714835730358,54.38299533476475],[-6.926202018516419,54.381671434876175],[-6.928564147248093,54.381701952584194],[-6.928652169432949,54.38011653100276],[-6.933267745819212,54.37991706780624],[-6.9327672398201,54.377797496526696],[-6.930801462530868,54.37597178514312],[-6.926995608558002,54.37693156286585],[-6.926369296147813,54.375906021116045],[-6.925006416664739,54.37743606675133],[-6.919823802998251,54.37863546652648],[-6.910961743652829,54.37477836225553],[-6.910704421434765,54.37361985319854],[-6.911793460383922,54.37327854550449],[-6.910841739082008,54.372628162339886],[-6.912229318350787,54.372016222081754],[-6.906883893327539,54.36963883309257],[-6.907747053475143,54.36678888419503],[-6.909816267649585,54.36714201740129],[-6.91029150543643,54.365298097796064],[-6.907528971243718,54.36156698887679],[-6.904162040702104,54.36177932198671],[-6.903074150388878,54.36087749579367],[-6.905448651927835,54.360235337135265],[-6.904832957662985,54.35656566613184],[-6.906195477312221,54.35565266007341],[-6.906498240426259,54.35071257144925],[-6.900009235173785,54.349719768690136],[-6.893397143028005,54.351345252223545],[-6.887611074732294,54.34911928149606],[-6.885988582829943,54.346243475199415],[-6.876261921946993,54.3467431341234],[-6.876039351633572,54.342308554660654],[-6.875062861830835,54.34127416835295],[-6.876637571898365,54.33905039492683],[-6.869064165879448,54.33338759171304],[-6.867843315198998,54.33078987438475],[-6.866715288970409,54.33201374150407],[-6.865626596347078,54.32990935527233],[-6.859114719699471,54.33091626315094],[-6.853853822602309,54.32969670855447],[-6.853939905276467,54.3309550806215],[-6.851841674856335,54.33217542801893],[-6.842110161416419,54.333071753014515],[-6.839852480026013,54.33528177969691],[-6.837210866440988,54.3357827814659],[-6.835146594907419,54.3388833911164],[-6.83492175255933,54.34376075610562],[-6.831360163954157,54.347378927759166],[-6.832505942576115,54.35168300646629],[-6.827144866234827,54.35808185211743],[-6.826718303643108,54.360213637607366],[-6.822649581205289,54.36150478626243],[-6.8212873110081,54.36040554933248],[-6.820221251277801,54.361590506297304],[-6.821806954284396,54.36282392719319],[-6.819823795107053,54.36257407948023],[-6.820239243019967,54.3643356245725],[-6.813882461073428,54.366252900583575],[-6.814983782454006,54.36736169735227],[-6.812810031726729,54.368762939738076],[-6.812925889669111,54.371978671111435],[-6.810120260584987,54.37207153013646],[-6.809026793384732,54.37321685388762],[-6.812352462513343,54.37368423631977],[-6.81160784936097,54.37528981657134],[-6.80910404023732,54.37559920017988],[-6.807878468956259,54.37693162717376],[-6.808309762019658,54.378080854103196],[-6.804953438958378,54.37973245746158],[-6.804979969814972,54.384018059497656],[-6.807292802539158,54.386100852443526],[-6.806256976153429,54.38824505024047],[-6.807478000745596,54.38872012097854],[-6.80539714121698,54.389061462286115],[-6.804437712716117,54.39054186573988],[-6.806295393669158,54.39172345608614],[-6.80845951676686,54.39143593292062],[-6.803906642184341,54.39384696800379],[-6.806639887884191,54.39467189290421],[-6.807817305830773,54.39737508852747],[-6.807442956874662,54.39919849959654],[-6.805010003163718,54.399186299926676],[-6.805473684105933,54.40059821703717],[-6.800810920370859,54.4023942826296],[-6.800723876832167,54.405032773757924],[-6.802532132727098,54.40522224808539],[-6.799791353672476,54.40702133102049],[-6.799595392321797,54.408637048447005],[-6.796749027104422,54.40881959344264],[-6.796740429419262,54.41062244572933],[-6.794158047389363,54.41495478391275],[-6.786012343344027,54.4157570160972],[-6.784524458587323,54.41425574124177],[-6.771160523688372,54.41403457000485],[-6.766988013832236,54.40980148582146],[-6.759505432267039,54.40722949928597],[-6.756763812275579,54.40734784431474],[-6.748583566852438,54.4108555687899],[-6.745107987115455,54.4090569787958],[-6.734596041783643,54.40902300322063],[-6.729939508120805,54.406375791771524],[-6.729294543502119,54.40550625406824],[-6.73078584190436,54.405057860355555],[-6.730929285025639,54.403855991255185],[-6.72823916777334,54.40180576029483],[-6.71989513325154,54.402075268234924],[-6.710663212428304,54.4043985173488],[-6.709822415228778,54.4059325535684],[-6.70625232972197,54.40727841921937],[-6.705018700648285,54.409374544809815],[-6.706844441181166,54.41254861629412],[-6.70656875714015,54.41387564208094],[-6.701641609306196,54.416525308141914],[-6.702034407560204,54.41893188603231],[-6.704811876601956,54.421457868551215],[-6.703278753653255,54.428598421975224],[-6.700868229810792,54.42995496353806],[-6.694282240254141,54.429540252154816],[-6.693655444918017,54.4338194662714],[-6.69833069563543,54.43758403400896],[-6.697223703126674,54.44262873610229],[-6.692298946813132,54.444620256046434],[-6.686136871695068,54.44481332167111],[-6.682731631906359,54.44652195010507],[-6.680565638623733,54.4496386064496],[-6.677486934571915,54.449344638306876],[-6.674664051760011,54.45069021844439],[-6.670169137983629,54.45551614186098],[-6.670935346377087,54.458398642152254],[-6.66807731725195,54.46301246661841],[-6.660819741594919,54.46444469886835],[-6.65790830328879,54.467327162101405],[-6.649702081270775,54.47035293233356],[-6.649216946684082,54.47327180533771],[-6.652712751642006,54.47827403057195],[-6.652217473210446,54.479817898262496],[-6.649271581242067,54.481836482899446],[-6.650769031302036,54.48693572270994],[-6.645378264617627,54.48797285497805],[-6.639998925051278,54.49052817920329],[-6.638160702637355,54.49729635033791],[-6.633859033639453,54.498243351114276],[-6.631033492722516,54.50078004038368],[-6.62998340835806,54.50383286898144],[-6.625980826149723,54.50470885702559],[-6.621880851031796,54.50288214096426],[-6.609923162761749,54.50732043104146],[-6.60418160639126,54.50686035807022],[-6.602329698027496,54.50336458870983],[-6.591924542262045,54.50365515992378],[-6.589074684199144,54.507623190215995],[-6.578638718376957,54.5112821453653],[-6.577077295903576,54.512964035090064],[-6.57888845830414,54.51538635142562],[-6.578563424757276,54.518022184939454],[-6.541003780465276,54.54233757727913],[-6.42610794333782,54.5681173881252],[-6.407011283525111,54.648428756570006],[-6.469036395987815,54.68523506510219],[-6.519422889292739,54.66883787636417],[-6.5286912686782,54.66731906157828],[-6.528378322686357,54.6658868245605],[-6.532394079028765,54.66589763779039],[-6.534094610908842,54.66342462879165],[-6.537353124916131,54.66340957834752],[-6.540676529911392,54.66022298222226],[-6.540749964492627,54.658606210104054],[-6.543482287339478,54.65706107054353],[-6.550059072629381,54.65778565753621],[-6.558214113833701,54.656327458886146],[-6.566102565314424,54.65818639922756],[-6.567190033097191,54.6592102585515],[-6.566739785826767,54.66250429517157],[-6.571965390197226,54.66446697181026],[-6.576819334416399,54.66176573467287],[-6.584916785724576,54.660090862016276],[-6.588205128374129,54.6550906721161],[-6.602563631276289,54.65706157484952],[-6.603305051655127,54.65405236437909],[-6.607895156811323,54.65150552664058],[-6.610384221055543,54.650812807725316],[-6.61492884105221,54.65218610828782],[-6.617625038079306,54.651732632183325],[-6.623489448490236,54.646833846170146],[-6.623723287218934,54.64207755900361],[-6.622349401762794,54.63950608610715],[-6.632949486850591,54.637920096944974],[-6.63414864777473,54.63469439400087],[-6.632412064621699,54.63409112957667],[-6.633559295579362,54.632769645576886],[-6.635961911331193,54.631574434199884],[-6.638743684620565,54.63277414273078],[-6.639707035408434,54.631837782602744],[-6.63789878486577,54.63114816466041],[-6.640322080745376,54.630095870617325],[-6.644541314218166,54.63145066929835],[-6.652605067122989,54.63124391798498],[-6.653945480389197,54.63410083827304],[-6.650339700655448,54.63657843785089],[-6.65110390010274,54.638070987736086],[-6.65770166207011,54.63760558445461],[-6.669894262380943,54.64250859472318],[-6.676927633337568,54.6417771111315],[-6.680929180991174,54.64258574250228],[-6.681188185937063,54.63937324911266],[-6.679004382740673,54.634400137813735],[-6.692560870552514,54.633227519336735],[-6.697872659858541,54.631260936271765],[-6.701614509265327,54.63199843881804],[-6.705599166777012,54.629580435667904],[-6.715790914844621,54.62851152240706],[-6.717091823478091,54.629673575581755],[-6.715786335090726,54.6318177963522],[-6.716216557782934,54.632923717575224],[-6.71904540043416,54.636595493271074],[-6.714637963918316,54.63855275052166],[-6.716006420700862,54.6393763533312],[-6.713543626163832,54.64292157777873],[-6.714169712505584,54.64519886672411],[-6.7123626790148,54.64691013481612],[-6.70794121042054,54.64621145606171],[-6.70269766346656,54.64298581714992],[-6.693663323168489,54.64222353173078],[-6.694251156862809,54.647998036597635],[-6.685045939545985,54.648797709753175],[-6.685177409663344,54.65318292203553],[-6.686071671227201,54.65429398750756],[-6.688830361806014,54.6564819508253],[-6.692376457767993,54.65738023023415],[-6.695905493124108,54.65655385763764],[-6.696922676435148,54.65501430080147],[-6.699470549964995,54.65407537638529],[-6.708505252606273,54.653812410905296],[-6.709410035679532,54.65213678058649],[-6.713605695840516,54.65051852098081],[-6.720284199859076,54.65157752344013],[-6.72206343260891,54.65418419946893],[-6.71975182395004,54.66037517760696],[-6.721012792815467,54.661472961918214],[-6.728071604321427,54.66190750477194],[-6.731101529043217,54.65758383950724],[-6.737893830843173,54.6584415250288],[-6.740165555862534,54.66017344943987],[-6.739836071511949,54.6629959931118],[-6.74127543725313,54.66443378465368],[-6.740286241258811,54.6688529735995],[-6.743982260064679,54.669330712661065],[-6.743366244734208,54.670470324959666],[-6.7468398522826,54.67221404096915],[-6.745354618078252,54.67262570822767],[-6.745723337920874,54.67323617536335],[-6.748118117612202,54.673508030713826],[-6.752053602314351,54.6766497157461],[-6.755125222947412,54.67634412758711],[-6.762083776998753,54.68081974109311],[-6.764435232222502,54.683832234518974],[-6.769980315912926,54.683798819446736],[-6.772133859634489,54.68568561614839],[-6.776280392923316,54.68705317175336],[-6.778721408919532,54.68970698597557],[-6.776399623526595,54.69085192340998],[-6.776044717781189,54.69235398773426],[-6.778028168585989,54.694778213243154],[-6.78125094235432,54.69593420615988],[-6.781677754609897,54.69854521323628],[-6.783812683467084,54.69980240977915],[-6.783402141054028,54.70056216236048],[-6.788408469963676,54.70308399998438],[-6.7923113992179,54.70357237487056],[-6.796721576203191,54.7026499558488],[-6.797259077554046,54.70591473252585],[-6.801121603444063,54.70604168860522],[-6.801077040314313,54.70756925981525],[-6.805546136803566,54.708624613473695],[-6.807528837167983,54.71116072702459],[-6.808092890780265,54.71622738769819],[-6.809079436019337,54.717001495581805],[-6.815090593761451,54.7184315548751],[-6.818225519104501,54.72005818526772],[-6.81887377625373,54.7218176643512],[-6.824282464114175,54.72263475196827],[-6.826405673676256,54.724386026277976],[-6.827538023610531,54.72549858213896],[-6.828221596809011,54.73102386319387],[-6.826365888045593,54.736196459307756],[-6.829876037549595,54.74106155812993],[-6.841646875397646,54.738315013144486],[-6.864294264701461,54.736260188583465],[-6.883582702533613,54.729247291880675],[-6.886686530099875,54.72783733527624],[-6.887820225397915,54.72524870999285],[-6.891146120787893,54.72471433029902],[-6.891433167826286,54.73024151586916],[-6.899896959786397,54.731532792578136],[-6.907936724598791,54.72985262771139],[-6.909082564175835,54.73053722987487],[-6.907982955402459,54.73246051451699],[-6.908835986600793,54.73395153113968],[-6.917551966088221,54.73456982557814],[-6.923422011349307,54.73129992580683],[-6.927949323666038,54.730328853889894],[-6.931949243001981,54.731734653338954],[-6.93499783193956,54.734539644826455],[-6.944100512870934,54.73150087719476],[-6.947676684562257,54.73142281722251],[-6.948792794129629,54.73028653942989],[-6.957196817210741,54.730988223610744],[-6.964365600761333,54.73608293212519],[-6.969856853878026,54.73691639821826],[-6.972789511176615,54.74071598727579],[-6.972412333304446,54.743386723243134],[-6.940535240678982,54.75219420818624],[-6.93591161743196,54.76568520459608],[-6.939438378813893,54.77342613558858],[-6.924573662182188,54.772889851220356],[-6.910979394695137,54.77715103429266],[-6.90317322606059,54.784250775017426],[-6.902554496874363,54.78700985530678],[-6.905940589235856,54.79115421368247],[-6.922105534468214,54.80298803200489],[-6.921164066980793,54.804777970632024],[-6.915940065013382,54.80821499368442],[-6.912907430188967,54.81257087166535],[-6.911489440693218,54.816154589374236],[-6.912387234246034,54.82038842196519],[-6.919242102479669,54.821484124781826],[-6.92183190967013,54.82355262279206],[-6.930707489547524,54.82623912190571],[-6.93533782188609,54.830640632150455],[-6.946000025514471,54.833521613966944],[-6.953004001422297,54.83048050843251],[-6.965210012222675,54.830855536845135],[-6.972392979097944,54.828331890062934],[-6.987297999445041,54.83277366804022],[-6.989657436901845,54.83020865744444],[-6.992977549499351,54.829651738907174],[-6.996386181143019,54.825544351290176],[-7.003656624287765,54.82092931434024],[-7.038453609066021,54.81981820959386],[-7.04193299864307,54.81905916474736],[-7.053833079680458,54.81240980543166],[-7.063584132050325,54.81111500686059],[-7.076657236912043,54.81589120418485],[-7.092579573774437,54.81861925377629],[-7.098991000113905,54.81361002480373],[-7.101445322296738,54.8134037120199],[-7.103442497529527,54.82187752292136],[-7.110949847022963,54.82548275601012],[-7.122654669638752,54.82752289480427],[-7.124927902825676,54.83039284749811],[-7.139423703041198,54.83860772103568],[-7.143381181768909,54.8429046006738],[-7.15665636696107,54.84799837597311],[-7.158681730959337,54.85167496699029],[-7.153604308237359,54.856223520488186],[-7.153562417154509,54.858223080204596],[-7.156437428902533,54.85664779287308],[-7.164517425368081,54.8556029459468],[-7.166705802064703,54.85330351538566],[-7.178189664678728,54.85349689290173],[-7.191183224494065,54.84610207423686],[-7.203819830782631,54.85368118467737],[-7.201347914992679,54.85540254747777],[-7.189321218744317,54.856398303591384],[-7.188117639274798,54.85729441296891],[-7.194296437156456,54.85980762612532],[-7.206254340130981,54.86725410261389],[-7.204394612800396,54.87470206704108],[-7.197418375721675,54.87908589501828],[-7.199104675350307,54.88244518442394],[-7.198362447243293,54.88648514817504],[-7.201051419841749,54.88841286354522],[-7.213733158427757,54.88539562537073],[-7.23005992340939,54.88725391079814],[-7.243487360596975,54.88381111250825],[-7.248348793403817,54.8863356969176],[-7.259564921159041,54.886540262717524],[-7.269545913136227,54.888034008980306],[-7.268333822293975,54.89043108145785],[-7.27036367254511,54.892375737088415],[-7.272962724618533,54.89302037932774],[-7.270244099099073,54.89925643343204],[-7.263360833322714,54.9048769028042],[-7.259686671439215,54.91182023890377],[-7.258552702736934,54.91415003622833],[-7.259919211698246,54.91829302968216],[-7.282945059398606,54.92142104831042],[-7.296017954254802,54.920824346136506],[-7.302028122316415,54.92501639721004],[-7.317408100259221,54.91946453047768],[-7.323494582410973,54.91455548142549],[-7.338673863968364,54.91607828313265],[-7.358142296408371,54.915195121550575],[-7.370430560591998,54.91970930221658],[-7.371237330199955,54.92800491459725],[-7.376414771449467,54.93367199153972],[-7.375684904081867,54.93546563245788],[-7.376510899663977,54.937537314643066],[-7.380886463486607,54.93964958818865]]]}}]}