{"type":"FeatureCollection","features":[{"type":"Feature","properties":{"name":"County Wexford","source":"Tailte \u00c9ireann Counties National Statutory Boundaries 2019 (CC BY 4.0)","simplify_tolerance_m":75},"geometry":{"type":"Polygon","coordinates":[[[-6.336679560612349,52.253614128825745],[-6.334714683408652,52.2548750920422],[-6.3379596965611436,52.25723565183457],[-6.334705994941878,52.25553520604331],[-6.328928450632442,52.24767784456762],[-6.313567293230531,52.240274444703424],[-6.32325036969411,52.23388006653598],[-6.323932826340721,52.232065631274665],[-6.322864132762938,52.23001905359668],[-6.324745079738528,52.22871031388993],[-6.323633751970285,52.228821240183066],[-6.325502529665981,52.2269554916709],[-6.325723215552982,52.224934113680455],[-6.3428945305663404,52.21356818319185],[-6.345133235833635,52.20714332540836],[-6.34938221511048,52.203863770078776],[-6.350992450931238,52.20120516797961],[-6.34968398868017,52.19803066892714],[-6.348084189436403,52.19747465610173],[-6.3471248430136,52.198680802664676],[-6.347716077040454,52.19760982880249],[-6.346772580134112,52.19610222380362],[-6.348403248863164,52.19254310110174],[-6.344963923402174,52.18985334578214],[-6.351329702060995,52.187822122620425],[-6.351955413188319,52.1858923365711],[-6.357820395985276,52.183619301811476],[-6.3585048047235,52.18212539608367],[-6.357053591751101,52.1795050354226],[-6.358478032522515,52.178330164966546],[-6.3578638227755295,52.1774834594321],[-6.360125185242737,52.17445257018148],[-6.363076295651836,52.173223608286094],[-6.365118972035195,52.17313803190151],[-6.367317873412349,52.175108628892296],[-6.369773435018263,52.17565077595302],[-6.387576487477352,52.17751601605467],[-6.39843414704836,52.18273086641166],[-6.418286450401024,52.187455757155895],[-6.448564662523349,52.19025655976208],[-6.478451171711012,52.191174769502204],[-6.491973186916821,52.190706879514686],[-6.513772358484117,52.18714347480189],[-6.539436381247155,52.185341246718494],[-6.552772067130066,52.18150940495341],[-6.561917307015316,52.17768041776246],[-6.573547479049731,52.17582249545938],[-6.578078873368735,52.17626079180267],[-6.587407169683057,52.173759590900225],[-6.586893279876183,52.17113914107533],[-6.587730670773697,52.172995761731556],[-6.589254791835181,52.172266954680346],[-6.587284926076105,52.17061720677599],[-6.590945522710616,52.17199566468851],[-6.595733010977529,52.1702373327824],[-6.59356376905309,52.17235611241639],[-6.5945065789123785,52.173410487099616],[-6.593850954933411,52.17363319708201],[-6.594711944398373,52.17344947573999],[-6.59488704342669,52.173214295905176],[-6.594385901446542,52.174518401744386],[-6.595639023548225,52.17659804379014],[-6.605480003553713,52.18403932490962],[-6.618046864675399,52.191007132925414],[-6.6431449720678515,52.20127567374755],[-6.658339711286566,52.2067476049384],[-6.678203237888253,52.21162638877852],[-6.714616954068571,52.21641988887598],[-6.709678821192387,52.21663114329923],[-6.706762073213192,52.21813385375703],[-6.698514735209028,52.21615899827036],[-6.697441916916142,52.21689068715619],[-6.684324649189616,52.21665306648412],[-6.677814267607945,52.21412597712198],[-6.665022988358087,52.213041604943534],[-6.657094356245796,52.210773082470546],[-6.645660764655421,52.2047715681301],[-6.630706403819581,52.20306941438222],[-6.629456877916513,52.20599110134316],[-6.647911518419379,52.209046211132645],[-6.649095345455159,52.21191503448233],[-6.647624434848154,52.21306199151099],[-6.650582197094297,52.21718264389674],[-6.648092330272338,52.218944636946595],[-6.649516507531983,52.21974620999905],[-6.650505238009478,52.222319855728074],[-6.6527610932755215,52.223100053804],[-6.652449218247226,52.22521619523961],[-6.655855755110382,52.2259822648193],[-6.65677698461779,52.22791477140261],[-6.65636750822503,52.22581050073752],[-6.653666444576168,52.22537741268432],[-6.652994403012495,52.22291698104444],[-6.6516003808786,52.22251677053793],[-6.65196915013156,52.22005800734224],[-6.654622543105965,52.2184672542062],[-6.65384367121454,52.21761557462404],[-6.656663815474319,52.21551224048815],[-6.655195878262599,52.214790438695495],[-6.654114079957364,52.21543639822247],[-6.651132724774618,52.21366672678991],[-6.6580591454909275,52.213823509293675],[-6.663315888736518,52.216296860065526],[-6.6700126611786,52.214731133889295],[-6.673960593868834,52.21614707120497],[-6.677289285489111,52.21568637988935],[-6.681618157431006,52.21885298230775],[-6.692987954435455,52.217700963531186],[-6.702460903746416,52.21785027713738],[-6.70587035288918,52.21913909537613],[-6.710212475823797,52.21741552396403],[-6.715204136538363,52.21711971982513],[-6.717093707762061,52.215708332212735],[-6.7299855830757265,52.21515137012371],[-6.740573921553295,52.21180615860978],[-6.755154547129887,52.21377269689421],[-6.758822709715512,52.212161713474416],[-6.760546268905203,52.20997089158717],[-6.766297751558755,52.208234064868215],[-6.767248900857682,52.20687441420494],[-6.781977514810402,52.206092646089644],[-6.78536069915419,52.20430371704484],[-6.796324213572786,52.21021162385569],[-6.804330802601404,52.21131740698299],[-6.804839618634703,52.21224997107514],[-6.803798648263075,52.21178558875792],[-6.803565521882035,52.212123949784015],[-6.808250702252153,52.217914138623456],[-6.806858897514593,52.21961920117017],[-6.802806668820436,52.22095052423552],[-6.7998523319249,52.22361778643173],[-6.796996111478255,52.224155479936385],[-6.79867390125924,52.21641717748964],[-6.79597881502131,52.2147563299264],[-6.788821465899646,52.214741166166824],[-6.789640681608972,52.220122662036744],[-6.786803311810177,52.229031237681305],[-6.78050031007746,52.23153629912149],[-6.771651410803613,52.23873496655418],[-6.762298658337173,52.24450019152423],[-6.753596918287708,52.24754517075813],[-6.755064723347946,52.255238334176326],[-6.759209596105429,52.25818517719015],[-6.759845736474166,52.26277560499031],[-6.761486949665136,52.263952580686684],[-6.760943451092048,52.26530401621384],[-6.7582409331309234,52.266245429423954],[-6.75585221054353,52.26581352422104],[-6.754876416949339,52.26426400582806],[-6.753424712349334,52.26445275717868],[-6.752872509854582,52.26584067721484],[-6.753428460010108,52.26672087379976],[-6.751296015436336,52.2675808533536],[-6.754058567825224,52.266763409638074],[-6.753391768315265,52.26559020540423],[-6.754168190506,52.264515456596264],[-6.755500393638681,52.266063605554216],[-6.757880015925939,52.26700022293819],[-6.759798944844117,52.26637468213122],[-6.7635331913647905,52.2666380558382],[-6.765898654099429,52.26596752607221],[-6.773202288154861,52.26743321363406],[-6.770343396712832,52.26600693654795],[-6.765616747000905,52.265610561467014],[-6.760778659530104,52.2660106545534],[-6.76403819915414,52.26437412725578],[-6.761888973804043,52.2618662110449],[-6.765700600900242,52.25903851880439],[-6.762082795627093,52.25620950167001],[-6.762345880475763,52.254842732952625],[-6.765829077816331,52.251874705896924],[-6.776767355456392,52.24485694788995],[-6.786733172670788,52.243413315349784],[-6.788309659258364,52.24220309771906],[-6.795631896539261,52.245076154148194],[-6.799523559549364,52.243806966026206],[-6.802057690722093,52.24509260487562],[-6.8011441513182955,52.24320205618119],[-6.797676460384852,52.2422674441605],[-6.796578568036385,52.24077344035874],[-6.797079315727366,52.242308256325096],[-6.796114210146682,52.242367003860124],[-6.797354844809619,52.24274801517294],[-6.796583271615523,52.24351259389262],[-6.79504366170888,52.24288930495495],[-6.7968206815231405,52.240048743847034],[-6.809686635198709,52.23398461251179],[-6.81225896020095,52.230874479247035],[-6.817122831533341,52.23041056962668],[-6.817840192792659,52.22864755964578],[-6.822349873074365,52.228186880905724],[-6.824116010044499,52.2291630611264],[-6.826896648289703,52.227251055260126],[-6.830813108194808,52.226896951181295],[-6.828473055304618,52.22486009766389],[-6.828878540553366,52.2229648592438],[-6.833392338037364,52.219103609868334],[-6.836715203110452,52.21778543808457],[-6.8396681941902395,52.2121415822858],[-6.842629451069565,52.21095428296859],[-6.844764223006064,52.211765352754774],[-6.844289271050884,52.21062986314666],[-6.848489128149967,52.20888855117885],[-6.8496015724530785,52.20681196812503],[-6.852239132562252,52.20679038760305],[-6.848770864496754,52.206568576543795],[-6.844787995387706,52.20949009099092],[-6.838065696263843,52.21060836191228],[-6.835568319554667,52.2124866151947],[-6.833484650761349,52.211823970504796],[-6.834171527227174,52.21256765026421],[-6.829757213315427,52.21427284412867],[-6.823506705367612,52.214839852391016],[-6.819220188718873,52.210292012545395],[-6.8153373362740695,52.213247124074535],[-6.8170879314614234,52.21503604667807],[-6.813276684900298,52.213935760714655],[-6.81222548468924,52.21465766418071],[-6.8126321343785605,52.21300987770327],[-6.818738822029301,52.210253683392494],[-6.822645113041373,52.20687931524211],[-6.829377033180033,52.198482436822026],[-6.830690065912653,52.19366749550177],[-6.828779780980871,52.190919109450334],[-6.830532743597902,52.189790228401705],[-6.831239727746834,52.1901335092458],[-6.83099783460879,52.19082627078208],[-6.832021514199475,52.191889523918185],[-6.8303722930409,52.191468890056164],[-6.830984075401622,52.19193623153385],[-6.832343013466377,52.191959126949016],[-6.831252095900548,52.19076058010314],[-6.832351063259752,52.19008887926939],[-6.832608627248948,52.19133741405994],[-6.835691395050105,52.19105090089743],[-6.836318962335026,52.1908064389433],[-6.836376804644132,52.19117296656129],[-6.837526445462738,52.19181266752167],[-6.83659760428129,52.19071976285397],[-6.835488910583265,52.19045017139182],[-6.832964322800484,52.19111202428206],[-6.8384192115976505,52.18926624188832],[-6.837615128801255,52.1884973822319],[-6.833742254351615,52.19067123901858],[-6.832630089906352,52.189781047271815],[-6.830015951480428,52.18953438823917],[-6.822677428632454,52.19304029337361],[-6.819685901945632,52.1917699995571],[-6.828147261825722,52.18715288072154],[-6.831654164884806,52.18334779876252],[-6.832067091911709,52.179522449752426],[-6.829496416648606,52.17838463390715],[-6.830182353595001,52.176054334174324],[-6.824373491199452,52.17537509412833],[-6.8313105659036175,52.17209734419266],[-6.832334827076297,52.17315602080518],[-6.83401365694227,52.17285812240123],[-6.832985652314759,52.17410550645229],[-6.834765467169363,52.17510017842892],[-6.843252899605011,52.17480537295861],[-6.847270784716456,52.172298117741384],[-6.847745890540718,52.170192390868884],[-6.85000602939163,52.17037099261978],[-6.8533551433246,52.167944285356576],[-6.881803970620838,52.16166175196813],[-6.882937921816771,52.16035703246558],[-6.881870000573569,52.15905928010297],[-6.883234757853584,52.157823067211865],[-6.889246925255816,52.15518586882857],[-6.888332699554531,52.154346810140055],[-6.889544427401969,52.15376259400184],[-6.8885692728188,52.152299115320396],[-6.889356970864599,52.151358682158325],[-6.894978849974764,52.148034655502364],[-6.89889468083011,52.1481246660299],[-6.903275361745209,52.14615867151014],[-6.90182559484866,52.143588878431906],[-6.905516043189023,52.14157035640859],[-6.905296622403723,52.139672261664],[-6.9085261535300155,52.137839271611725],[-6.910468147159716,52.135185585168166],[-6.9097172364793185,52.13436173595537],[-6.910740048269532,52.13443152328075],[-6.90784214158756,52.13339297941676],[-6.908210857014226,52.13091297143385],[-6.915259873701308,52.12880699472758],[-6.914430645131948,52.12856748789437],[-6.917577171645548,52.1259388611573],[-6.922103028422396,52.124880529651584],[-6.924336706310806,52.12578231584843],[-6.924780147622315,52.12354911579968],[-6.92815099394228,52.12411477799573],[-6.9298785076218214,52.12289759408714],[-6.93161813608106,52.12365467041509],[-6.929561038433115,52.12614464943333],[-6.9302464960418195,52.12766808001716],[-6.929551824338487,52.12802901945785],[-6.9306876923965435,52.128150979630455],[-6.930140142155545,52.12997227917613],[-6.934695443392954,52.13036311734936],[-6.933260694380159,52.130938811388646],[-6.932985450297523,52.13270680828286],[-6.926373262411225,52.139393202700134],[-6.914192216623662,52.14579953810957],[-6.9128413825879385,52.1504987663008],[-6.901149851886693,52.15540622112028],[-6.899370367229898,52.158137872576226],[-6.899959258664478,52.16022621388328],[-6.898973358966002,52.162990479905645],[-6.90041972066056,52.16985977692639],[-6.8976307743735115,52.173778949219525],[-6.901178698168046,52.1769004420061],[-6.90115784018633,52.17862070160175],[-6.903535154053141,52.18039016937664],[-6.903773211855116,52.1819007361898],[-6.907978315031825,52.184631566632504],[-6.9066133500335845,52.184725130750586],[-6.909550096895031,52.185950890336905],[-6.909066160396817,52.18701954391109],[-6.910929238539515,52.18779047402882],[-6.913014427421495,52.19121542698453],[-6.902485335097946,52.19588698207772],[-6.90314532269587,52.197575525653846],[-6.90464324342768,52.19780839686147],[-6.903332417253687,52.19881360539151],[-6.903664871097868,52.20061850233167],[-6.908011151770036,52.2019841362576],[-6.9129432845090575,52.20988328857322],[-6.919142684263448,52.211777973891245],[-6.921589578132602,52.21558939648993],[-6.920254142330822,52.21883867127074],[-6.925018407618913,52.21852804993431],[-6.9380652487382735,52.22034755880278],[-6.936745712371726,52.22141775912041],[-6.937976285902806,52.222185229557724],[-6.9348753663966365,52.222654296811804],[-6.936309791045056,52.22696139669093],[-6.9419532108574336,52.230832011553446],[-6.942471726321591,52.23352936899185],[-6.946597137532586,52.23670997240146],[-6.952745317198914,52.2403599800277],[-6.953272195323818,52.24000909400899],[-6.953951024234316,52.24002428041009],[-6.95196848611098,52.24118178897613],[-6.952453634298434,52.24225918232619],[-6.955733576136147,52.24290335106979],[-6.9657131916602575,52.240508459168254],[-6.9801615671529875,52.24593152163935],[-6.987689194329114,52.250032542185025],[-6.990911748849086,52.25389126412598],[-6.992139896410401,52.257473374080135],[-6.991050273745504,52.26019570445565],[-6.983916108794071,52.26559370507391],[-6.983617832905073,52.269279401090174],[-6.9850683403189375,52.27201720149874],[-6.9886731910676545,52.274680157759654],[-7.000172085916484,52.275699842640606],[-7.000823064319641,52.27833747301784],[-7.0182111888443135,52.296148595974536],[-7.006247471167811,52.30616653730869],[-7.006059145517709,52.30871066660957],[-7.0036600221409095,52.31274750620505],[-7.000412473753364,52.31513748298903],[-6.988529048669628,52.31899773542426],[-6.986516091248971,52.32136550089529],[-6.98612585848475,52.32370354741888],[-6.993576741668218,52.330624289280124],[-6.9934659067243325,52.33979688168738],[-6.99710331773668,52.348375659688486],[-6.993947058139665,52.355203069229546],[-6.9940812246129145,52.35888424643494],[-6.991588994560673,52.36428971951679],[-6.987601274970505,52.367829102833895],[-6.984472328292546,52.36836780357782],[-6.9703869997208265,52.36726055026765],[-6.965037904044499,52.368398880773356],[-6.964001951131469,52.37046009217419],[-6.965371128863629,52.374167572424334],[-6.965233626782632,52.37816084573724],[-6.962579111202698,52.38196338548076],[-6.953721981601775,52.39031498921954],[-6.9568728659146,52.39188741183908],[-6.955667139926775,52.3989154364628],[-6.94129749265979,52.402490705640346],[-6.940386731451915,52.408619237522636],[-6.94183366415832,52.412214381808276],[-6.956842724851551,52.41612832319049],[-6.9617039351468275,52.41946635014752],[-6.961393404840393,52.42164041938726],[-6.952585932191685,52.42566467222187],[-6.950161400037403,52.42566427586676],[-6.9455752855305946,52.425060109253415],[-6.94179073311549,52.42209878057088],[-6.933040470266491,52.42006524681616],[-6.925775206740237,52.42052017040883],[-6.9253968068274565,52.42478524007898],[-6.918361957092769,52.42620070522803],[-6.915034324004378,52.42969277828432],[-6.9163093889569405,52.431733865638236],[-6.921805330784682,52.43446269140726],[-6.927312154199313,52.44170075884038],[-6.923391402140204,52.451200355037635],[-6.925503833065127,52.45554695510397],[-6.915011076759492,52.460548733711214],[-6.914699729637342,52.46199907840801],[-6.917165083029981,52.463603843757014],[-6.909202820345846,52.46631863353039],[-6.903135725598025,52.46710193784324],[-6.893028202183905,52.465048306741075],[-6.88914949321293,52.467925999537364],[-6.88365620236731,52.46622616926408],[-6.883848399602282,52.46726049738156],[-6.882368307825752,52.46747025083247],[-6.8775433698164,52.47177912379111],[-6.870771688983054,52.47299018941459],[-6.865379358111027,52.476167082718824],[-6.853818135609686,52.49794730592828],[-6.846196600163422,52.504789086152385],[-6.839233690688295,52.50911749374845],[-6.83292419404902,52.51651125300273],[-6.832183354573317,52.51960017267805],[-6.834598014190594,52.52301058046324],[-6.836673943010414,52.53046296677533],[-6.830177131264488,52.53279174607685],[-6.81390808066316,52.54425012852407],[-6.806710842309284,52.547860172784176],[-6.805649975223264,52.54905903121053],[-6.806336505008686,52.56143531806452],[-6.801000530811813,52.56551747103036],[-6.790102750789777,52.56251515888776],[-6.781419290444926,52.5761244961671],[-6.778468489611883,52.57820494480323],[-6.778556965709602,52.581397646343255],[-6.780836864183559,52.584877463391884],[-6.7815268827656485,52.59710205871039],[-6.782517464829295,52.597458082453464],[-6.775672378638407,52.61613541002593],[-6.780327688798515,52.618146476854676],[-6.770875765309852,52.62577971149014],[-6.7607266284614225,52.629824481170324],[-6.751055265148785,52.63731258542925],[-6.737258760399595,52.64148728399301],[-6.731278531682576,52.641616947303824],[-6.729964956942579,52.64277814825822],[-6.718693868414363,52.63953690755595],[-6.709486261473864,52.64056338599847],[-6.705250855974689,52.639242160658384],[-6.702222503718893,52.63948131879771],[-6.691462261491352,52.63591378672542],[-6.684320063211609,52.63555478759393],[-6.676378298735911,52.637812942054914],[-6.672830902044109,52.64037440556474],[-6.673166556048598,52.64260372334961],[-6.669982231800109,52.643961563110366],[-6.669487681179059,52.645278471705524],[-6.667050656108358,52.644699905590365],[-6.666992067014757,52.64638359918243],[-6.664975841226279,52.64671541880062],[-6.663867035939077,52.648483226393196],[-6.664413273020016,52.652154695525724],[-6.663527122537283,52.6533433547882],[-6.65875501674278,52.65544149940133],[-6.650689947935611,52.65634786155014],[-6.6545544961982035,52.65877147184119],[-6.654708828921755,52.66038118994155],[-6.652679435437046,52.663840100556655],[-6.656875108588042,52.66709465960636],[-6.661425901559829,52.66730133826918],[-6.67058356617203,52.66378275494302],[-6.673872219485232,52.66468787449092],[-6.679730136221704,52.668477902846064],[-6.67503871873805,52.67788658633593],[-6.668796432978956,52.68283365822224],[-6.666249911035963,52.68370954132184],[-6.6639639231635455,52.68662784216338],[-6.653699321140708,52.685576578037754],[-6.646444422632579,52.68815537384067],[-6.644305859162151,52.690297057724436],[-6.644657060313519,52.69301008133248],[-6.640746782691853,52.69674019804614],[-6.637468047697088,52.69683330453905],[-6.633516197408509,52.69863568901022],[-6.633539093046324,52.70428336333783],[-6.617557154576671,52.70973485845071],[-6.615371746316494,52.71127517570609],[-6.616380482075424,52.7131779532329],[-6.614916830578178,52.713911068056355],[-6.610753081926129,52.713164441095515],[-6.606236078853067,52.710226112648165],[-6.602124064517064,52.70952333765075],[-6.598990330928105,52.71033527486536],[-6.597380625634886,52.70178907609519],[-6.587166634501019,52.700703725671154],[-6.574303047607522,52.704735086721215],[-6.574669247589714,52.701674543433846],[-6.570447833476107,52.700953634318815],[-6.57041494352577,52.69360911194245],[-6.56878558153065,52.69036723865107],[-6.570627175563277,52.687893614310546],[-6.570804724160446,52.68546072497532],[-6.565646608885008,52.681962285822266],[-6.5585974948515116,52.68507356550583],[-6.535807520406496,52.68307898226012],[-6.532910520349217,52.68604782305386],[-6.526441701721098,52.68435782172136],[-6.52002912784801,52.684793281221175],[-6.5056775670883225,52.68951310947819],[-6.503573003983726,52.6915548563557],[-6.503939874499496,52.69439504550024],[-6.497424080663081,52.69034253478156],[-6.488762378894967,52.69760544103248],[-6.4886453629087635,52.701607209339045],[-6.482705372181979,52.70189986544457],[-6.478549463035896,52.70461846547655],[-6.479350827182308,52.705526759045824],[-6.471730287774179,52.70997047616402],[-6.4713663002098905,52.71244374530686],[-6.473126467275036,52.71473560741841],[-6.466641096590299,52.716579000174754],[-6.4652923349495826,52.7180180923773],[-6.461024037256771,52.71864365155154],[-6.462343015319316,52.72067482718256],[-6.459674000923338,52.72146033237239],[-6.460313935414609,52.7222973162372],[-6.453195642060688,52.7239314271935],[-6.453353236272562,52.725759743621275],[-6.447641988936155,52.72639642979147],[-6.438526136223375,52.73275014857968],[-6.4393914609883325,52.73440872814204],[-6.438364375836495,52.73591082501264],[-6.4326988073018,52.73511024309961],[-6.43405885222228,52.739311538133286],[-6.4329260602105505,52.74148605141217],[-6.432365666986148,52.754687847309484],[-6.425751781807792,52.75343898687218],[-6.417009274927123,52.75542797854279],[-6.416176195994092,52.75819274050145],[-6.4175159107880075,52.76182646700786],[-6.415673130281142,52.76160841935728],[-6.416861697005443,52.763358782319266],[-6.41372199533811,52.767938226625795],[-6.416452215354736,52.771965249749876],[-6.415859139049334,52.77616172116121],[-6.413555062829906,52.77674709672073],[-6.4059492281637365,52.78353936427854],[-6.395733425621855,52.78860751787992],[-6.393119061133313,52.785802782907325],[-6.388035648232043,52.784753913282444],[-6.382837209945488,52.78791723902468],[-6.378022666652667,52.78912875873083],[-6.3739303951382364,52.793008684309235],[-6.368561905233371,52.795297198296915],[-6.357584154205874,52.79427406306417],[-6.352859081219675,52.796130615370714],[-6.3491552282822425,52.79216636322966],[-6.349070042374673,52.790758983744716],[-6.339630980039623,52.79020338200193],[-6.334312209785085,52.79619678486791],[-6.32411969331308,52.79547202561342],[-6.31756568043567,52.79747161629862],[-6.315345541034761,52.79413568449752],[-6.302964502128197,52.78410302510054],[-6.291867739184531,52.78190375039951],[-6.274395111202306,52.79155874048724],[-6.261957160424958,52.79483321624488],[-6.255776986864965,52.79443601393625],[-6.252955060921249,52.79362639213524],[-6.2543539773906405,52.79056831744217],[-6.252062797891327,52.78631226403995],[-6.242868042898044,52.778366552302806],[-6.234135410457929,52.77763790379243],[-6.229419575667737,52.77946941297461],[-6.2258513281498225,52.77809655712051],[-6.222615376056186,52.773949287106376],[-6.219736723911615,52.772267105797816],[-6.213872819110992,52.77729839624622],[-6.211824876442217,52.777268295788325],[-6.204343522399595,52.773703600028796],[-6.202925730209249,52.77112723470031],[-6.197774375740306,52.767996447826334],[-6.1922410680653375,52.76877140783291],[-6.1880222980041255,52.76799312455062],[-6.184020083146914,52.769261127442164],[-6.181628750995402,52.76861684126407],[-6.180465666960378,52.766998851120775],[-6.179730437454963,52.767741676168896],[-6.1679890322851705,52.76625063436648],[-6.170080982750997,52.7629144595556],[-6.1730248484561825,52.761990189482475],[-6.171002008106669,52.760670396005985],[-6.17381030953591,52.75824468088596],[-6.173365196202865,52.75643040841499],[-6.17590306959164,52.75549399015985],[-6.173702519896244,52.75247852755976],[-6.169838215095485,52.752438449207965],[-6.170277645252397,52.75040331291073],[-6.168319854524514,52.74914746632762],[-6.17035013612045,52.75035194432098],[-6.1769864627543,52.75066562795305],[-6.178837533941062,52.749476126838964],[-6.182781540388355,52.749666173144725],[-6.183757470877618,52.74925808258847],[-6.1835999267802295,52.74807793461158],[-6.174273872198372,52.74800872036893],[-6.170450165584428,52.74699217382584],[-6.163498500549666,52.74392637458699],[-6.164516681062324,52.7425216956457],[-6.162959079962889,52.74038557286873],[-6.15931468162063,52.73994903136139],[-6.155960209959389,52.73796619682044],[-6.144523818349146,52.737697673229725],[-6.140786958055399,52.735548546852876],[-6.141823412768041,52.73258755510226],[-6.147760538801583,52.7303554504007],[-6.157242333938741,52.72448904443331],[-6.158335427335868,52.71935523458631],[-6.157582528942928,52.71734367330258],[-6.159165080433003,52.7154912234518],[-6.16960335866111,52.710748428835295],[-6.187405154020456,52.69889504197279],[-6.188663798165394,52.69439749281452],[-6.197152791313431,52.688096941801504],[-6.197073807042842,52.686970313268525],[-6.2017180929552405,52.681015030335594],[-6.201285776627172,52.679418691259045],[-6.207099726176195,52.673349833123396],[-6.209494926286766,52.668811742119466],[-6.2093139881049835,52.66632663629711],[-6.217570501049196,52.65814223801894],[-6.226199623761799,52.64690446597807],[-6.226226050869723,52.64410869533844],[-6.223778991562686,52.64287054253107],[-6.22811720792337,52.63470855763102],[-6.229427329526144,52.62504157338838],[-6.226603932634414,52.62287383849764],[-6.2248348706304295,52.618303109115026],[-6.2215866328530955,52.61727152003186],[-6.220790493472634,52.61202136335055],[-6.218390542969414,52.61124874519523],[-6.21716200799919,52.60827391997125],[-6.21140134381089,52.60481854013713],[-6.209290739233806,52.601995053848256],[-6.21258988873923,52.59575657976599],[-6.212616668030467,52.58892140425333],[-6.210199976394667,52.58508533954565],[-6.2084868836555165,52.5850227810296],[-6.207556365689518,52.582822901909864],[-6.203318297237718,52.581908810633124],[-6.204178619606132,52.575738449135905],[-6.203442687214565,52.569918058196116],[-6.201455013655506,52.56908659088071],[-6.199922059154316,52.56974971043793],[-6.200659400688634,52.56892079276055],[-6.195614275881822,52.56668169234255],[-6.193379934189148,52.56335531670979],[-6.194999755079865,52.56239567498339],[-6.200634673306548,52.55341324421335],[-6.204622008447601,52.543910982636504],[-6.214543563746013,52.5313841314287],[-6.236169514704423,52.515851779455566],[-6.251649599764121,52.49786682502191],[-6.2705929571439745,52.48418385377246],[-6.293838339923861,52.4647944245352],[-6.298822758096619,52.45826274020084],[-6.306674041945098,52.451303512523864],[-6.3215918965852,52.4348529906481],[-6.33769777811138,52.423067063165426],[-6.350853139817466,52.41148232326435],[-6.355378128102177,52.404579558215566],[-6.360350681836367,52.393433807583705],[-6.3639701285801,52.37684982838196],[-6.363208997123815,52.36431576707168],[-6.357536149036021,52.34478797301528],[-6.3696555798053085,52.34353936970881],[-6.374113794656973,52.345704954104455],[-6.3739348246304655,52.34853948910608],[-6.3782630469197175,52.35287661252396],[-6.3853122860826055,52.35545944664675],[-6.435523307416578,52.35614963675562],[-6.4433999946521086,52.35355742073749],[-6.449345274116071,52.3467622832135],[-6.453530979564528,52.34402320918387],[-6.4553840106552025,52.34038612644459],[-6.454307746579276,52.33870574109801],[-6.446968466980192,52.33654243787341],[-6.453778594751436,52.338284805534286],[-6.45446353359514,52.3387131819606],[-6.4566144034529085,52.341509354619056],[-6.45662321839772,52.34338908320801],[-6.4554107102659515,52.34409041898297],[-6.456322288984323,52.34424404092624],[-6.45553224879043,52.344634241237245],[-6.456503651669862,52.348176080922585],[-6.466345590945962,52.34965118651528],[-6.468362625404023,52.34885974406811],[-6.467355543680701,52.3501585939784],[-6.470241408734652,52.35372530212708],[-6.467716916479454,52.357700579999126],[-6.471703862668323,52.36460892950037],[-6.471584925724831,52.3667201299888],[-6.467148319186629,52.36971628379386],[-6.466793883137478,52.371236708185606],[-6.463158072880125,52.37209605991938],[-6.4627934932930104,52.373147390532395],[-6.459576157907819,52.37304896960744],[-6.460663704667525,52.37352454988446],[-6.459699190725686,52.37487705039272],[-6.457909276420543,52.37489355542556],[-6.456029366025712,52.376513174939596],[-6.4583946686864575,52.37552926067067],[-6.458904243185569,52.376777310797486],[-6.461021475312262,52.377826123631316],[-6.458717261799519,52.379261247432474],[-6.460107488546125,52.38044571366768],[-6.461800290235414,52.3800028728693],[-6.460388590275174,52.3814087418146],[-6.462346755833301,52.382138532556255],[-6.459954401844175,52.3825619836806],[-6.4595791309591934,52.38295091945427],[-6.460147117262085,52.383211844456255],[-6.461193389733384,52.383229850201204],[-6.460052568006194,52.38368594432445],[-6.460228093072202,52.384900903619474],[-6.460721877236657,52.38514948748163],[-6.461365441434703,52.385077036890834],[-6.46157114841146,52.385281882261616],[-6.460165425253871,52.38376645703909],[-6.461317200312332,52.38320366759771],[-6.459772120577815,52.38295000094862],[-6.462537113286837,52.382137161801126],[-6.460780754442638,52.38136680065761],[-6.46202373471594,52.37999005888857],[-6.459523641736525,52.37950246117393],[-6.461632816956145,52.37764904035043],[-6.459367200335263,52.37628537104217],[-6.461377494211246,52.37397820153919],[-6.463832781404739,52.37764784133038],[-6.46694574909136,52.37870872235355],[-6.47442244099508,52.37640997078598],[-6.477993085810595,52.37302384203891],[-6.48518526006674,52.37346877788394],[-6.48571303953353,52.36854585152037],[-6.483287124592513,52.366618013933426],[-6.483855274652928,52.36540885738484],[-6.494647526642396,52.35993109242642],[-6.499724973786179,52.359886453100316],[-6.4997639303915085,52.357924108641555],[-6.50417946189582,52.35554506755121],[-6.504799346845431,52.353771773450966],[-6.511408652979941,52.350847063829846],[-6.505085382720499,52.350182304803454],[-6.493913481376924,52.3543840733925],[-6.476261904477471,52.352260043228725],[-6.478056584987084,52.34857427580644],[-6.477143673138483,52.34768599714736],[-6.463250963670003,52.343494550779326],[-6.459050931762007,52.338982435258366],[-6.4591417831100575,52.337546917172304],[-6.457463745492492,52.337818670326385],[-6.45811173148346,52.33914134520015],[-6.457121401998456,52.337849338649235],[-6.457630171383637,52.33745029605402],[-6.453585239358422,52.33368613939193],[-6.452162115032968,52.334439914567874],[-6.449588170947414,52.333287054641076],[-6.450899132759371,52.33184555131278],[-6.4492961048553585,52.33217657494612],[-6.4495221700939105,52.33102810269309],[-6.447402920954349,52.33024603660142],[-6.446313837700842,52.32602633712374],[-6.445496106524763,52.3259681863505],[-6.4485508910958425,52.31858448672334],[-6.447921427700043,52.31649476549162],[-6.448902867025675,52.31634723534781],[-6.447448149780142,52.31585200181971],[-6.448452326302798,52.31318995588172],[-6.447076210052162,52.31234499477097],[-6.448489541553744,52.3118121376506],[-6.446514762762374,52.31132285899357],[-6.446868828198549,52.30937179593653],[-6.4476401742517,52.3097007532698],[-6.447022727227051,52.30781238975488],[-6.4295830682664565,52.30673612262007],[-6.4128975080843045,52.29954534487164],[-6.410544869065781,52.296637212940475],[-6.407394565390064,52.29615219140856],[-6.410643970446205,52.29597132699894],[-6.41318994902446,52.29711430114928],[-6.415786751808485,52.292836274248536],[-6.412962089571761,52.297638313908934],[-6.414864807403551,52.29909804658477],[-6.413432588790919,52.29728498887965],[-6.416879515953465,52.292586057775104],[-6.414377734371506,52.292429613174924],[-6.408715423596031,52.28884019290369],[-6.409509143007258,52.288350105228496],[-6.399760782819236,52.288345823854286],[-6.398837400011149,52.295527066281785],[-6.399745534040898,52.29591990748065],[-6.398682906874569,52.296366892312726],[-6.3975672740525455,52.29999136190816],[-6.397698062647245,52.30282034843831],[-6.390063740035706,52.30612627771648],[-6.389979999634895,52.30888361489357],[-6.388953299125606,52.31008071919295],[-6.387793234300044,52.30981683472909],[-6.387972355913399,52.30785133795827],[-6.386356802900197,52.307614804920064],[-6.387873231804107,52.307241015650206],[-6.3895248739767,52.30322262446831],[-6.390178247886761,52.29962187152422],[-6.38894180503253,52.299242475001975],[-6.3901953098780595,52.29869260778182],[-6.390668646851304,52.29547033122312],[-6.3889371294887205,52.28053251752152],[-6.382140571979524,52.26747642148846],[-6.375181619387831,52.258702526421295],[-6.367456912716533,52.252634736913805],[-6.364071302028391,52.25145635213384],[-6.348461660745124,52.25224564453934],[-6.351191332975381,52.25292966821335],[-6.341211048960933,52.254183874711075],[-6.338849300964227,52.25271889723692],[-6.336934564065535,52.253601981345454],[-6.3386518306553405,52.2553472288938],[-6.336679560612349,52.253614128825745]]]}}]}