{"type":"FeatureCollection","features":[{"type":"Feature","properties":{"name":"County Carlow","source":"Tailte \u00c9ireann Counties National Statutory Boundaries 2019 (CC BY 4.0)","simplify_tolerance_m":75},"geometry":{"type":"Polygon","coordinates":[[[-6.958597618943796,52.53750901782128],[-6.952917617479416,52.540244359549746],[-6.9461074058389105,52.541066947541026],[-6.945434659903711,52.54633834510141],[-6.935210919804132,52.548918741777236],[-6.931115903755151,52.554161257616684],[-6.924595276283115,52.55768056019567],[-6.91910267127553,52.55837752370176],[-6.916634904555347,52.56114607106808],[-6.91494470414216,52.56150327552084],[-6.915319432648715,52.56374502591755],[-6.922370542602437,52.56963374570218],[-6.919282513983519,52.57456640958588],[-6.919046315270814,52.57668961504737],[-6.92717225873637,52.58814221082859],[-6.93294159175947,52.588689880133586],[-6.938950701178877,52.59071670882441],[-6.942844087349799,52.5953373111505],[-6.950580731785129,52.60029272013498],[-6.9624033659184805,52.601803440897925],[-6.969959394502558,52.603910461746864],[-6.973094636805232,52.611360311536814],[-6.979422913174658,52.61383501902008],[-6.984685202779509,52.617864738757476],[-6.985168761067957,52.620416186451905],[-6.980995160744277,52.62321531847738],[-6.980157428322521,52.62574850937503],[-6.988729988693664,52.629384229294054],[-6.991566901498266,52.63384072434075],[-6.989483113115688,52.63872517454658],[-6.985371805251628,52.64285617504352],[-6.9873443133493565,52.64786554501688],[-6.9878381862245424,52.66022237083728],[-6.986298049818791,52.66351171075989],[-6.979927669230093,52.668960814560975],[-6.987469219773448,52.67086940314525],[-6.987188397336392,52.6727054032949],[-6.993049641637156,52.673655695370556],[-6.991921627619936,52.67602580783266],[-6.9976982668066725,52.6791319188348],[-6.99570122812662,52.68108528698055],[-7.0056450122761165,52.68484329301899],[-6.99975906782519,52.68857547869095],[-7.006522080801578,52.691167433757656],[-7.003970543275312,52.693305259189295],[-7.011757551523459,52.69763496866536],[-7.015654045852462,52.70291838108481],[-7.02036503932322,52.70510680679129],[-7.025377377114118,52.70565091009339],[-7.028593927114568,52.70829651722715],[-7.036299438460539,52.709962099458004],[-7.038866080509364,52.71326111028283],[-7.042463219696654,52.715442919982415],[-7.049312623876209,52.71050626645464],[-7.050541889422887,52.70818336733173],[-7.050293243813002,52.70479061248629],[-7.052524935836764,52.70296244767593],[-7.056692110115495,52.71040412875691],[-7.065781213522082,52.70821415500593],[-7.06884789078834,52.71094807115375],[-7.070258529576075,52.71450383673096],[-7.080173905559899,52.726527951161806],[-7.1078355402650635,52.72525868318444],[-7.104825152586059,52.731427309025186],[-7.099949817521424,52.73242799177597],[-7.09452618906054,52.731531464491724],[-7.090040694901154,52.73397518589072],[-7.092003112208642,52.73774954055333],[-7.098842109129832,52.73925722506793],[-7.102339694781496,52.74643487273018],[-7.101688878461211,52.74863943472527],[-7.083308169684303,52.7570769361295],[-7.083798660324228,52.76173741020711],[-7.081510796086273,52.769882501306775],[-7.085886421065126,52.77521642005471],[-7.090682192681036,52.776163488844624],[-7.082448894085685,52.77905123545965],[-7.079853392003791,52.78184296200517],[-7.0754748345636,52.783847712775604],[-7.067631507643274,52.7851781464516],[-7.0659545603235525,52.78864504037625],[-7.0615069345914305,52.79302772024297],[-7.0501485515150835,52.79430953015478],[-7.041751798136691,52.797982571352556],[-7.043230155015267,52.801035477450014],[-7.039943209918983,52.80811566008884],[-7.021384653650323,52.81041792001243],[-7.0120471160583575,52.80826123316035],[-7.014084245524869,52.80690331775003],[-7.004530485352825,52.80921049255489],[-6.991123242175849,52.80798875528808],[-6.974474169741643,52.80974698167467],[-6.966285725246642,52.80932718467535],[-6.951910677747308,52.81481935062516],[-6.9497087507989175,52.81845408448594],[-6.94412825103951,52.82134261341005],[-6.939225114841738,52.825798229381824],[-6.937564348922859,52.82874041708388],[-6.940215384088266,52.83335662392425],[-6.946088056103602,52.83958997780259],[-6.9325699399841545,52.84398578665335],[-6.931962196837558,52.84673953709319],[-6.935157722590852,52.85295395011601],[-6.9337190250322305,52.85473150275947],[-6.936785239539879,52.86044762246786],[-6.9340962894284335,52.866355369068835],[-6.935809684216277,52.872205126871606],[-6.939975937086656,52.87760343362393],[-6.93941939460369,52.88004741271696],[-6.933782547177978,52.88005183940066],[-6.933174501561853,52.88290661161855],[-6.929478613409199,52.88511910151897],[-6.921784396901311,52.885887187114925],[-6.922810339955831,52.87982673319312],[-6.921100687840299,52.877037774691644],[-6.918300812615094,52.8771699920587],[-6.912696506003751,52.874752225380185],[-6.909302641313216,52.869460474564264],[-6.9035498946543346,52.866089612219035],[-6.89690279165374,52.86532006489676],[-6.887466439254926,52.86214763044274],[-6.879697680164348,52.85757980297643],[-6.8760050291926005,52.86042145742102],[-6.868537417904878,52.86171917417359],[-6.871829696898139,52.8675642921839],[-6.870220855674327,52.867829075147995],[-6.87068402995882,52.86900956810561],[-6.876513893865542,52.87328344932107],[-6.877028519199021,52.876217811623604],[-6.87110233485139,52.876155378375856],[-6.856328485797133,52.86129020189622],[-6.850452948927782,52.86185302627219],[-6.8482473962308905,52.86007189829985],[-6.845803530151455,52.860267056055335],[-6.845707899528833,52.86399583320405],[-6.842725754932986,52.86224961883481],[-6.841712276250997,52.86370196610509],[-6.840769858484503,52.863481574561945],[-6.839120607274629,52.86183794883889],[-6.833849893560505,52.86345970859039],[-6.825240022626282,52.869019074531806],[-6.828080265998504,52.87025940810252],[-6.826228428757554,52.87223584194221],[-6.818270716797033,52.87048120959929],[-6.816527267412538,52.87198487824537],[-6.8112428229629085,52.87290015705563],[-6.809580679066552,52.87166782031622],[-6.798377759063149,52.8693453938825],[-6.788455633680185,52.86592872975798],[-6.787294209905285,52.869269220069484],[-6.7879093858651665,52.87043725212138],[-6.78650887670798,52.87180281588264],[-6.781054422386773,52.871913116303766],[-6.780894758047625,52.87450754680941],[-6.777950644077567,52.87633040016023],[-6.772495804912028,52.87906316960216],[-6.76778944164116,52.87945442025982],[-6.76519414713079,52.88613045556422],[-6.76547880905911,52.88940773108112],[-6.757980703491166,52.88995647398288],[-6.750710552246857,52.88883673926268],[-6.749752844258059,52.889648120139526],[-6.745262829321152,52.89858189435324],[-6.746255370545919,52.904513064177046],[-6.748839929036246,52.90714020846838],[-6.745839192138708,52.91256684082894],[-6.744434007036307,52.911532244405414],[-6.739450592689211,52.91213482394745],[-6.737241694325822,52.91577658121033],[-6.732205821253781,52.91559618607264],[-6.727182875599553,52.91393517286235],[-6.72110165873654,52.9142244726175],[-6.712151788796513,52.91796380513845],[-6.701030217023676,52.911552152471806],[-6.692748158412819,52.90921691489339],[-6.693790360000272,52.90645857634469],[-6.693068281583035,52.90540547353412],[-6.685267586992624,52.903932046634075],[-6.681003239165658,52.90605428133505],[-6.677149538613744,52.90519817977493],[-6.672443639143261,52.91020233283332],[-6.667424775075839,52.90839592767198],[-6.656757722579612,52.907427508302426],[-6.646006562070372,52.89621484037981],[-6.64453623703806,52.89685058388058],[-6.645532960299641,52.899076255457565],[-6.6428913029143555,52.90192389118127],[-6.635088631303289,52.903651262635506],[-6.610311322037866,52.89741424176164],[-6.608898074636682,52.90046901759944],[-6.60766635615492,52.90059635829523],[-6.599393933567558,52.89783135189307],[-6.5909849081123575,52.897357779781345],[-6.5879171105982595,52.894952664246084],[-6.589369850429034,52.890232165606],[-6.586778384620355,52.88552954683002],[-6.588101489069872,52.8830979675127],[-6.586828962302733,52.87960199397581],[-6.582290805781732,52.880556613994],[-6.579433230590061,52.879649809676714],[-6.572453407693801,52.88107197791174],[-6.564471497114915,52.88095571342177],[-6.549162810322723,52.874746034387016],[-6.547154941676498,52.87636993492767],[-6.543136369207283,52.87728858290508],[-6.5420367616763375,52.879308655500914],[-6.543108880814909,52.88241812693072],[-6.540188972565306,52.883343931099525],[-6.5408466093861835,52.88601847247065],[-6.537480661902565,52.88712319013588],[-6.537713758334578,52.889678366116144],[-6.529848720267048,52.88947525555358],[-6.530053503885009,52.88834248061893],[-6.528830897668451,52.88795531958234],[-6.527837167651261,52.888654340371495],[-6.528842191684675,52.889662972592006],[-6.527104439616971,52.89009542081892],[-6.524499273046998,52.88651999622289],[-6.5220156271508145,52.885034144955064],[-6.508576901547969,52.88038492736161],[-6.504916585331967,52.87755468648026],[-6.509178949239736,52.87202353468844],[-6.507934451728145,52.8702633213203],[-6.508713917028346,52.8673208218447],[-6.510997076329482,52.867663155868556],[-6.516501304893113,52.86609541599162],[-6.523018002251626,52.86646588112411],[-6.529046291998935,52.864925697559585],[-6.523815271606079,52.859997484452904],[-6.5254387216796745,52.84974310142357],[-6.522875510323078,52.84408088093556],[-6.522643487759585,52.83749592174825],[-6.52864609582957,52.83159395240612],[-6.5275397029718345,52.82883407154461],[-6.528594304122774,52.8265519516283],[-6.524452552958239,52.82186622148626],[-6.520288815042431,52.821365449080666],[-6.518575283467823,52.81950355328195],[-6.527584219930905,52.81880666376278],[-6.534462106617034,52.82155842935284],[-6.541869270562943,52.82034818369325],[-6.548388570555279,52.8205996656952],[-6.550092775343856,52.81885793398571],[-6.564972811141158,52.81496892066885],[-6.56048099434045,52.8113500229773],[-6.567206349365201,52.80778566148454],[-6.572307778445536,52.80193925014198],[-6.573779968828983,52.803483686767606],[-6.584111621112301,52.80669033100309],[-6.587387618788565,52.803482401922246],[-6.597735701395579,52.80549135229922],[-6.5996287332755434,52.807058339438605],[-6.603258201686921,52.80710800006993],[-6.60661926116281,52.810011037821404],[-6.609429683584677,52.808228470685876],[-6.615094029561791,52.8076023667351],[-6.627437826960909,52.818130393697956],[-6.624350811365859,52.82003536916945],[-6.62501554133739,52.82276846000839],[-6.629518793960805,52.824081493541144],[-6.637685818438567,52.82941439651199],[-6.646271308974681,52.828221839698216],[-6.649137818042102,52.831373566502045],[-6.653789641170159,52.83264834151008],[-6.654116350127021,52.83444701558113],[-6.664680264327899,52.83625276521931],[-6.663875838243687,52.83177146338405],[-6.670619089945283,52.83252338067738],[-6.673085809386907,52.83140294348739],[-6.673898963554769,52.82845418666388],[-6.668612615107498,52.82496441672469],[-6.668181337679964,52.823568142071025],[-6.669437094892271,52.822581254269316],[-6.667917174849577,52.821528573448596],[-6.672409136411142,52.81636045990708],[-6.6791347933891645,52.81473630635906],[-6.68562627107765,52.81513501503691],[-6.686374602526455,52.81386584649499],[-6.695610641907827,52.81147566903388],[-6.698745937887339,52.809096874789915],[-6.698622606758946,52.80817430476458],[-6.700421259183079,52.80771083706706],[-6.702512841378364,52.805257303392985],[-6.70246048271289,52.80366969067382],[-6.697247605068675,52.802704642691516],[-6.69851144294453,52.80132755082984],[-6.697041091513578,52.799776226801995],[-6.69636844659423,52.79621219850782],[-6.699765560094334,52.79479313856204],[-6.704836281345897,52.794594988362164],[-6.702914624107547,52.792798665678184],[-6.704427413412418,52.78998537112715],[-6.7022225667431705,52.78717887375197],[-6.707663800715807,52.78311039240451],[-6.70828857483129,52.78152056073687],[-6.711408531683564,52.78166913562057],[-6.710912033272142,52.77990909050028],[-6.712277881223282,52.77839611199973],[-6.710224811652187,52.7773827755653],[-6.710951796453799,52.77637534726591],[-6.705798243985963,52.777859796759266],[-6.700824483865005,52.77704024129233],[-6.699674785806316,52.776069166069185],[-6.700372472641179,52.774673971778675],[-6.697355230126654,52.772750138506034],[-6.6926739728067215,52.775976476763034],[-6.684897203591865,52.77901415269057],[-6.678906445647128,52.77983646746816],[-6.673179498218111,52.777243390792634],[-6.668427948033976,52.77321681217686],[-6.667706242152688,52.77050036359663],[-6.656483498032648,52.768786570551555],[-6.6544529979182085,52.766335114592714],[-6.653676636136234,52.76051020510266],[-6.65127169003542,52.75771258793033],[-6.646299275252692,52.7549501811151],[-6.645769536570307,52.751759590242244],[-6.647316685068521,52.74981642256535],[-6.652738370873424,52.747863425933026],[-6.654307692506523,52.746149302998326],[-6.634312110236878,52.73256321176596],[-6.631291302203529,52.729415506329524],[-6.625608467410291,52.72298589455272],[-6.624035424405323,52.71823357039954],[-6.618699833878344,52.71329298757131],[-6.620084588904819,52.70859754916902],[-6.625248811432054,52.70775490411631],[-6.633108493408903,52.7046299695197],[-6.6340961005463255,52.70347288233777],[-6.633516197408509,52.69863568901022],[-6.637468047697088,52.69683330453905],[-6.640746782691853,52.69674019804614],[-6.644657060313519,52.69301008133248],[-6.644305859162151,52.690297057724436],[-6.646444422632579,52.68815537384067],[-6.653699321140708,52.685576578037754],[-6.6639639231635455,52.68662784216338],[-6.666249911035963,52.68370954132184],[-6.668796432978956,52.68283365822224],[-6.67503871873805,52.67788658633593],[-6.679730136221704,52.668477902846064],[-6.673872219485232,52.66468787449092],[-6.67058356617203,52.66378275494302],[-6.661425901559829,52.66730133826918],[-6.656875108588042,52.66709465960636],[-6.652679435437046,52.663840100556655],[-6.654708828921755,52.66038118994155],[-6.6545544961982035,52.65877147184119],[-6.650689947935611,52.65634786155014],[-6.65875501674278,52.65544149940133],[-6.663527122537283,52.6533433547882],[-6.664413273020016,52.652154695525724],[-6.663867035939077,52.648483226393196],[-6.664975841226279,52.64671541880062],[-6.666992067014757,52.64638359918243],[-6.667050656108358,52.644699905590365],[-6.669487681179059,52.645278471705524],[-6.669982231800109,52.643961563110366],[-6.673166556048598,52.64260372334961],[-6.672830902044109,52.64037440556474],[-6.676378298735911,52.637812942054914],[-6.684320063211609,52.63555478759393],[-6.691462261491352,52.63591378672542],[-6.695364250688396,52.63770916953061],[-6.709351988372052,52.64056045821194],[-6.718511698300905,52.639515665730634],[-6.7298833901057185,52.64277657277708],[-6.731278531682576,52.641616947303824],[-6.737258760399595,52.64148728399301],[-6.751354030571341,52.63717246584774],[-6.7607266284614225,52.629824481170324],[-6.770875765309852,52.62577971149014],[-6.780327688798515,52.618146476854676],[-6.775672378638407,52.61613541002593],[-6.782517464829295,52.597458082453464],[-6.7815268827656485,52.59710205871039],[-6.780836864183559,52.584877463391884],[-6.778556965709602,52.581397646343255],[-6.778468489611883,52.57820494480323],[-6.781419290444926,52.5761244961671],[-6.790102750789777,52.56251515888776],[-6.801000530811813,52.56551747103036],[-6.806336505008686,52.56143531806452],[-6.805649975223264,52.54905903121053],[-6.806710842309284,52.547860172784176],[-6.81390808066316,52.54425012852407],[-6.830177131264488,52.53279174607685],[-6.836673943010414,52.53046296677533],[-6.834598014190594,52.52301058046324],[-6.832183354573317,52.51960017267805],[-6.83292419404902,52.51651125300273],[-6.839233690688295,52.50911749374845],[-6.846196600163422,52.504789086152385],[-6.853818135609686,52.49794730592828],[-6.86315833105154,52.47892971360327],[-6.865454308713023,52.47608725379529],[-6.870771688983054,52.47299018941459],[-6.8775433698164,52.47177912379111],[-6.882368307825752,52.46747025083247],[-6.883848399602282,52.46726049738156],[-6.88365620236731,52.46622616926408],[-6.88914949321293,52.467925999537364],[-6.893028202183905,52.465048306741075],[-6.903135725598025,52.46710193784324],[-6.909202820345846,52.46631863353039],[-6.917165083029981,52.463603843757014],[-6.928559622271542,52.46695906081307],[-6.933843882488531,52.46638676008275],[-6.934579975417802,52.467722698954844],[-6.9338921614704025,52.46896300462566],[-6.923843883542018,52.46974908529313],[-6.920299901620849,52.47202749875907],[-6.918599378914075,52.475242285227],[-6.9198726204687455,52.477328680457674],[-6.927579701119052,52.4802154467421],[-6.927993389398213,52.48134257047654],[-6.924844465817378,52.485343928790435],[-6.933723608270606,52.48922197620743],[-6.9405344936648135,52.499857049936125],[-6.940315589310868,52.50176231988543],[-6.937067003068252,52.5054095320534],[-6.936736971018591,52.510607515869616],[-6.933009920809767,52.51695794001593],[-6.935108248163873,52.52386986207447],[-6.934692869334955,52.52727817891967],[-6.936380072304728,52.52823000752689],[-6.947604364559394,52.52858682286278],[-6.952955401197207,52.530007571581166],[-6.9557264955773785,52.5313386833981],[-6.959376203495216,52.53553267812453],[-6.958597618943796,52.53750901782128]]]}}]}