{"type":"FeatureCollection","features":[{"type":"Feature","properties":{"name":"County Clare","source":"Tailte \u00c9ireann Counties National Statutory Boundaries 2019 (CC BY 4.0)","simplify_tolerance_m":75},"geometry":{"type":"Polygon","coordinates":[[[-8.740033149250444,52.675531607303355],[-8.760813925957109,52.6753958636805],[-8.774625669098782,52.66974058111101],[-8.788188573885222,52.66872098515624],[-8.800925633056696,52.67112143329191],[-8.810275429585783,52.67737874419562],[-8.822260219443013,52.67987733933404],[-8.832800933483073,52.680455358601805],[-8.846703564745084,52.678645719706196],[-8.864073294657501,52.67837401589537],[-8.910599713231692,52.67249944366107],[-8.960889015405161,52.668623743165696],[-8.973326985561807,52.665827934286284],[-9.01864391171886,52.649550355616945],[-9.050841956981218,52.65211416504626],[-9.064590029181256,52.65140290662548],[-9.075294407019562,52.648908623847475],[-9.103442412714365,52.63810641082407],[-9.12358770435458,52.63343375935935],[-9.149111046769308,52.614898729959606],[-9.164798854621655,52.611432007490855],[-9.193176571117775,52.61079314823629],[-9.228827308567919,52.60797330094746],[-9.269647119621062,52.58880182193288],[-9.294677669312644,52.5797227766357],[-9.32841511506896,52.580399476451404],[-9.338187313284191,52.58315331970756],[-9.356686824605536,52.60088234680588],[-9.36494026543367,52.602451962346734],[-9.37257506553148,52.601532221196166],[-9.396209613371456,52.5937190004713],[-9.407951643498372,52.59175439075888],[-9.437241670598738,52.596345742321645],[-9.535596619637857,52.598737079807506],[-9.635335929630727,52.59925978951967],[-9.657195216479689,52.592701935765604],[-9.679543099270447,52.572750727602994],[-9.696307327961607,52.58339779414404],[-9.7015858933462,52.58138559446499],[-9.70065342497282,52.58137968367359],[-9.711497480609859,52.57956926619153],[-9.718272362441853,52.58194451514784],[-9.718381564211864,52.584125053574],[-9.721056905830427,52.58564984680802],[-9.726057061461567,52.58573489906131],[-9.72700223256159,52.58475171736927],[-9.725838177048793,52.584669217122794],[-9.727426311338332,52.58425120838125],[-9.726529387250597,52.58350113020298],[-9.727749168086339,52.58319153942028],[-9.73103560641329,52.586182516812904],[-9.737013644908984,52.58732200336121],[-9.741182517896009,52.58696648245288],[-9.745018353698887,52.5852249635192],[-9.745492309734782,52.58190969990643],[-9.742321508391754,52.58029231980079],[-9.75612463788292,52.57746374216155],[-9.771331922895515,52.57221550212289],[-9.782486687146266,52.570534982169846],[-9.785626833946962,52.571258458710446],[-9.80638479044534,52.56544675730741],[-9.812225262309775,52.56476546124735],[-9.81730361195491,52.56552401329028],[-9.817787294876236,52.56683310426594],[-9.819229815650704,52.56608422222789],[-9.818842626857249,52.56717813719502],[-9.820193335406564,52.568479619547105],[-9.825271607105131,52.56878766795476],[-9.826523445160602,52.57018464973835],[-9.83231356415023,52.56975050028767],[-9.836737770482932,52.57208740388895],[-9.846495829378448,52.5717831657127],[-9.861757859913439,52.57041932781777],[-9.862763025138415,52.56889242376056],[-9.860620366721735,52.56804884262429],[-9.861138552175166,52.56609041272238],[-9.867962699627391,52.561413924807006],[-9.873120045707168,52.56058511816158],[-9.876408645567995,52.55823383494816],[-9.877736894622467,52.5591261005415],[-9.879057790737413,52.55753735372044],[-9.884895234323478,52.55788401840164],[-9.885543495647308,52.55677921647502],[-9.888605746019696,52.55657266515309],[-9.888348604905712,52.55566793978891],[-9.891553540249092,52.55453555346758],[-9.893116831835997,52.55513535859971],[-9.889384204182283,52.555911413154355],[-9.890412706841715,52.55762138676799],[-9.898454140617407,52.55780471829183],[-9.902629497635326,52.556376271049096],[-9.907518753441328,52.556925062978905],[-9.908953572734001,52.55811145714152],[-9.923131199194241,52.55678022546451],[-9.924027785770251,52.55703539121179],[-9.923591408165784,52.557956566837525],[-9.92904064307201,52.55620990960804],[-9.93869031164617,52.55951980060888],[-9.920692869750761,52.56486624558684],[-9.921505805346117,52.5652453234217],[-9.920380077369385,52.56595696511985],[-9.922080609921121,52.56666167876492],[-9.915349483240277,52.56950357091668],[-9.91614889426706,52.569832428815275],[-9.914457797346437,52.571625851487866],[-9.915370301457006,52.572425540028625],[-9.912199698211206,52.5739439964306],[-9.912878696633744,52.576062463816676],[-9.902712098021992,52.57843244684366],[-9.902141955311492,52.57777463251991],[-9.89679000535971,52.58119680514765],[-9.894268487069905,52.581395265173676],[-9.888961701931562,52.57954607704599],[-9.882176358168696,52.57945499974968],[-9.87849627723409,52.58214009474597],[-9.878809321104608,52.58315983212067],[-9.881056523085983,52.58348828894077],[-9.871574396667985,52.58432048942447],[-9.869820720242032,52.58600687517322],[-9.870342212494474,52.58793740315626],[-9.879540054089635,52.58856032304496],[-9.876689794384836,52.58994233220734],[-9.879480842233933,52.59013618661009],[-9.874549934614429,52.591174275652165],[-9.877173139583785,52.591191828519804],[-9.874443232375716,52.59222624246907],[-9.869947018761872,52.59242338688468],[-9.868665977771506,52.59182831977751],[-9.869749600448026,52.59067468292885],[-9.867433160676168,52.59040079520639],[-9.8657520046677,52.59127312241448],[-9.867031410682971,52.59161755234117],[-9.866149979452654,52.59171110261885],[-9.866323976516457,52.592956113547594],[-9.862264755572445,52.59249343424842],[-9.862840150524237,52.593206988778746],[-9.860504928539333,52.59369208411391],[-9.86210484907473,52.5922347916815],[-9.859727481359846,52.59252012717086],[-9.86064653652021,52.591659452102114],[-9.859719472708555,52.59102610355473],[-9.859244079755971,52.59272108802403],[-9.857915705201057,52.59317714823981],[-9.858403536266506,52.59446592122423],[-9.857032633003188,52.595304908629586],[-9.853694234061246,52.59441776673073],[-9.853417988541768,52.59589816100471],[-9.850207958433455,52.595476588573476],[-9.838026626727226,52.59736471527065],[-9.837450381847574,52.596978418433814],[-9.8384129610004,52.59643073665476],[-9.836705586062475,52.59614666309471],[-9.834156713928447,52.59679849569667],[-9.833438437032097,52.59848370929232],[-9.835279182875388,52.59794755986688],[-9.8357694008376,52.59909510889758],[-9.829823359214158,52.60009813398533],[-9.828177129906228,52.59773427062434],[-9.82667782729775,52.599786402190645],[-9.819085334274009,52.600236696249674],[-9.81471946270684,52.601387590487306],[-9.813448909876536,52.60318053270721],[-9.81433331426916,52.60331725839644],[-9.810408836138297,52.60314672257672],[-9.811259105458884,52.60377570401064],[-9.807105600075278,52.60436329679803],[-9.806190451097562,52.60532113635909],[-9.807125548520483,52.605468595043526],[-9.805291568539007,52.60602098155075],[-9.80925975266272,52.606568019814574],[-9.806848782988187,52.60740239972647],[-9.807532114168431,52.60840507467864],[-9.803729244011263,52.60881275735206],[-9.802875220531842,52.609896584197166],[-9.807095976352999,52.61027156417012],[-9.803582305796082,52.61119928511203],[-9.80670790920054,52.61194707919342],[-9.804610674057974,52.61308442345927],[-9.806335802460016,52.614195366136286],[-9.806097127654946,52.615579020718485],[-9.802887176248865,52.61813258263384],[-9.800488297770249,52.61804941198748],[-9.799755816127796,52.61701889516081],[-9.799814582641512,52.6185352886744],[-9.799062286803968,52.6181894162912],[-9.79766679178821,52.6183855541081],[-9.799719878542763,52.61887368784353],[-9.795536684964443,52.61850224882025],[-9.792765120430268,52.61959909833411],[-9.793741388104964,52.61979023168908],[-9.792891718718913,52.619845328393794],[-9.793585943757948,52.621773038125966],[-9.797111104254665,52.62136447450481],[-9.795275308020974,52.62266396205454],[-9.798147869479493,52.622379609726394],[-9.79316890848521,52.62515938369629],[-9.787305800418663,52.62592639917332],[-9.787704554221943,52.62672578390109],[-9.786215533438478,52.62777230370222],[-9.784180754457386,52.627895029979776],[-9.785579627747254,52.6264181904388],[-9.784767515533327,52.626486253333354],[-9.78191473659291,52.630760475378864],[-9.779386253582999,52.63128058376154],[-9.780071725102891,52.62985045643324],[-9.780051172634495,52.62840911142801],[-9.779012789267576,52.631016680760965],[-9.773450583695999,52.63397613084996],[-9.7679819907074,52.63371214862035],[-9.764063129885189,52.6356596588305],[-9.75856185068535,52.636421116260486],[-9.759164668125324,52.63785551221226],[-9.752888071779209,52.639581419874006],[-9.745503408526355,52.63951302745664],[-9.744356957413249,52.640110295868546],[-9.74614800516717,52.64086034196041],[-9.741928697652806,52.641664563901536],[-9.742692567515988,52.64348182686782],[-9.739393398686609,52.64412833083068],[-9.735180558691036,52.64271102188068],[-9.738691439779933,52.64428858233207],[-9.737787162265843,52.64510262508153],[-9.738519960501495,52.6458647545212],[-9.72407303499615,52.65177666311951],[-9.721585385220374,52.655411441665365],[-9.723359614510912,52.65788649005568],[-9.720950769165484,52.658331340518906],[-9.720119163718115,52.65672420271115],[-9.719645062111868,52.658554439782094],[-9.717533587654264,52.656905644859066],[-9.717633908913541,52.65795252811094],[-9.711429749264171,52.65840272257528],[-9.708763864261726,52.65978572453334],[-9.707364649267209,52.658923551063225],[-9.703835240857375,52.66126948767841],[-9.705504496288762,52.66193731167226],[-9.697892015742765,52.663817160895945],[-9.696640613656909,52.66550502711396],[-9.699051786725684,52.66669243381064],[-9.696897846454359,52.66621174433309],[-9.692797118396022,52.667993544112214],[-9.696793251485305,52.67105370011298],[-9.694524060750123,52.67110714271298],[-9.6892745946912,52.67408113055892],[-9.68527770152352,52.67248014023755],[-9.683584380091492,52.67489205012493],[-9.679992745467253,52.67556250620907],[-9.681262588981948,52.67611523370116],[-9.6741703682828,52.6778041609278],[-9.677422084280824,52.679154100910445],[-9.67636339248906,52.68087143693025],[-9.673160724778167,52.68020439402638],[-9.665995521450542,52.68241865669807],[-9.65553349808121,52.68143929453593],[-9.655715046415814,52.679141830316944],[-9.652847666653896,52.6783013009908],[-9.64885493303312,52.67977732385436],[-9.646927076644257,52.68283818765779],[-9.651791686787567,52.6844543360449],[-9.65256120654478,52.691770887373714],[-9.654559283256456,52.69221474963478],[-9.657675865973346,52.69106603255967],[-9.660102057489931,52.692311233792815],[-9.654654842236075,52.69358174373462],[-9.655793270831419,52.694290360671964],[-9.649433267831446,52.69677486830309],[-9.650853730100158,52.69794756046593],[-9.656430329036665,52.6970337647373],[-9.652599171169802,52.698716031836376],[-9.650909772151117,52.70192806149864],[-9.646115047580231,52.70473263263359],[-9.65072741436485,52.705222576186934],[-9.646306070955967,52.70604584458783],[-9.632910926006783,52.71274254579446],[-9.626637868240824,52.71219161155434],[-9.61625088466619,52.71567682583616],[-9.618570822366523,52.71765735269472],[-9.622080057932795,52.71848696195415],[-9.619442693621108,52.720257574256486],[-9.61960658392804,52.72118407948722],[-9.628721160726341,52.722968140284785],[-9.62900700533292,52.724625260517115],[-9.634026290579772,52.72707774046286],[-9.63479707818785,52.728835120935244],[-9.631470388303574,52.7287138491557],[-9.63097320504016,52.727444499571696],[-9.628646372260796,52.727395288291895],[-9.627025520082533,52.72565375310838],[-9.623689021651616,52.7255820712612],[-9.621834445517468,52.726537096974894],[-9.622638074736692,52.729040913991064],[-9.628746578731732,52.73230479680248],[-9.621520767864645,52.73340923265867],[-9.621101876296269,52.73213608559503],[-9.620362051807554,52.73310582609823],[-9.614227978183568,52.733798314025925],[-9.6080625778355,52.73319581997546],[-9.607913812793367,52.73420767506109],[-9.609237677241174,52.73447783350894],[-9.60796744415663,52.734834824321226],[-9.609202152346908,52.735421842890524],[-9.606940448045565,52.73644419499524],[-9.608217993112333,52.7369460947174],[-9.606196128221313,52.73927290389805],[-9.606932357944052,52.73942206673128],[-9.606509696034681,52.74150364638974],[-9.608762684079439,52.74204202979132],[-9.606477942641643,52.7428635404997],[-9.608282050054026,52.74290715832065],[-9.607043472866083,52.744242002299366],[-9.591852888598773,52.744935723594786],[-9.593651049409296,52.74596040854375],[-9.591902894832403,52.746887061159306],[-9.592388678541646,52.7475948221558],[-9.581142137475874,52.74888913932822],[-9.580301797637533,52.75012531742644],[-9.56931580304828,52.752081440830004],[-9.562913654863737,52.75131802378158],[-9.556521419646055,52.75248060240224],[-9.55639027286871,52.75161548794846],[-9.553222397394803,52.751893080553465],[-9.553260133341439,52.75077715018032],[-9.54794440907374,52.75204162819721],[-9.549134607163307,52.75151525044263],[-9.547666032785859,52.751618216924534],[-9.548886537127801,52.75107694729856],[-9.548812139569288,52.74971497916851],[-9.550924607992524,52.74816031568717],[-9.548961193962658,52.7463845756707],[-9.54162370204112,52.74613935298258],[-9.54194446416959,52.74542876034697],[-9.540171702551868,52.744744952354424],[-9.540626972370207,52.74197700635348],[-9.536441918634102,52.74028477067502],[-9.53749053518046,52.73984565403303],[-9.537500867597178,52.73840898925276],[-9.539422578234825,52.73827406233004],[-9.53999333498285,52.73710773628884],[-9.533779022639333,52.73565345605054],[-9.527217725077348,52.736900508064274],[-9.525098724594784,52.73873144344661],[-9.525233099647846,52.74115567430656],[-9.529352758586727,52.743489924083214],[-9.528869741594859,52.74492924670813],[-9.529794666565454,52.74547264933242],[-9.528777416641432,52.74575386406581],[-9.530386601338376,52.74552133513683],[-9.527087932752204,52.74637524904774],[-9.522051426497335,52.74541562824966],[-9.51556833999901,52.746326659285316],[-9.510504340263314,52.745339575132014],[-9.505697209725755,52.746635425769725],[-9.505269436023294,52.74815303699225],[-9.498434635438091,52.75007756429111],[-9.493470028023165,52.7572918284829],[-9.49359691826632,52.764946908301546],[-9.496384320887552,52.76685207940289],[-9.498095123917164,52.766592214125616],[-9.497595535124402,52.76750705724297],[-9.500771218388289,52.767303623719464],[-9.499013574349885,52.76801822493022],[-9.499340030146966,52.768785386045906],[-9.505920788231263,52.76947921551035],[-9.492980922416514,52.77283968693198],[-9.487862782558762,52.77301003148155],[-9.482800953322243,52.774603263446366],[-9.481874533880665,52.776707034870604],[-9.482556315839515,52.781461095516704],[-9.484577783751936,52.78421021645247],[-9.488287598620058,52.785321951123244],[-9.487229846264928,52.786970428680526],[-9.488900734773042,52.789826637052165],[-9.492585934723019,52.789250805945464],[-9.486109816369455,52.79068266354986],[-9.485349243904537,52.79340272052688],[-9.488123486805481,52.797789069321404],[-9.488506171392995,52.8038407129977],[-9.492959057946752,52.808859481578246],[-9.488550913223797,52.81025091870907],[-9.48865107804163,52.80937189372227],[-9.490081315135964,52.80923891636715],[-9.489180485247099,52.80837650978077],[-9.484212461153323,52.80769732187976],[-9.473842849283063,52.80985106631766],[-9.46157045934697,52.815835551292956],[-9.456578905648888,52.81703424656017],[-9.455110699829971,52.821162396129935],[-9.457744423941314,52.8235062948178],[-9.453010871539126,52.824635104415385],[-9.452080431990936,52.82612625860345],[-9.452611673613864,52.82751803487707],[-9.457402432652694,52.82809551059399],[-9.45640376555195,52.83153361640258],[-9.454357726154138,52.83233212772506],[-9.45464997070952,52.833721168661576],[-9.451931042871115,52.83262600855092],[-9.448788136889153,52.8334320466555],[-9.442496807299188,52.83201546094298],[-9.435236025031386,52.832703351625455],[-9.432725309644338,52.83600560075607],[-9.432150224313988,52.83941596562091],[-9.434192201220926,52.84418528466722],[-9.440323174745389,52.84471342462871],[-9.439523100254418,52.845637461792556],[-9.44104765407531,52.84651915833459],[-9.446105938786838,52.84708816988886],[-9.452374600761013,52.84935105080671],[-9.442545091368023,52.85168033232478],[-9.440709171226812,52.85633352558401],[-9.437942836038241,52.856466241345586],[-9.437988089357976,52.85524462318691],[-9.43734638826627,52.85657774767328],[-9.430530225402533,52.85912175102588],[-9.43404561842811,52.861372262600895],[-9.431139200746955,52.8627210161161],[-9.431698951068384,52.86381463898668],[-9.430715156213157,52.86458686383217],[-9.43182860551005,52.8644311281053],[-9.427024118456437,52.866314398728576],[-9.428568982551328,52.86845301300978],[-9.429891662867991,52.8688031540291],[-9.435036594106801,52.86652855956542],[-9.44266204502561,52.86632029235596],[-9.439861240788098,52.86826947989688],[-9.440718063018899,52.868858632226896],[-9.439080689942314,52.86897835850212],[-9.436436719164016,52.87154755100796],[-9.437515492236415,52.87333300527004],[-9.436422751845669,52.875670981857816],[-9.437979125655653,52.87659147830481],[-9.43661910099148,52.87645971208427],[-9.436972904282293,52.87749141675478],[-9.433409471553782,52.878712243389266],[-9.433301584373819,52.87963554851257],[-9.434748193849973,52.880303193053436],[-9.433065750641271,52.883230768337924],[-9.428439022315144,52.88400838607054],[-9.428900594177183,52.884793047155284],[-9.425197629153876,52.88600168303346],[-9.425843289097019,52.886879935388926],[-9.425146527052947,52.887412518928826],[-9.42311362772593,52.88715485947189],[-9.423599736548658,52.88846895830298],[-9.42093565287107,52.88841829570939],[-9.419666497165672,52.88989927912839],[-9.417913308467948,52.8895207084297],[-9.414922024828037,52.89179549254137],[-9.40346321768816,52.89262152590063],[-9.402925493307203,52.89381234515843],[-9.399109375469923,52.8935319468939],[-9.399744026647303,52.894613694075204],[-9.397255756477115,52.89432058149099],[-9.390548059504713,52.89661714766189],[-9.384086159118333,52.90120782627677],[-9.383687115231936,52.90325740661474],[-9.374637014098582,52.90794514445092],[-9.370268139839874,52.908483227988604],[-9.370782369155286,52.910426567307546],[-9.367896719300179,52.91190483294922],[-9.368038900479133,52.91387681552966],[-9.369088239078627,52.914438116001335],[-9.360242374606615,52.91506627584055],[-9.351438798667784,52.91816809470495],[-9.351268618622493,52.92470132606714],[-9.346597646899541,52.93113969448019],[-9.348500678809216,52.93367576690284],[-9.356560171374458,52.9389755543175],[-9.360546370069748,52.943763239268264],[-9.372593989151262,52.94351394397779],[-9.379507688629872,52.940573443262366],[-9.385633912357559,52.94013681658425],[-9.38672111882903,52.93897217977072],[-9.386413789008097,52.93766116055127],[-9.40045595767558,52.9325226301622],[-9.4126735917804,52.93289900048778],[-9.423900216998943,52.931919035427676],[-9.424856127041155,52.934368188870195],[-9.427588032463643,52.93515238876796],[-9.426541707220688,52.93555180367307],[-9.427849289782747,52.93722874905366],[-9.432707362654808,52.936358562583756],[-9.43689782277824,52.93730497150162],[-9.45308972393637,52.934622448382875],[-9.45512009479389,52.93337713577808],[-9.460755985676649,52.93408373642461],[-9.462073547130755,52.93306260580995],[-9.461075308889141,52.93218174005639],[-9.461782234856758,52.931340192783175],[-9.46696197249775,52.93030380177185],[-9.475369491399395,52.932036881935026],[-9.475808649079866,52.933600041710804],[-9.469871497170754,52.93779875648309],[-9.472466861821863,52.94008338808063],[-9.476311611964382,52.94127701760099],[-9.471226677435405,52.94477432753559],[-9.466598052318112,52.944840974331974],[-9.471760983886643,52.94846304360481],[-9.462879823564966,52.949625393642016],[-9.45454017074147,52.95272732868428],[-9.449907849499438,52.9555933137905],[-9.44927313715015,52.958167702071435],[-9.43811945617391,52.96214895971709],[-9.438367466959617,52.964370900085775],[-9.4318731952002,52.96652938387766],[-9.431383680941078,52.968620918268556],[-9.428496666935095,52.970266554891445],[-9.431614333439196,52.97161251828157],[-9.429367666818298,52.97111265612143],[-9.43272422983949,52.9732548461068],[-9.426811538663403,52.976443436589996],[-9.427064943857058,52.98065269266025],[-9.430499411344679,52.980365304540214],[-9.428492846387416,52.98143584648551],[-9.428137957570058,52.983201725806396],[-9.429117331717006,52.98428578446583],[-9.430549057961235,52.98399121341609],[-9.430144225332297,52.98525812382617],[-9.425329495394369,52.98608785058454],[-9.41784816055869,52.98939288906456],[-9.416570239044145,52.99210002349989],[-9.417496793836241,52.993457894300946],[-9.412719190384763,52.9962437174454],[-9.411860127666442,52.99891560855897],[-9.408540368283923,52.999722855116076],[-9.4084308409397,52.99886344261752],[-9.407811561189838,52.998808084371035],[-9.407968598593666,53.00029010453913],[-9.397282612577788,53.00450048856603],[-9.392080582919945,53.00808280343566],[-9.395964891379801,53.01082012853048],[-9.406427899830915,53.01470187672225],[-9.403741225607986,53.01654217755268],[-9.408382800447349,53.019407274041924],[-9.406490990165931,53.01990194748211],[-9.405518050662058,53.020725423719064],[-9.40592776947043,53.02184077564199],[-9.402840545622857,53.023704868173425],[-9.39725343046513,53.02436326792281],[-9.39545520909003,53.0255335794914],[-9.394037899085475,53.030564677657985],[-9.392016289962044,53.031495726649354],[-9.392393059357198,53.03066737374147],[-9.386910748114293,53.03532067061433],[-9.382934195146492,53.04276911858091],[-9.375491280017208,53.044260188324394],[-9.376190625537767,53.044569154568876],[-9.368956974476202,53.04772151792286],[-9.364185032848352,53.05130718992081],[-9.36664573082597,53.05635824351383],[-9.363699032827926,53.05898888213848],[-9.365227233209591,53.05993579267376],[-9.363108940299801,53.06188729393037],[-9.3647011095519,53.063172768683835],[-9.36219512710908,53.06567117225069],[-9.362618912616298,53.06670560836121],[-9.35969501124111,53.06860131136124],[-9.357030920775596,53.07374829594393],[-9.33436054461901,53.08278619055279],[-9.333446352982591,53.084156241857876],[-9.327980821752334,53.086274244386864],[-9.320300952417064,53.08648740852636],[-9.317444873362883,53.087537687324875],[-9.310493931818035,53.09239605249301],[-9.30891377678279,53.094811556124355],[-9.30979230843079,53.09890111875352],[-9.300815829407336,53.10382481485202],[-9.300501330774916,53.10664086465831],[-9.298258209277444,53.107618845614525],[-9.297552753598946,53.1100298382221],[-9.293006769431814,53.11200103182973],[-9.288307979233815,53.11881955207018],[-9.288682600659792,53.12163051766835],[-9.290184379876218,53.12237313598221],[-9.290005725407273,53.124790866774454],[-9.291773332281199,53.125627995416856],[-9.290074202339781,53.12818392730906],[-9.291954316168797,53.132866561948866],[-9.285157191376644,53.139826079104814],[-9.282455293324746,53.14455771631354],[-9.271149653168637,53.14885284541781],[-9.270089112403715,53.15076225021215],[-9.264910400205151,53.154253222580344],[-9.262451008690068,53.154179923653864],[-9.254176682903514,53.15064660778096],[-9.239884957055114,53.14883170372948],[-9.234524642740974,53.14543284834274],[-9.226284394130843,53.14295191963862],[-9.225186979301673,53.141329016509864],[-9.220235162977266,53.13947220225717],[-9.203199923695593,53.13835314205829],[-9.19112948250659,53.136324155858],[-9.188982645687256,53.135138903786086],[-9.176561607034603,53.13654857614482],[-9.167252466992723,53.13462287700108],[-9.166085295146555,53.13287984707939],[-9.167523802506778,53.13444740884973],[-9.171309112973606,53.13529452003672],[-9.179563418230712,53.13587141470453],[-9.180298993734477,53.13511053598658],[-9.186915684725337,53.13504610940207],[-9.183236305676434,53.13358581517705],[-9.183566415872486,53.132837006343486],[-9.179271030287003,53.129475333451595],[-9.179089350023052,53.12822144001575],[-9.166927392164181,53.123063683911305],[-9.163699517803357,53.12213803532897],[-9.162823581788698,53.1230951737234],[-9.159074935524371,53.12035410940198],[-9.156828710441518,53.12133898928771],[-9.153954486110122,53.11974392489221],[-9.152686652010033,53.12045251748838],[-9.15382053241478,53.11970807676118],[-9.151532495313987,53.117259049823176],[-9.151911068311657,53.11870665299321],[-9.148336175971183,53.12125097202039],[-9.148459281636924,53.1219604565516],[-9.148233271576197,53.122315685198224],[-9.145827873426674,53.119619179397226],[-9.141936053430443,53.120233094421884],[-9.142927487147045,53.12145096782689],[-9.141883285429726,53.12025056048406],[-9.139077529084345,53.1206508090232],[-9.13524876556327,53.12434126449985],[-9.13301710630534,53.12490108777475],[-9.134370880001292,53.12570048277305],[-9.132959064467682,53.12639148579589],[-9.133970368976534,53.127587906109426],[-9.12957216054962,53.12665952415694],[-9.129381595667917,53.129971060897],[-9.127672927674745,53.12928538043472],[-9.125449972297282,53.130980842455735],[-9.133274614594677,53.12979758945629],[-9.132736991698353,53.130561397050315],[-9.126505238176566,53.13119801082195],[-9.120680775613383,53.136876615762816],[-9.108959052472871,53.14060673867002],[-9.109620749034203,53.13969546700753],[-9.104068437131515,53.13870382096444],[-9.100594244364105,53.14022198363119],[-9.103541333001653,53.14082556359586],[-9.103183117805195,53.14149482673111],[-9.094194408521773,53.14379431716269],[-9.093547385573077,53.143088246792445],[-9.096943927604084,53.14062214946845],[-9.102270521059713,53.138424153325374],[-9.088101812251544,53.13811212404922],[-9.083714443248441,53.13303915245911],[-9.08361903939616,53.13114628531964],[-9.081239134878357,53.12884916623833],[-9.077764607738692,53.12828739975831],[-9.078070934574548,53.12687137313354],[-9.074371896943813,53.12670196669508],[-9.075716731018073,53.12501178340561],[-9.075515567463937,53.12349498420932],[-9.071605057917408,53.12199625216787],[-9.07091277338231,53.125019949772025],[-9.072464937187364,53.126004188032724],[-9.072547157482282,53.12768792191672],[-9.075644740198268,53.127891707126864],[-9.073614688575313,53.12909441097308],[-9.076083362895135,53.130761542153806],[-9.075968263947633,53.133683385138866],[-9.072612827512367,53.136143543768924],[-9.076768792603064,53.1381994096522],[-9.073966816095375,53.13919428795523],[-9.075298643550049,53.140053066955176],[-9.081557886098654,53.1398775167956],[-9.080369594189888,53.14153089343817],[-9.08317778288508,53.14149804808008],[-9.088308938518937,53.14541132730456],[-9.089405133053074,53.147583846198614],[-9.094943943711732,53.147483111719595],[-9.097329247043648,53.146712885520124],[-9.100724874593523,53.14351619740923],[-9.105258450630064,53.143327650831615],[-9.106282465838392,53.146994344882835],[-9.107553366614878,53.14693795244858],[-9.107206673084853,53.147630380072336],[-9.109611178652976,53.14916030975092],[-9.11745360155375,53.14903765318113],[-9.120006587326802,53.147630506297325],[-9.11883514153777,53.1473815937273],[-9.119364641384326,53.146195497899726],[-9.119771650549904,53.146661953257464],[-9.120891336616022,53.14634629541613],[-9.119933618921449,53.146533074256226],[-9.120761968937263,53.14507457443703],[-9.119624491018469,53.14539635739599],[-9.122167296767808,53.144500730782454],[-9.126484196565153,53.14900344131442],[-9.13730321592132,53.14974234329876],[-9.130917557409072,53.15148827229442],[-9.12245924653221,53.15096637141635],[-9.114003346525317,53.157535902430226],[-9.095147374725533,53.159313439382814],[-9.087741710032281,53.15686507450892],[-9.084543538854437,53.15756862192293],[-9.079901019421516,53.15599481761157],[-9.072395263176702,53.15586741006518],[-9.066298680607023,53.157607119545354],[-9.066304069283307,53.156833207727665],[-9.060598319538713,53.156419144446254],[-9.061155895824024,53.15768342196676],[-9.052745476406685,53.1584248543264],[-9.053642410857183,53.15709270205214],[-9.046735370188875,53.15577929061012],[-9.047892091647086,53.15369088000699],[-9.041836055549263,53.1517884378974],[-9.04239933488164,53.15073211689681],[-9.041671203394468,53.150295837840766],[-9.03044787281057,53.15198894530881],[-9.029632244945919,53.15041149884116],[-9.024622439598295,53.15127373191608],[-9.025269924720345,53.150174527067],[-9.023661916729097,53.1494333903918],[-9.03172245347378,53.146127490915134],[-9.026046988857694,53.14382596367057],[-9.019546289646456,53.14456031070808],[-9.017173884703976,53.14251395620312],[-9.013760118436211,53.14297083362543],[-9.009349218466197,53.140830250468234],[-9.01661036957563,53.13938133829004],[-9.025867001468617,53.140215274308055],[-9.026319282591198,53.13748425607717],[-9.02464839727646,53.135088213129166],[-9.0279553510735,53.130171674725766],[-9.025880320785724,53.12312064974659],[-9.020213999971903,53.11665027067255],[-9.019324802377069,53.11059809089809],[-9.013695786734013,53.10626173444121],[-9.011063750710626,53.10283890698126],[-9.006291991733915,53.10056642562552],[-9.003114793057478,53.10174045848364],[-9.001159170864792,53.100192410680854],[-8.998684363196308,53.09998933562759],[-8.993318894192765,53.09470933784494],[-8.98662125814872,53.09539740965655],[-8.984846066062099,53.09478063739003],[-8.98450854039652,53.093580500965324],[-8.973715963221924,53.09190960645614],[-8.97011276902014,53.088272365154175],[-8.97030211313953,53.08645136519192],[-8.952445022834395,53.08682101459838],[-8.95301921851744,53.085936543468684],[-8.946164121933318,53.08430184673312],[-8.944959652374147,53.08239518341228],[-8.932946963890911,53.07786132477866],[-8.928922670768666,53.07412390980255],[-8.922476170075523,53.07034271476114],[-8.920143605327116,53.06621054740395],[-8.905293615904675,53.06617064078408],[-8.898930587438405,53.06186281398532],[-8.89161213707304,53.06067714250763],[-8.890550714028747,53.05896058405098],[-8.89062753852051,53.05534707519538],[-8.901794300261779,53.04641771356608],[-8.89991629687434,53.046234627855775],[-8.900175591931333,53.043304081047864],[-8.898995654929266,53.040652349681764],[-8.899703485814898,53.03790123847586],[-8.899025503250133,53.03630901619097],[-8.900399854054502,53.0346298740599],[-8.899737606495716,53.03323144574184],[-8.892621164246155,53.030712942526485],[-8.890733367460381,53.02852892591469],[-8.887862550072542,53.02801819180819],[-8.88872194218992,53.026328843166006],[-8.888051613218733,53.02291614647307],[-8.885623103038407,53.02065166227963],[-8.885463317887298,53.01760577264357],[-8.883451155613228,53.01639580908886],[-8.893587107788038,53.01051781008614],[-8.898197530918017,53.011625023982596],[-8.898759533950184,53.0082237712592],[-8.895678903077691,53.00563580471044],[-8.896931735865625,53.00336499038695],[-8.896277554145925,53.0007457601385],[-8.894627812623863,52.99894511092352],[-8.890616343487187,52.998906728586654],[-8.886604544668177,52.996051991266],[-8.890809863907586,52.99091712116854],[-8.88486207594726,52.9854028087084],[-8.883769101190437,52.981232954969165],[-8.884459691409564,52.97967732020666],[-8.886259783158136,52.97911276606931],[-8.885133800629218,52.97795153009826],[-8.882599145815327,52.976481899512436],[-8.879617653922672,52.97727060976626],[-8.877171961251607,52.979628988808614],[-8.874242991529398,52.98000762064927],[-8.8704062413916,52.979637030457795],[-8.868105693607022,52.97768733684348],[-8.863569293427844,52.97933637590936],[-8.860294096793586,52.97894717871279],[-8.860585059300686,52.97073379385506],[-8.858573034804488,52.96815653801607],[-8.850608454667292,52.97202568015789],[-8.851327175830788,52.97330832028848],[-8.846678668650634,52.977165315870614],[-8.8457505538247,52.98103158666744],[-8.846333693658952,52.983323923371124],[-8.849886819458414,52.9835066343936],[-8.849959442060419,52.98625206951359],[-8.84633327844891,52.984896736819586],[-8.840587805919116,52.98663916362772],[-8.83677612961166,52.99049791703185],[-8.833020936410596,52.98876403892078],[-8.833607203922698,52.98513776567698],[-8.83183739285238,52.98342044462746],[-8.832269643928532,52.98132533453004],[-8.82721570194436,52.98181947575],[-8.826134915004966,52.97871610089176],[-8.81696985252555,52.978358279292756],[-8.816657314157933,52.97719887855542],[-8.813119279181755,52.97694299127234],[-8.812194665749825,52.97634094986886],[-8.812779956127109,52.975420533191894],[-8.811094636547153,52.974967728104914],[-8.809075212065197,52.97534970747616],[-8.805343567827189,52.97924739990711],[-8.802372727621199,52.97921581698551],[-8.79991721662022,52.97768776056324],[-8.79938050746352,52.97462805625288],[-8.794473569898967,52.97657624362575],[-8.786497486808964,52.97412966729858],[-8.786256611694027,52.9719000039798],[-8.779379442358497,52.975269973969624],[-8.780182365986214,52.97619072088759],[-8.779107740165262,52.977619310308846],[-8.78001548950489,52.9785120933811],[-8.778836221017043,52.980005232796586],[-8.780526596579579,52.98228754993711],[-8.778437852231994,52.98392865716665],[-8.779435240127015,52.986798771718185],[-8.77878047139535,52.98769659243125],[-8.77355447820002,52.9898461595323],[-8.764688105240914,52.99130211376195],[-8.758401407617498,52.994263446622874],[-8.75142417381379,52.999300637035674],[-8.741288060218528,53.00251252550844],[-8.736960366250859,53.0059527721858],[-8.73929345532581,53.00866728199731],[-8.738683672853547,53.01096640730731],[-8.7318778009203,53.01427386430545],[-8.729029594789182,53.017815235868966],[-8.719689722518842,53.025420565449046],[-8.714257173286294,53.024061949514525],[-8.707892544870269,53.02531666921736],[-8.69676750151211,53.025413088063694],[-8.694114485337398,53.02657947914398],[-8.692105009514293,53.02944047046997],[-8.6822426856993,53.03161760701578],[-8.68251603560298,53.03402255286911],[-8.679424203984192,53.03632331169586],[-8.674352699597204,53.03786942361079],[-8.671966081165824,53.03704480236558],[-8.666870817836454,53.03916979701823],[-8.654108871921355,53.03983160277461],[-8.65101492653878,53.038266971857134],[-8.646405015801875,53.03983538075608],[-8.642524000495024,53.039299483297555],[-8.634534623074146,53.041767502039185],[-8.62834857830096,53.03857761105656],[-8.626742454581066,53.0340919694885],[-8.620211819538492,53.03522223828559],[-8.615280355721751,53.03742657094158],[-8.606690333662188,53.038532692722086],[-8.554491569054933,53.042195231793976],[-8.560296412563796,53.035945108335675],[-8.560075569205274,53.031002122646306],[-8.556359067751547,53.02640339049228],[-8.551395934109614,53.02234069830787],[-8.5476778598578,53.0236326498459],[-8.536778924406212,53.024450354484486],[-8.52819805635062,53.02371611171798],[-8.525236209121251,53.020609856189445],[-8.526316395087932,53.01800515136362],[-8.523948093903309,53.01166444176916],[-8.516897613102133,53.01214012282525],[-8.516300156236992,53.00999161421722],[-8.511094718199173,53.009431265847354],[-8.510446148363513,53.00683151198716],[-8.508535205036152,53.006274067964796],[-8.510477968466823,53.002582271721714],[-8.510057208249869,52.99862235649019],[-8.504573852083663,52.990363258222466],[-8.502505211465696,52.98313905814424],[-8.4979587825169,52.98369547232438],[-8.491169538852034,52.98738894071802],[-8.484862377771563,52.98887028193083],[-8.461154762000856,52.98216425924021],[-8.456191255740862,52.97646053252202],[-8.450077451625464,52.97226506180721],[-8.443850545800883,52.973860308574814],[-8.424065764769928,52.98338753100942],[-8.418751125959936,52.99326016720802],[-8.40875240245427,52.99484805647974],[-8.406860939308823,52.99385757531767],[-8.407653426230791,52.993854375784274],[-8.406420851133278,52.99115560561524],[-8.402836440803346,52.98640185956024],[-8.397214547836892,52.98432470101063],[-8.384802300811266,52.98349637147944],[-8.371446027274484,52.979955725536136],[-8.36930179079846,52.97733958160381],[-8.36648222194623,52.97595811402629],[-8.367182560792074,52.97274562117416],[-8.364513363581295,52.97151041739044],[-8.358811081036222,52.97127071188681],[-8.356145199379803,52.97457322808325],[-8.35175243104284,52.975504985178915],[-8.350077652162712,52.97951614804138],[-8.345508287240335,52.985047144300474],[-8.338860440350864,52.98754853836295],[-8.316738686308536,52.985143226312424],[-8.30983049956572,52.97693081302326],[-8.284500444730623,52.972563502078145],[-8.282425076129616,52.97046180145672],[-8.290098367630062,52.960747822427386],[-8.307979506532792,52.94897862620405],[-8.313906953081702,52.935522512672385],[-8.338498197734138,52.91520185945082],[-8.3675154969994,52.91654427693648],[-8.407521796750654,52.912582823628874],[-8.418460153413585,52.875403696817806],[-8.424715625074825,52.86777591730273],[-8.455311456615437,52.8468936375095],[-8.451775399962553,52.82397526073246],[-8.448807141634058,52.82011666232485],[-8.449557113070616,52.81651157581227],[-8.448843853691972,52.81197391256686],[-8.445608919556559,52.809528482848485],[-8.437903356554846,52.80742604367447],[-8.436677753178119,52.80575067339762],[-8.43707829158122,52.797866338114304],[-8.442518262019437,52.78687446142439],[-8.454980604893917,52.780831470467504],[-8.454155237488976,52.77905789372776],[-8.455313604205594,52.77788929214753],[-8.462000269342495,52.77714386695787],[-8.465620738005612,52.77189344168597],[-8.469132834331344,52.76920991813031],[-8.469448873453915,52.76718456024389],[-8.475609679505414,52.762585625616786],[-8.477102467186924,52.75875213455134],[-8.482903307592256,52.75638584861971],[-8.482835140980589,52.754829905533136],[-8.488170188405155,52.75288279667871],[-8.49179188118767,52.75396144180347],[-8.502814861254818,52.751330331862576],[-8.507866219061647,52.74835785144388],[-8.508993482889949,52.746164224702575],[-8.508396636686197,52.74000667663206],[-8.506493234585452,52.733976942502835],[-8.503598483422202,52.73072126792534],[-8.507943305416445,52.72527111699798],[-8.502135688211995,52.71779828449409],[-8.505761087683718,52.715475241440295],[-8.506010159138661,52.7125850733763],[-8.51014820162572,52.71165988875833],[-8.51271129876282,52.70515988142327],[-8.520267554661705,52.70281418256219],[-8.526386676755408,52.70437985717945],[-8.532845885961523,52.70384652641881],[-8.541876959038087,52.69687187301838],[-8.542413989845393,52.695312862712036],[-8.540926024353695,52.693470411128835],[-8.542907323180911,52.68874360986369],[-8.542239004851185,52.68553348202687],[-8.545564513670879,52.681305969295174],[-8.551231621854024,52.67856057924049],[-8.55858859949861,52.67894636641589],[-8.565407297239625,52.67597563512774],[-8.57526107573193,52.67792164079595],[-8.582197086898164,52.67764983607098],[-8.58520655783283,52.675988555349704],[-8.587818468935554,52.670931973543624],[-8.59214932713665,52.66943780010769],[-8.594666697131455,52.67065770554205],[-8.595426151384535,52.67405198001528],[-8.604349130637294,52.67912282513807],[-8.608459923517103,52.67970902073815],[-8.613993292714175,52.68670445034821],[-8.61838470347587,52.68892921598395],[-8.626257729106117,52.6884320205573],[-8.627203198684432,52.68749333243049],[-8.627199065992638,52.68409651882009],[-8.628777356388566,52.68410157690938],[-8.637147095740543,52.685871633421854],[-8.636079881347642,52.687696155651416],[-8.640248851452881,52.68675986836118],[-8.641438773134109,52.688336748443554],[-8.653916645095167,52.689984787123485],[-8.671057574744312,52.68678763100553],[-8.677148218289863,52.68795150516256],[-8.677768602538109,52.68532750752514],[-8.679870050912768,52.68289684797711],[-8.688112792371966,52.679388684663635],[-8.68901236996556,52.67575575711432],[-8.692637672111458,52.67663491415333],[-8.697738760803912,52.67465282141131],[-8.701036996562825,52.6758784221756],[-8.703692068465982,52.675588821304494],[-8.705400806498298,52.674577018802246],[-8.70524363110395,52.67245003249591],[-8.706651365328943,52.67098467181028],[-8.740033149250444,52.675531607303355]]]}}]}