{"type":"FeatureCollection","features":[{"type":"Feature","properties":{"name":"County Derry","source":"OSNI Open Data 50k County Boundaries (OGL)","simplify_tolerance_m":75},"geometry":{"type":"Polygon","coordinates":[[[-6.669046142412332,55.19915387434366],[-6.670793865568507,55.199816646513604],[-6.672890398133647,55.198551527574786],[-6.676889105851893,55.19911992223923],[-6.677689566066486,55.1984119469183],[-6.679494187468616,55.1992101523584],[-6.681129585148632,55.19806432712976],[-6.682428583067249,55.19855892745179],[-6.683201792420106,55.19737419743852],[-6.68815296318327,55.19658908587471],[-6.689145512170151,55.19541629232412],[-6.693536339737249,55.19674454387119],[-6.694439827905442,55.19542673874897],[-6.696881859509527,55.19527183387163],[-6.697282001130026,55.19397378357213],[-6.700854871409265,55.194202816273986],[-6.701601561636931,55.193260259228964],[-6.703179686747065,55.193470750218935],[-6.703509321730371,55.192342717436105],[-6.708287063610653,55.193442133751454],[-6.7085031317884,55.19202485624039],[-6.710881745626996,55.19112251824967],[-6.711315258088042,55.189762247634846],[-6.714247154191433,55.18876857366073],[-6.722029699420732,55.190142301882375],[-6.722553739608872,55.188486469699946],[-6.721406890027514,55.18772464141794],[-6.722606076496494,55.18721955267411],[-6.720717647381059,55.1872930060957],[-6.720325835269535,55.18652363502861],[-6.721711959934314,55.18681218891361],[-6.720180218031276,55.1862427932009],[-6.719533624028503,55.184022788458044],[-6.723384741380889,55.18358091522493],[-6.721896139312931,55.18311108541253],[-6.723611079093445,55.18265802056651],[-6.723446177687233,55.18093917730853],[-6.725658927489889,55.18060970559839],[-6.725952874981308,55.178438373863585],[-6.72510871627255,55.17795959364401],[-6.726021347775355,55.17676734105975],[-6.724543813351031,55.173745114682376],[-6.728459277808982,55.17171295617416],[-6.749929315526519,55.16852344745226],[-6.768028574565294,55.16747872061011],[-6.771967037873448,55.171863121323774],[-6.774351933827522,55.17151716455615],[-6.774379761303088,55.16925231312456],[-6.780222051937908,55.16843031044],[-6.808378826864584,55.168751780816244],[-6.818167489123785,55.167367432969904],[-6.845130797859023,55.166847170984745],[-6.869903333821509,55.16778569134682],[-6.886491849049236,55.169679889665304],[-6.916606364194623,55.17576183776318],[-6.946206447663314,55.1886069677419],[-6.955969472848825,55.19415021200617],[-6.966587796274502,55.19511874347227],[-6.96713046615982,55.19309382535511],[-6.962997672252579,55.18821030470122],[-6.960512434581829,55.18118845568214],[-6.962963603163492,55.16466984385503],[-6.968795455939667,55.14791145826132],[-6.974178879788399,55.1407021157971],[-6.974848802827402,55.13724045268647],[-6.976546003442495,55.136253385309914],[-6.977618098871623,55.1333985260924],[-6.982621847708833,55.127092450325094],[-6.988320236575371,55.11651545812166],[-6.99313157521645,55.11431439971629],[-6.989774762535748,55.10978255705253],[-6.992370008806851,55.11093449267303],[-6.993755730495615,55.10980796753305],[-6.992144313405857,55.10830736832085],[-6.993546988952836,55.1066778898643],[-6.992774357955939,55.10634592862742],[-6.994186446758806,55.105839950113314],[-6.993554559639799,55.10551840836987],[-7.005587782003013,55.10710525061563],[-7.013724991404894,55.10516156010571],[-7.019732575531765,55.100740793042284],[-7.022178849584927,55.09591341753748],[-7.022719997797863,55.09182948921117],[-7.024296317509699,55.09107320483085],[-7.022784896126501,55.08985266861001],[-7.021737019114155,55.086443959515236],[-7.004853825096443,55.07252821740742],[-7.01341620056114,55.07886739377],[-7.015453080661093,55.07504229446256],[-7.021352918292168,55.07041376538923],[-7.044691744254504,55.05814924900669],[-7.041139289582983,55.055667010205546],[-7.045644989429385,55.05820416228127],[-7.043169308264401,55.05339632321743],[-7.041387876258852,55.053296687761595],[-7.04199985080531,55.05276391201871],[-7.048062818719655,55.0511558499541],[-7.050080325640332,55.05659697007801],[-7.048338683869034,55.05035880256086],[-7.051365289418377,55.049213002322446],[-7.057057633443966,55.04840045145479],[-7.050087462984433,55.05050273122354],[-7.052902313808365,55.050595103935855],[-7.059771984444065,55.047709572279565],[-7.074989130629404,55.04598782719325],[-7.079994080155418,55.04674914901903],[-7.08221704196856,55.04523490754488],[-7.088466156814068,55.04459722000499],[-7.090835225948751,55.045430406436765],[-7.091591636014539,55.044251446627555],[-7.092501328050841,55.0452045025495],[-7.09541917896851,55.04396669369528],[-7.109847044342325,55.042511523261325],[-7.1186556786978,55.04312015239788],[-7.131925899866491,55.042136230096816],[-7.144779947247985,55.04513773401369],[-7.146214864647606,55.04689515832462],[-7.146610051356538,55.04570353480345],[-7.147237170434011,55.04937682178079],[-7.147466307240617,55.04479498619376],[-7.148980158340456,55.043353442437216],[-7.14789066472858,55.04473624054605],[-7.14764010910034,55.05745211226485],[-7.1608474193623,55.05982603938954],[-7.181858225217089,55.06095946051103],[-7.210536251475506,55.05728828489053],[-7.212741211494242,55.0556994220936],[-7.215144981372048,55.05876824699182],[-7.225198661703112,55.060953632520416],[-7.227864127154558,55.05968329566926],[-7.233780282332761,55.05405591717516],[-7.234209106345122,55.050976752311676],[-7.232400984605414,55.048417037868425],[-7.251893269015893,55.044300547270296],[-7.253921512888814,55.04628699255821],[-7.254434376799089,55.05210897337143],[-7.251177551304005,55.05388688458247],[-7.246843532698335,55.060733299733194],[-7.2484573643237,55.058950129999644],[-7.253809673823708,55.059617493388764],[-7.255814750236309,55.06133361686256],[-7.256782309826874,55.0655305091984],[-7.255402480435236,55.06559933464053],[-7.256832556911924,55.06726304935092],[-7.260366296119465,55.06604895933223],[-7.26501265950415,55.06661630600974],[-7.272423710674687,55.06362776646035],[-7.275801308410871,55.05859270745734],[-7.276968798364083,55.054600113532295],[-7.289171381875667,55.04731877030701],[-7.299518643654586,55.05618151911083],[-7.308905203746016,55.05178683571617],[-7.313724072997296,55.04881500096514],[-7.314620306368698,55.046707992280425],[-7.318073773561753,55.045321900799316],[-7.322313245283362,55.045391672567725],[-7.334120791803647,55.05037847073545],[-7.344869044198497,55.05093199251335],[-7.345970223500242,55.0505783009909],[-7.345018268613164,55.04897768470303],[-7.357477212743427,55.04498844641043],[-7.363331290628921,55.03836871448841],[-7.366772877945438,55.03886613361851],[-7.376776813080594,55.02899112607558],[-7.391376151814469,55.022425407772175],[-7.391528570979712,55.020111799438496],[-7.39638697861252,55.01672086800932],[-7.397098608094809,55.01094996415931],[-7.402860960086901,55.00741789562961],[-7.401621093354247,55.0067151163358],[-7.405810853776649,55.00345527061401],[-7.399153922415087,54.99922035055164],[-7.394303948881176,54.999600554870725],[-7.391319352208833,54.99773150687715],[-7.391906961572784,54.995037989881205],[-7.399706750481237,54.99065083869105],[-7.401615552758913,54.98571696419152],[-7.406851373831954,54.98288921656234],[-7.403581297081237,54.979570085584925],[-7.40513447147397,54.97751054264597],[-7.400885791078545,54.97206296850147],[-7.402847170780502,54.968791941565954],[-7.402241814378397,54.96748596550163],[-7.407331924849227,54.96378111437041],[-7.402471407703475,54.959892150400535],[-7.407190048378052,54.954837194855095],[-7.396939747697847,54.9461128482269],[-7.383822896361819,54.944068814591766],[-7.381054962553333,54.94138072405526],[-7.380886463486607,54.93964958818865],[-7.376510899663977,54.937537314643066],[-7.375684904081867,54.93546563245788],[-7.376414771449467,54.93367199153972],[-7.371237330199955,54.92800491459725],[-7.370430560591998,54.91970930221658],[-7.358142296408371,54.915195121550575],[-7.338673863968364,54.91607828313265],[-7.323494582410973,54.91455548142549],[-7.317408100259221,54.91946453047768],[-7.302028122316415,54.92501639721004],[-7.296017954254802,54.920824346136506],[-7.282945059398606,54.92142104831042],[-7.259919211698246,54.91829302968216],[-7.258552702736934,54.91415003622833],[-7.259686671439215,54.91182023890377],[-7.263360833322714,54.9048769028042],[-7.270244099099073,54.89925643343204],[-7.272962724618533,54.89302037932774],[-7.27036367254511,54.892375737088415],[-7.268333822293975,54.89043108145785],[-7.269545913136227,54.888034008980306],[-7.259564921159041,54.886540262717524],[-7.248348793403817,54.8863356969176],[-7.243487360596975,54.88381111250825],[-7.23005992340939,54.88725391079814],[-7.213733158427757,54.88539562537073],[-7.201051419841749,54.88841286354522],[-7.198362447243293,54.88648514817504],[-7.199104675350307,54.88244518442394],[-7.197418375721675,54.87908589501828],[-7.204394612800396,54.87470206704108],[-7.206254340130981,54.86725410261389],[-7.194296437156456,54.85980762612532],[-7.188117639274798,54.85729441296891],[-7.189321218744317,54.856398303591384],[-7.201347914992679,54.85540254747777],[-7.203819830782631,54.85368118467737],[-7.191183224494065,54.84610207423686],[-7.178189664678728,54.85349689290173],[-7.166705802064703,54.85330351538566],[-7.164517425368081,54.8556029459468],[-7.156437428902533,54.85664779287308],[-7.153562417154509,54.858223080204596],[-7.153604308237359,54.856223520488186],[-7.158681730959337,54.85167496699029],[-7.15665636696107,54.84799837597311],[-7.143381181768909,54.8429046006738],[-7.139423703041198,54.83860772103568],[-7.124927902825676,54.83039284749811],[-7.122654669638752,54.82752289480427],[-7.110949847022963,54.82548275601012],[-7.103442497529527,54.82187752292136],[-7.101445322296738,54.8134037120199],[-7.098991000113905,54.81361002480373],[-7.092579573774437,54.81861925377629],[-7.076657236912043,54.81589120418485],[-7.063584132050325,54.81111500686059],[-7.053833079680458,54.81240980543166],[-7.04193299864307,54.81905916474736],[-7.038453609066021,54.81981820959386],[-7.003656624287765,54.82092931434024],[-6.996386181143019,54.825544351290176],[-6.992977549499351,54.829651738907174],[-6.989657436901845,54.83020865744444],[-6.987297999445041,54.83277366804022],[-6.972392979097944,54.828331890062934],[-6.965210012222675,54.830855536845135],[-6.953004001422297,54.83048050843251],[-6.946000025514471,54.833521613966944],[-6.93533782188609,54.830640632150455],[-6.930707489547524,54.82623912190571],[-6.92183190967013,54.82355262279206],[-6.919242102479669,54.821484124781826],[-6.912387234246034,54.82038842196519],[-6.911489440693218,54.816154589374236],[-6.912907430188967,54.81257087166535],[-6.915940065013382,54.80821499368442],[-6.921164066980793,54.804777970632024],[-6.922105534468214,54.80298803200489],[-6.905940589235856,54.79115421368247],[-6.902554496874363,54.78700985530678],[-6.90317322606059,54.784250775017426],[-6.910979394695137,54.77715103429266],[-6.924573662182188,54.772889851220356],[-6.939438378813893,54.77342613558858],[-6.93591161743196,54.76568520459608],[-6.940535240678982,54.75219420818624],[-6.972412333304446,54.743386723243134],[-6.972789511176615,54.74071598727579],[-6.969856853878026,54.73691639821826],[-6.964365600761333,54.73608293212519],[-6.957196817210741,54.730988223610744],[-6.948792794129629,54.73028653942989],[-6.947676684562257,54.73142281722251],[-6.944100512870934,54.73150087719476],[-6.93499783193956,54.734539644826455],[-6.931949243001981,54.731734653338954],[-6.927949323666038,54.730328853889894],[-6.923422011349307,54.73129992580683],[-6.917551966088221,54.73456982557814],[-6.908835986600793,54.73395153113968],[-6.907982955402459,54.73246051451699],[-6.909082564175835,54.73053722987487],[-6.907936724598791,54.72985262771139],[-6.899896959786397,54.731532792578136],[-6.891433167826286,54.73024151586916],[-6.891146120787893,54.72471433029902],[-6.887820225397915,54.72524870999285],[-6.886686530099875,54.72783733527624],[-6.883582702533613,54.729247291880675],[-6.864294264701461,54.736260188583465],[-6.841646875397646,54.738315013144486],[-6.829876037549595,54.74106155812993],[-6.826365888045593,54.736196459307756],[-6.828221596809011,54.73102386319387],[-6.827538023610531,54.72549858213896],[-6.826405673676256,54.724386026277976],[-6.824282464114175,54.72263475196827],[-6.81887377625373,54.7218176643512],[-6.818225519104501,54.72005818526772],[-6.815090593761451,54.7184315548751],[-6.809079436019337,54.717001495581805],[-6.808092890780265,54.71622738769819],[-6.807528837167983,54.71116072702459],[-6.805546136803566,54.708624613473695],[-6.801077040314313,54.70756925981525],[-6.801121603444063,54.70604168860522],[-6.797259077554046,54.70591473252585],[-6.796721576203191,54.7026499558488],[-6.7923113992179,54.70357237487056],[-6.788408469963676,54.70308399998438],[-6.783402141054028,54.70056216236048],[-6.783812683467084,54.69980240977915],[-6.781677754609897,54.69854521323628],[-6.78125094235432,54.69593420615988],[-6.778028168585989,54.694778213243154],[-6.776044717781189,54.69235398773426],[-6.776399623526595,54.69085192340998],[-6.778721408919532,54.68970698597557],[-6.776280392923316,54.68705317175336],[-6.772133859634489,54.68568561614839],[-6.769980315912926,54.683798819446736],[-6.764435232222502,54.683832234518974],[-6.762083776998753,54.68081974109311],[-6.755125222947412,54.67634412758711],[-6.752053602314351,54.6766497157461],[-6.748118117612202,54.673508030713826],[-6.745723337920874,54.67323617536335],[-6.745354618078252,54.67262570822767],[-6.7468398522826,54.67221404096915],[-6.743366244734208,54.670470324959666],[-6.743982260064679,54.669330712661065],[-6.740286241258811,54.6688529735995],[-6.74127543725313,54.66443378465368],[-6.739836071511949,54.6629959931118],[-6.740165555862534,54.66017344943987],[-6.737893830843173,54.6584415250288],[-6.731101529043217,54.65758383950724],[-6.728071604321427,54.66190750477194],[-6.721012792815467,54.661472961918214],[-6.71975182395004,54.66037517760696],[-6.72206343260891,54.65418419946893],[-6.720284199859076,54.65157752344013],[-6.713605695840516,54.65051852098081],[-6.709410035679532,54.65213678058649],[-6.708505252606273,54.653812410905296],[-6.699470549964995,54.65407537638529],[-6.696922676435148,54.65501430080147],[-6.695905493124108,54.65655385763764],[-6.692376457767993,54.65738023023415],[-6.688830361806014,54.6564819508253],[-6.686071671227201,54.65429398750756],[-6.685177409663344,54.65318292203553],[-6.685045939545985,54.648797709753175],[-6.694251156862809,54.647998036597635],[-6.693663323168489,54.64222353173078],[-6.70269766346656,54.64298581714992],[-6.70794121042054,54.64621145606171],[-6.7123626790148,54.64691013481612],[-6.714169712505584,54.64519886672411],[-6.713543626163832,54.64292157777873],[-6.716006420700862,54.6393763533312],[-6.714637963918316,54.63855275052166],[-6.71904540043416,54.636595493271074],[-6.716216557782934,54.632923717575224],[-6.715786335090726,54.6318177963522],[-6.717091823478091,54.629673575581755],[-6.715790914844621,54.62851152240706],[-6.705599166777012,54.629580435667904],[-6.701614509265327,54.63199843881804],[-6.697872659858541,54.631260936271765],[-6.692560870552514,54.633227519336735],[-6.679004382740673,54.634400137813735],[-6.681188185937063,54.63937324911266],[-6.680929180991174,54.64258574250228],[-6.676927633337568,54.6417771111315],[-6.669894262380943,54.64250859472318],[-6.65770166207011,54.63760558445461],[-6.65110390010274,54.638070987736086],[-6.650339700655448,54.63657843785089],[-6.653945480389197,54.63410083827304],[-6.652605067122989,54.63124391798498],[-6.644541314218166,54.63145066929835],[-6.640322080745376,54.630095870617325],[-6.63789878486577,54.63114816466041],[-6.639707035408434,54.631837782602744],[-6.638743684620565,54.63277414273078],[-6.635961911331193,54.631574434199884],[-6.633559295579362,54.632769645576886],[-6.632412064621699,54.63409112957667],[-6.63414864777473,54.63469439400087],[-6.632949486850591,54.637920096944974],[-6.622349401762794,54.63950608610715],[-6.623723287218934,54.64207755900361],[-6.623489448490236,54.646833846170146],[-6.617179355341565,54.65198271458075],[-6.610988219140684,54.65083384435358],[-6.607895156811323,54.65150552664058],[-6.603305051655127,54.65405236437909],[-6.602563631276289,54.65706157484952],[-6.588205128374129,54.6550906721161],[-6.584916785724576,54.660090862016276],[-6.576819334416399,54.66176573467287],[-6.571965390197226,54.66446697181026],[-6.566739785826767,54.66250429517157],[-6.567190033097191,54.6592102585515],[-6.566102565314424,54.65818639922756],[-6.558214113833701,54.656327458886146],[-6.550059072629381,54.65778565753621],[-6.542727366530436,54.65724821975616],[-6.537353124916131,54.66340957834752],[-6.534094610908842,54.66342462879165],[-6.532394079028765,54.66589763779039],[-6.528378322686357,54.6658868245605],[-6.5286912686782,54.66731906157828],[-6.519422889292739,54.66883787636417],[-6.469036395987815,54.68523506510219],[-6.496066330191073,54.71381511715666],[-6.485797300965464,54.73700476766645],[-6.465635099468243,54.753859242603355],[-6.461479330008423,54.75929180726226],[-6.457318890222812,54.76174242434606],[-6.460679044752205,54.76685434994755],[-6.462168127839002,54.766871806531604],[-6.465093173074141,54.76454915074783],[-6.467853166891103,54.764516669891854],[-6.480207379672633,54.77588747900406],[-6.477672763061536,54.77874514645867],[-6.476958370463442,54.781209542845815],[-6.477838318235529,54.79401418528868],[-6.470799852034927,54.812631471328146],[-6.458531273489164,54.817245038273605],[-6.460172227949746,54.82144330396445],[-6.457074410368181,54.82454470646375],[-6.460608901641922,54.829147440389015],[-6.46615729794291,54.833771398466304],[-6.466848597905293,54.83937122335087],[-6.471598367593069,54.84164112936495],[-6.470571534165678,54.84673265605024],[-6.472292454828051,54.85127036813421],[-6.471194819494883,54.85336717200351],[-6.473730783233482,54.85615517468507],[-6.475075534751105,54.86086663379797],[-6.480033988599931,54.86677449881879],[-6.482273143223162,54.87418179737372],[-6.486762671556247,54.87597961724096],[-6.487966311388957,54.88282724858683],[-6.490143039900815,54.88614382794535],[-6.497581486115456,54.889382084016994],[-6.499045944052617,54.89483163712045],[-6.500905452180367,54.896421986128395],[-6.500845311394645,54.89908880567751],[-6.502672260118571,54.90095024085276],[-6.503577963364083,54.90577998755245],[-6.506125513524678,54.90782256773033],[-6.505608848149907,54.91167953931335],[-6.503180880532293,54.91281603980973],[-6.503116818668088,54.91422629583435],[-6.499412532355926,54.91584141678994],[-6.499593608860151,54.91812360791177],[-6.514882740765519,54.93459821623413],[-6.518101206171538,54.94112001135751],[-6.521388076129508,54.94240594458065],[-6.525112190345386,54.94615501527088],[-6.530817383440096,54.94820108902764],[-6.534360220707484,54.95153941325778],[-6.539231859995482,54.95323954444468],[-6.540080059748132,54.95485554923342],[-6.537160854475246,54.956067780889796],[-6.536691244741953,54.95756659687389],[-6.5449358457081,54.95944119018006],[-6.547374518654215,54.96370522932398],[-6.548244189910257,54.96924614938885],[-6.551951781855014,54.97489016166092],[-6.54687455987451,54.977903106652576],[-6.546352631974913,54.97952594392439],[-6.552835922489165,54.98303501207832],[-6.55982920614602,54.9827373691805],[-6.570239309579858,54.98540535225746],[-6.571520760786648,54.98886946962477],[-6.571147829732746,54.99275635988402],[-6.574368329282597,54.99540298017911],[-6.577023220031116,55.00145860966876],[-6.58063209403167,55.00468792719342],[-6.582644058251016,55.00995884680078],[-6.578578791391515,55.012225532726696],[-6.578531009355261,55.01410056826945],[-6.576474853434832,55.01688326343781],[-6.576804149375396,55.022590978039325],[-6.574006303067276,55.02769398819911],[-6.573587833684387,55.03015980154072],[-6.574607299594827,55.03252872355257],[-6.572790648627782,55.03605870101953],[-6.573132281993758,55.038588228707475],[-6.582920256842812,55.05054692279973],[-6.580368908359597,55.05786273289818],[-6.58260425763166,55.05954424663311],[-6.58502229559713,55.06406214128757],[-6.597718641116935,55.06823774383227],[-6.60732256516593,55.077284440457916],[-6.608043098111007,55.079347664162206],[-6.604739916264845,55.08406255516222],[-6.585051940124055,55.08837305897284],[-6.574107966478352,55.104355021315335],[-6.569732578024951,55.112810072822825],[-6.568544119888707,55.13065745608681],[-6.569489162618724,55.13083943863736],[-6.568413303780003,55.13117970368994],[-6.568003746490707,55.13483077889221],[-6.57037520935695,55.13547935449334],[-6.57372376174424,55.14271312158212],[-6.575600058547601,55.14397166550331],[-6.580220080396611,55.14416088991951],[-6.580786570674142,55.14697749602784],[-6.584557528972935,55.15232736585003],[-6.58469350173389,55.15624059389784],[-6.588450447748129,55.15979161233947],[-6.58766267927916,55.16099634466997],[-6.593336421181966,55.165389301342806],[-6.593231017036614,55.16725374670212],[-6.592190847987925,55.16782624932152],[-6.603058630566285,55.16561423229035],[-6.605527529629336,55.17018356683037],[-6.605816949182155,55.17425563694325],[-6.609604325854592,55.17706404680335],[-6.611442212313283,55.18063670866707],[-6.61347912507834,55.181874014113795],[-6.622196021500974,55.179523224833076],[-6.622827174152504,55.18056461306935],[-6.621551840315563,55.18340482405281],[-6.622636449641818,55.18609211318244],[-6.632224615623801,55.18808906628637],[-6.63795963167972,55.187996319346446],[-6.643685135577005,55.191634838991305],[-6.646792098524315,55.19495134672673],[-6.650639481883077,55.193802873588915],[-6.651317803270501,55.194642127231475],[-6.654240600954406,55.19413519668065],[-6.65403843176465,55.19314390595316],[-6.655362971610487,55.192281852615736],[-6.665083866199565,55.19087197932835],[-6.669046142412332,55.19915387434366]]]}}]}