{"type":"FeatureCollection","features":[{"type":"Feature","properties":{"name":"County Dublin","source":"Tailte \u00c9ireann Counties National Statutory Boundaries 2019 (CC BY 4.0)","simplify_tolerance_m":75},"geometry":{"type":"Polygon","coordinates":[[[-6.4511641750712565,53.391499813452846],[-6.449527132787092,53.39353771323903],[-6.446724382298108,53.39422691758434],[-6.4474825684226404,53.394654785081485],[-6.4436687490388085,53.3996959081437],[-6.439608308911694,53.400084728559705],[-6.441097963372162,53.40220987887391],[-6.438522452757976,53.403738544314194],[-6.441048759390651,53.40627333019814],[-6.439179942568904,53.40725052293474],[-6.439242235586702,53.40839243681826],[-6.433581100756485,53.41045906745277],[-6.437397595370356,53.411116318571004],[-6.43812952882622,53.41219766254081],[-6.434522221029118,53.41259980170631],[-6.433079752041273,53.414613847991376],[-6.429620223394166,53.414404290422254],[-6.4212610723947,53.416934927806224],[-6.4219867677441504,53.42319222797898],[-6.42134993130415,53.424188358656124],[-6.417946891657266,53.42431702955346],[-6.4181597568568725,53.42756865038298],[-6.41519246511954,53.429932833894895],[-6.416200729986545,53.432144201475886],[-6.419617203257677,53.43506255048284],[-6.415996232712633,53.435235059149186],[-6.411754436007896,53.440175700737115],[-6.40742744681794,53.440688474104554],[-6.396635709522761,53.43769577980145],[-6.395556291794174,53.440556519092155],[-6.3871999588787665,53.43798458016371],[-6.37770098904857,53.444387049173024],[-6.3652950688555,53.444452193934076],[-6.353066725493267,53.4477722358987],[-6.355677682435683,53.451471842403556],[-6.3545378065428615,53.45270048503455],[-6.355259997321082,53.45947077545135],[-6.354249496698134,53.46209484021941],[-6.354974755042262,53.46233558301107],[-6.353059955371084,53.465533070830254],[-6.35164716834988,53.46560228671451],[-6.3503863332912465,53.4694887544277],[-6.345992371375547,53.475132215753774],[-6.343209901322139,53.47524335580935],[-6.3380995724237765,53.47762973498605],[-6.3380100489872175,53.47990736212184],[-6.339573685988331,53.48183091588043],[-6.336804458066269,53.4822496927406],[-6.331261733086262,53.48576437914719],[-6.331698748814295,53.487959474918476],[-6.329249912181199,53.49189331219586],[-6.336966421561252,53.49036637334486],[-6.339680513419557,53.4914539174527],[-6.3464713420711245,53.50189927028219],[-6.367483110649167,53.50637065711276],[-6.3665115756471735,53.515118123914114],[-6.367477878698992,53.516528936453774],[-6.382627767862908,53.520609563002324],[-6.388664702891441,53.523450801151284],[-6.388895720555732,53.52464769675327],[-6.398743409325548,53.524333978688645],[-6.407628976053109,53.52638686087354],[-6.406717887745987,53.52757332617877],[-6.410807342699729,53.52863852958076],[-6.417951601033416,53.534125103251576],[-6.423259222742849,53.53496293456931],[-6.4213911901681735,53.5382024683118],[-6.422312322813259,53.53872637367369],[-6.419029226324619,53.53976741866949],[-6.4326130147932155,53.54322279765876],[-6.4328467755322745,53.54564321490776],[-6.434150025203483,53.54606199888634],[-6.435759481263453,53.54921742866251],[-6.431887441740171,53.55088100965618],[-6.429643737067101,53.55841024663893],[-6.428566263757114,53.55831905136554],[-6.428710128643607,53.559211864297616],[-6.42547429494576,53.55893883552799],[-6.423509749330439,53.56040856281166],[-6.424869272174745,53.56162286116374],[-6.4236510715847555,53.56603340838997],[-6.419360543440403,53.56913716103667],[-6.418745064574582,53.571140682647496],[-6.417201533343038,53.571072308244794],[-6.417137451449817,53.5721706339867],[-6.414850408509868,53.57327777045811],[-6.40721614890638,53.572445459647426],[-6.402049919842784,53.57341835735888],[-6.401164257979957,53.57396893936335],[-6.402085893048661,53.57514119655619],[-6.401227330049452,53.57705004287478],[-6.394290055157068,53.58085729886997],[-6.387319077576761,53.580477316137355],[-6.387828391148851,53.582291025600085],[-6.386267775181996,53.58424812058912],[-6.3881322154761415,53.585499725948644],[-6.387731739947873,53.58643487361084],[-6.3898722319211085,53.586100361785654],[-6.389278078762482,53.58688906960055],[-6.390383105692943,53.58724165294726],[-6.3891355471857,53.59100481314018],[-6.380352019012572,53.58833210573543],[-6.368862703887773,53.588840100602525],[-6.364866366908416,53.5862733170177],[-6.3607970067633595,53.58575757210918],[-6.348574913538533,53.58134834556835],[-6.342727254070985,53.58198055081808],[-6.34322438662035,53.58024652441235],[-6.346188928333459,53.57961671882059],[-6.347461643324481,53.57673462421494],[-6.348807695481646,53.57637061758658],[-6.348020687765056,53.574581088653375],[-6.342660352819669,53.57447675154883],[-6.336587618523415,53.57619154284016],[-6.337409362184427,53.57499175075369],[-6.336640993356358,53.57353305083104],[-6.333347883164083,53.57187537982569],[-6.320402404678411,53.57493133598591],[-6.31484810903443,53.57767014075552],[-6.310396303637072,53.584060377636874],[-6.300575694433191,53.58809446560654],[-6.295075175104147,53.587328768063706],[-6.287675928426544,53.58810510019927],[-6.285671972808505,53.58917802558138],[-6.284794385691164,53.591069391371235],[-6.281068735916375,53.59250558833312],[-6.282148042287335,53.59293140970367],[-6.281987086053749,53.59396094519671],[-6.272435411287703,53.5974693080067],[-6.2712651672277175,53.59891622052845],[-6.2723879554658994,53.60372256711177],[-6.270937688568627,53.605219907110396],[-6.272577380417558,53.60757651305845],[-6.271655942388678,53.60910680501573],[-6.273896446202476,53.61221219796399],[-6.273040525633909,53.6149294745244],[-6.268502848622892,53.61565648034085],[-6.26711275816816,53.61727897289355],[-6.2679474839221,53.62388258505207],[-6.261473619086822,53.62670854192428],[-6.261393236196999,53.62900675788458],[-6.255534094737482,53.632817188566335],[-6.241131558120848,53.63472173214842],[-6.238032676289542,53.63429861006695],[-6.237974898599467,53.63158999245764],[-6.236604254254118,53.63143944573972],[-6.235620906196171,53.62988356965795],[-6.230950445771395,53.62866788028218],[-6.22518588298441,53.628703960287076],[-6.224598987127346,53.62910343462506],[-6.22578776360422,53.62959931335449],[-6.218937244688035,53.630618879169326],[-6.216156645356716,53.63204525035656],[-6.216558955862757,53.63289615195359],[-6.212766266985057,53.63371397634628],[-6.210523503352634,53.63280613909072],[-6.206739607192395,53.63310956901413],[-6.203632365289391,53.631123814576085],[-6.195323504470567,53.62974508561987],[-6.1874966366904856,53.63025229719196],[-6.186865894157466,53.62891144709211],[-6.1897499648035,53.62820452672666],[-6.188105947361908,53.626051830838186],[-6.1888215042429815,53.620816795728025],[-6.186277594406853,53.6192532512475],[-6.186733173864358,53.61825386771656],[-6.185554519926497,53.61669618431507],[-6.1826551939588175,53.61616234536071],[-6.183256926593577,53.61302897814342],[-6.180178234343809,53.61134415358131],[-6.178579180067505,53.61256477569353],[-6.1799978502814445,53.610609024558244],[-6.1777345314838135,53.61227284122442],[-6.178371455829457,53.61300158731352],[-6.17759659684502,53.61226477242151],[-6.178409946330523,53.611068478686754],[-6.17373511007387,53.60857681451727],[-6.168444189253003,53.60887712935334],[-6.164877712837548,53.607537228062185],[-6.164185090301277,53.60674513173766],[-6.165257083597526,53.605374177771075],[-6.164012988054407,53.602693667355666],[-6.15524926235949,53.59082890408661],[-6.14950843515802,53.58665745917633],[-6.145426669179735,53.58576451919081],[-6.142805370545285,53.58715314783379],[-6.134800562471118,53.586640662297334],[-6.120728078178235,53.58256796798346],[-6.112368485584947,53.58153111040496],[-6.105746617831003,53.58275165701171],[-6.105302324638159,53.58505644499554],[-6.1081096782461515,53.58509265862583],[-6.10583993977664,53.58607937399833],[-6.099527781235366,53.58543620906014],[-6.100104938484912,53.583989237714455],[-6.103060161561098,53.5841392537695],[-6.104866459022345,53.581235960280665],[-6.100470548785773,53.57180824622221],[-6.098999187869444,53.565984414167794],[-6.097278686535593,53.564731251763156],[-6.0908680359847605,53.56362184781796],[-6.088961595383279,53.56171120868683],[-6.082956664926523,53.55987494337779],[-6.0828602865302415,53.55725986125943],[-6.079266960401352,53.55321053675792],[-6.0806478734372185,53.551868247271834],[-6.079325262132621,53.551122828201635],[-6.08041791056495,53.547894224592994],[-6.07840383415774,53.54702310969464],[-6.079371475699882,53.546814980194675],[-6.079203428231016,53.546557863192014],[-6.079238241535502,53.54576287626798],[-6.079450840092936,53.54549301724644],[-6.079490851952364,53.54678090947322],[-6.083323219266626,53.54624305548006],[-6.084726707901126,53.5428345738994],[-6.083164907988414,53.541848696849485],[-6.07762266999425,53.54204008191023],[-6.076792345027637,53.541061322983104],[-6.077687438953863,53.53928937586065],[-6.083412943319869,53.53837832954516],[-6.0834101085837995,53.53514106279642],[-6.086020937516904,53.53401254181053],[-6.083324068679536,53.53299256629767],[-6.086894034105769,53.532315918359174],[-6.087078834205458,53.53073353434727],[-6.08449756274743,53.52478270647015],[-6.081086449883723,53.522602255148186],[-6.07878868216271,53.52315046285577],[-6.075272949879612,53.5219174791504],[-6.0761312134979715,53.519742908242925],[-6.084165481393005,53.51678892112623],[-6.090062195480558,53.51827073113555],[-6.093330016122064,53.51782275269714],[-6.105522961987806,53.51020568498495],[-6.10841901633754,53.50941117820514],[-6.120074914184572,53.510873237577165],[-6.119194510998558,53.51170599207991],[-6.122401570832599,53.51354644975564],[-6.122020960581057,53.51424381433804],[-6.123929674952639,53.514130376816034],[-6.133583491399661,53.51232860415263],[-6.141130507139205,53.509028567621925],[-6.147366392731963,53.50943651812459],[-6.148851056390345,53.50229858746358],[-6.1627696594695776,53.505483871832425],[-6.16149145554361,53.50315172744849],[-6.1646864874301786,53.50077739377008],[-6.1676527873529485,53.50140809714097],[-6.169366524296926,53.502605618726854],[-6.169141826476006,53.503499613178064],[-6.171064807775505,53.50361734753067],[-6.170349294131418,53.503104296980474],[-6.171842256848034,53.50285496078732],[-6.172031204023677,53.50256194733795],[-6.172020606042973,53.50242321684379],[-6.170187579412489,53.502988778574974],[-6.169737745387551,53.50225248460878],[-6.172581844349421,53.50133514445591],[-6.172619082286583,53.5006310256478],[-6.172437126374038,53.500533707048604],[-6.1722796715838255,53.500543513702134],[-6.172142362238472,53.5004596404799],[-6.170947986987746,53.50168324177501],[-6.172212168630927,53.49952178279335],[-6.175194421017528,53.499250945122625],[-6.176886064251156,53.50043930260243],[-6.179817804067243,53.50112757972311],[-6.1810809239819715,53.50065339685801],[-6.180457963327751,53.499504205912686],[-6.181829294223702,53.498321214242196],[-6.18261126931762,53.49839619616964],[-6.1839723840069505,53.49925413097341],[-6.184471792793989,53.499304906698754],[-6.182755884396846,53.49824967972463],[-6.181655123933597,53.49822170028739],[-6.180209503698152,53.49914079402049],[-6.180678958145405,53.50047420475786],[-6.179766431689507,53.500849220351185],[-6.175235976779952,53.49871160608367],[-6.1716330969085895,53.49899268822183],[-6.16973781171688,53.501446888543995],[-6.1644932918678075,53.49955303285573],[-6.154198238549202,53.49901745515766],[-6.152155602298998,53.50047361731181],[-6.149567778352175,53.5005440910822],[-6.149137613582623,53.50175145572957],[-6.148360025761343,53.500147965649624],[-6.1444598347808315,53.50118645842053],[-6.129036265557577,53.498511389498816],[-6.12011684269998,53.498602741873555],[-6.121939468187541,53.50048949334723],[-6.12619431867893,53.502162549034004],[-6.130196194318884,53.509909970049726],[-6.120072184884175,53.508797214949375],[-6.118954212370053,53.509730357490774],[-6.112838233126313,53.50376091177533],[-6.108305525516455,53.49350606042396],[-6.098837593201576,53.49325325809011],[-6.096318254666539,53.48946443106845],[-6.099837348236541,53.48807060415245],[-6.100196180224808,53.48665650562849],[-6.101324816130322,53.486960709733076],[-6.1012241335877855,53.48592711705546],[-6.103148079328019,53.48562486355478],[-6.104659654706,53.48381122440392],[-6.1109256695821905,53.482819669126336],[-6.112888781807084,53.48138627239751],[-6.113097545063068,53.47936543091856],[-6.118263093499506,53.47683689035871],[-6.124165714452074,53.46857723785912],[-6.130899952778173,53.45637121687617],[-6.1351311269870985,53.45236402442228],[-6.140818795500442,53.45384392270626],[-6.138174535878184,53.454993320746425],[-6.145404722988471,53.454068869757066],[-6.146106253923022,53.45472879328936],[-6.141622977131083,53.45575248464521],[-6.143824727827935,53.45565391193706],[-6.139158955343274,53.45666185848191],[-6.137268227869215,53.45772993814425],[-6.14729020287299,53.45529659892269],[-6.147432148231633,53.45605681410017],[-6.143958687424831,53.457792390903904],[-6.1424748019734094,53.46249579308349],[-6.132242303202018,53.4684471509207],[-6.133338606702203,53.46999082126315],[-6.145349962620055,53.47501843698078],[-6.1525401703100515,53.47618721047091],[-6.152948847451192,53.47249803071025],[-6.156391065555333,53.47458347954153],[-6.155785721994046,53.4736152693127],[-6.1572258807732245,53.47366210174937],[-6.15100337605798,53.47157062726354],[-6.148859579034492,53.472213054138685],[-6.1484830811235875,53.47142209995853],[-6.153691549523468,53.46902998593012],[-6.155211665969553,53.45934437862463],[-6.154084625218943,53.468657400841145],[-6.154753480796088,53.468939794866465],[-6.160441617891823,53.46833050348995],[-6.172549778844003,53.4695525221069],[-6.182487913099918,53.46602402846657],[-6.1867873962914635,53.46704215340218],[-6.192194656991793,53.46388500135929],[-6.1930399139456815,53.46420097497365],[-6.192048018924032,53.465068251700686],[-6.19703956799094,53.46506001407136],[-6.20612620446325,53.467770775041245],[-6.204238995799334,53.466565178470276],[-6.204429078499734,53.46498531579991],[-6.200572898482123,53.46338675998158],[-6.183859329255766,53.45940313062183],[-6.17711864360546,53.456253764613905],[-6.172873320616151,53.4561794989784],[-6.172952272834351,53.45555981858106],[-6.174425299092317,53.455084284366905],[-6.174786119020598,53.45480653903791],[-6.175130883348564,53.45434370735065],[-6.171232143546505,53.45621401001143],[-6.167981962212006,53.45611511990374],[-6.157603012865639,53.45247057224552],[-6.156549012078847,53.45296542750247],[-6.1557425178504825,53.457742751802414],[-6.154539667212759,53.457537886115944],[-6.152477331921065,53.45264056575476],[-6.138870199925887,53.45049695104653],[-6.139617850009707,53.451215974854165],[-6.1377614700998375,53.451264459994185],[-6.133403217422746,53.44658966576777],[-6.124389129853082,53.44361578499281],[-6.122038065396912,53.441484196714136],[-6.122763969657947,53.43948817087401],[-6.1216298895313725,53.43713731977283],[-6.123952362083058,53.433651761875254],[-6.1233359158551375,53.42377978533171],[-6.112974156186116,53.40458561197628],[-6.113403031878408,53.40119187612211],[-6.114570683555617,53.40010620788945],[-6.11626210344801,53.39955342106493],[-6.118442158124128,53.400392350309204],[-6.116124577484366,53.39970134548648],[-6.1171543366789685,53.400334464652225],[-6.115855056195617,53.400533924432445],[-6.121977742569948,53.40062393514745],[-6.12235433381864,53.40259367182887],[-6.122170160194029,53.40257573750422],[-6.121923416614485,53.40266986354751],[-6.1217671553842115,53.4025768665612],[-6.121601226009623,53.402533323303025],[-6.121418338579309,53.40228482385648],[-6.121199192477258,53.4021581552461],[-6.120095110293106,53.40194660933842],[-6.121523534567177,53.402570399648255],[-6.121749965039402,53.40259187608765],[-6.121900990469167,53.40268047636999],[-6.122115579752319,53.40271129334258],[-6.122390579482629,53.40261077129342],[-6.122617221838399,53.40272445071368],[-6.122424504200317,53.404264852072835],[-6.1244840124380975,53.404877218883215],[-6.123652780878809,53.40510229083807],[-6.1251112509565395,53.40877139560032],[-6.13040278666877,53.41902240662109],[-6.136163650085378,53.41938398189789],[-6.141709581171108,53.41828350183249],[-6.142470040084849,53.41783395387472],[-6.139286855060021,53.41662667320259],[-6.135496193446557,53.4176909081108],[-6.136894920556061,53.41162623310684],[-6.135332668680079,53.40736607030445],[-6.133357569370756,53.406430549536054],[-6.129771474075574,53.40103916755734],[-6.126806575722255,53.39925696217379],[-6.122624828353894,53.39444450573316],[-6.1136193623605894,53.392104367056916],[-6.113082383564443,53.39287852331461],[-6.115456910546876,53.39596183316897],[-6.114738669470963,53.39622590954415],[-6.106947134979048,53.39304666604145],[-6.085148719328203,53.3922654407544],[-6.075678274509324,53.38945981737092],[-6.068421619810046,53.39308499103986],[-6.067819402226952,53.39243720741417],[-6.067907666574084,53.39216737739335],[-6.068660530993633,53.39254663616051],[-6.071654536587117,53.3899595772371],[-6.0687145312789585,53.388808148605406],[-6.069550902732904,53.39065865115693],[-6.068285077901495,53.39164697665002],[-6.069093612887567,53.39037596860822],[-6.06729517778673,53.38881901461204],[-6.063832541666328,53.38874801834011],[-6.063901304979696,53.39075058529862],[-6.066612618852759,53.391018829762935],[-6.062905704455663,53.39172723840661],[-6.066692967999294,53.3928957624717],[-6.066728722310312,53.39416463988753],[-6.062493839069443,53.39180804591874],[-6.06320518518321,53.38872262245426],[-6.062382558572015,53.386388012664355],[-6.049789243987348,53.386177921082776],[-6.045144066291893,53.384906024351885],[-6.045698884088189,53.38311217742292],[-6.043990127429072,53.38062389371527],[-6.0449572901851205,53.37932872301479],[-6.043927686572732,53.378826550856154],[-6.045280723382279,53.3774514041696],[-6.044419923874577,53.37663321851943],[-6.046042547583056,53.37389846610355],[-6.049976595978626,53.371122792614194],[-6.049636117727954,53.36997900188412],[-6.054877559102533,53.36668904835743],[-6.052724505370435,53.36502463397285],[-6.054015208325533,53.36412631298742],[-6.052142913035995,53.36355142678697],[-6.051838059729571,53.3611160508697],[-6.057465541787179,53.364094635662944],[-6.061149115687989,53.3631039753219],[-6.065116070021221,53.364487708274815],[-6.069289733020848,53.364403220727496],[-6.0713853646911025,53.36383918666218],[-6.071292664932676,53.36265503538328],[-6.074430737215725,53.36217580885816],[-6.074949031866425,53.360558384092094],[-6.076421628807779,53.35997471791718],[-6.08050713907537,53.361396512815816],[-6.081504236936927,53.36076867726644],[-6.082165534225242,53.36218783647831],[-6.085089987823208,53.36284235390663],[-6.090963591954666,53.3677020829827],[-6.096250396336197,53.36920995265417],[-6.098509325126805,53.374147025533865],[-6.102326950625656,53.37719975578712],[-6.102790324445809,53.37995469223009],[-6.1013154476047005,53.38439637847983],[-6.10284098949293,53.38597908077734],[-6.116402384045452,53.388636235997296],[-6.1271340401527,53.38799131606258],[-6.144343997005565,53.38413771795935],[-6.1574740314815815,53.37856475537799],[-6.161688729715975,53.375478869439235],[-6.162488718839779,53.37432669470162],[-6.161490198509872,53.373272242439576],[-6.152999152925559,53.37229520208005],[-6.147676343026851,53.37679896637253],[-6.148941876693489,53.37549217283744],[-6.147003045622119,53.37495941763306],[-6.137311875983768,53.3794429703047],[-6.113094513726579,53.38283341816369],[-6.11683514566583,53.37969240457077],[-6.141486200927998,53.37001310114906],[-6.153064546995294,53.3629585602813],[-6.1649369509128045,53.353035066419146],[-6.1620172579838455,53.35074134748301],[-6.179375584681472,53.35925071544305],[-6.176363942143983,53.35859520788283],[-6.1734478173785226,53.359458027505184],[-6.171925627418283,53.36235618403255],[-6.170346972262958,53.36339051299577],[-6.170129838284478,53.363313156508696],[-6.169353186422294,53.36279749936851],[-6.168907101436918,53.36255944194759],[-6.16965919104986,53.363518851153565],[-6.17029929926069,53.363388991049426],[-6.169497545145094,53.36406299902996],[-6.166877355751768,53.36353276543025],[-6.168853634402759,53.364485830429786],[-6.1676533566372775,53.36556768941593],[-6.1665061970388635,53.36578009541747],[-6.166393940037904,53.3655793803553],[-6.166436811411367,53.36522355731581],[-6.166074488871183,53.36394274060828],[-6.165779160190856,53.366024187808065],[-6.166827367163586,53.3661252248132],[-6.164474313933285,53.368674371317134],[-6.159183379762958,53.370903986796236],[-6.157890249134998,53.37003829456773],[-6.157625556006783,53.37005906978579],[-6.158531712817863,53.37145230815545],[-6.156604184677862,53.370757833905664],[-6.155854746827816,53.37076190340174],[-6.155620595767813,53.37093898407999],[-6.15395333789001,53.3712151909545],[-6.153804302068675,53.371294606375116],[-6.1537604974459565,53.37135286451265],[-6.156551248553582,53.37082266619234],[-6.158285038110985,53.37159482977847],[-6.158035876844716,53.37236851946611],[-6.16495838587239,53.372635426175705],[-6.165290877593921,53.37147893773166],[-6.182121606105809,53.360744339530534],[-6.181157046320094,53.36014819378062],[-6.191565513721125,53.357779481607075],[-6.202763576817897,53.35974608459728],[-6.212158042436525,53.36006550131512],[-6.220577404753071,53.362578576398924],[-6.23387164207147,53.35801937980734],[-6.2310889438845605,53.35732329320967],[-6.227009340511363,53.35918861624157],[-6.2179495816381944,53.3570990473838],[-6.210427731771206,53.35669165120008],[-6.2107797974059125,53.35362231149226],[-6.19593697953049,53.3532095106391],[-6.195642871855987,53.350406084987114],[-6.1891801807717135,53.350277209972475],[-6.189783547960873,53.3464779356599],[-6.191482183435498,53.34652934895982],[-6.191187460493181,53.34831442443092],[-6.193325733841551,53.34828466060952],[-6.192890257920776,53.34515604758446],[-6.197589788564008,53.34496354147701],[-6.1986428564529374,53.34811917701216],[-6.200082501047374,53.34805475255094],[-6.200332264759967,53.34511307909276],[-6.203728918085154,53.34485524453726],[-6.203686700497114,53.34727689996261],[-6.206457249615873,53.34751629447666],[-6.206718998824695,53.34497594248082],[-6.2067865740363715,53.34700959213761],[-6.212143389707842,53.34721938808906],[-6.2104275413639,53.345345603141155],[-6.212423790398353,53.34544709372587],[-6.215927648664958,53.34860766051478],[-6.221803730917777,53.348916086186726],[-6.218852681796723,53.347798089358406],[-6.221509921673041,53.34797398967992],[-6.223138505598308,53.349492204371074],[-6.224101171617876,53.346967462340295],[-6.2163392740938805,53.34573652073486],[-6.227242440787581,53.34650154773735],[-6.227056314210655,53.34491433104785],[-6.217303499548675,53.34334497723469],[-6.197940177587687,53.34236511344354],[-6.198905271166883,53.34068855635588],[-6.2035602654778605,53.341276490198894],[-6.198885966830521,53.340587507109205],[-6.19748915651023,53.34191885745991],[-6.195277371191285,53.34191243786168],[-6.193192691587221,53.34116537695907],[-6.193383976851659,53.33977474093462],[-6.192521936286205,53.34119891714935],[-6.159742891382472,53.341146649727364],[-6.15114958976177,53.3421906265493],[-6.159635747040043,53.341025372120725],[-6.1791290029118,53.34055332810819],[-6.182634411500407,53.33757371895875],[-6.192466545325669,53.33743616707486],[-6.194478331720331,53.335088996450565],[-6.209580606215942,53.337252853832794],[-6.21297533256061,53.33438927845765],[-6.210592394739669,53.33267206318093],[-6.206478771823906,53.325240113440366],[-6.205772131216789,53.319055970277695],[-6.204399970314739,53.316751537331264],[-6.1927610537400435,53.30878320812405],[-6.178160044052544,53.302797701028986],[-6.160170334232758,53.298440865976346],[-6.159181590025613,53.29714407851258],[-6.153024971629989,53.295587751140495],[-6.150702069596907,53.295669414406525],[-6.15082779968859,53.29645397875261],[-6.147981980787973,53.297754764788785],[-6.147035145943122,53.29713998477623],[-6.139657371103632,53.30278655081108],[-6.13512049197403,53.304165534908684],[-6.131583157705044,53.30382819094766],[-6.13058136952991,53.303182164264406],[-6.135093204259107,53.30389063096799],[-6.137629940370675,53.30307209453661],[-6.1363051374094315,53.30118356423654],[-6.135699743921082,53.300282132982005],[-6.135727722964713,53.3002567288899],[-6.137668971917139,53.3030675358021],[-6.139250304441673,53.30258599753119],[-6.146815369302112,53.296336418211766],[-6.14321753650752,53.296287108839735],[-6.144298649822111,53.29724651940786],[-6.141186624682306,53.29787611127141],[-6.142365212919383,53.298842721262844],[-6.137650480143837,53.29639659638021],[-6.133715863565335,53.297017583514865],[-6.134857232950552,53.29836598846989],[-6.138083056737471,53.299626871543595],[-6.1379974575052945,53.29968899270703],[-6.134973975972183,53.29849919724774],[-6.132048586723179,53.296734958016636],[-6.133174385510018,53.295733362313825],[-6.129957418726034,53.29312588885355],[-6.1247096487628205,53.2979086352466],[-6.124231705160383,53.30023837300875],[-6.127340785840259,53.302404538144984],[-6.126034649522447,53.30249756063529],[-6.123737832736659,53.300342679215866],[-6.1241228267417345,53.29773812666461],[-6.129409682890661,53.29265723638511],[-6.128299939637864,53.29150918277703],[-6.120142011972321,53.28780191827431],[-6.114982699852254,53.28780341526369],[-6.114288879636538,53.28880647036119],[-6.114997688010031,53.289066585242594],[-6.113576794177986,53.28968065345862],[-6.107371654037124,53.2846756689607],[-6.1081782503053725,53.2855003219639],[-6.106299599351293,53.28585228066072],[-6.102520698491492,53.283970974546975],[-6.098140289535265,53.27860573288344],[-6.093055342193065,53.274925826963496],[-6.091298512087861,53.27033891050421],[-6.095396562331703,53.270424267308485],[-6.106580911367211,53.26592763143433],[-6.111004911403482,53.25999463067526],[-6.112115480266188,53.256826109963676],[-6.1126167211500695,53.24638256309119],[-6.111831799150022,53.24059608397675],[-6.108282763467063,53.2320394658973],[-6.102778705292742,53.2107728950608],[-6.107591819299062,53.210206013776734],[-6.108619073678321,53.211181239799906],[-6.114249100038027,53.20797946449339],[-6.117048679753793,53.210716406029775],[-6.119161791815528,53.210507258119634],[-6.119411659263526,53.208058960107444],[-6.126233516663534,53.20750046978887],[-6.125181689628607,53.20405648170986],[-6.128615061397269,53.20393591052643],[-6.129452688649909,53.20251603058997],[-6.128791225925755,53.20084245563168],[-6.132189231119627,53.200028151847334],[-6.131379961541075,53.19886857265466],[-6.136904286564499,53.19912675723421],[-6.14740464569083,53.20344115743404],[-6.161766823739256,53.20255760762437],[-6.168810550742141,53.20831589753533],[-6.173505483649954,53.2094520380803],[-6.175121476001464,53.21309252820848],[-6.18232100465806,53.22086686945816],[-6.194918704579706,53.21653065259979],[-6.202461408866564,53.217134941159486],[-6.207163280432037,53.216172401739975],[-6.208942319498613,53.21442614084862],[-6.208325954118646,53.211109701970216],[-6.210779993014929,53.21032050602995],[-6.218311735215629,53.21234640841878],[-6.222909484177663,53.21149579341613],[-6.227239009500741,53.20839826569665],[-6.227283306075621,53.2052592039274],[-6.239551607883087,53.20217402844111],[-6.259343010888389,53.20511530132813],[-6.268827901419012,53.209557093756],[-6.275995287031025,53.21111887928878],[-6.292146052804613,53.222817628978945],[-6.3045414086122005,53.22458575838595],[-6.310826771966863,53.22222287684609],[-6.308452859322933,53.21870231788015],[-6.30765287233796,53.21447049880566],[-6.312125963823689,53.194528786670524],[-6.332066493004835,53.178197387383484],[-6.347288376489042,53.18095749514512],[-6.354234566032857,53.18476197252226],[-6.360567115728547,53.186271576429924],[-6.374636216883923,53.19244926590656],[-6.370112724815418,53.21028125358641],[-6.368360290752148,53.21380388679235],[-6.3758535133132535,53.216058619766905],[-6.382317044586256,53.21432255901341],[-6.392640725250098,53.21347626901256],[-6.39791487747174,53.211847298303105],[-6.402830396659273,53.20819586069569],[-6.401315766330402,53.211305156199366],[-6.402643519688595,53.213499688041665],[-6.405739174481783,53.2171028304795],[-6.407456154425587,53.21765863270856],[-6.410576309624439,53.21630561956179],[-6.412576856232735,53.21776085677156],[-6.4140850152573305,53.21936417392019],[-6.416541818583023,53.22744119905537],[-6.419761521706262,53.231309808953974],[-6.423586112507512,53.2305108475612],[-6.430897717552384,53.23156738319836],[-6.454644977669856,53.23123721818564],[-6.45746370121535,53.22965619754087],[-6.457487938387496,53.22702146473042],[-6.460997191419189,53.22519688724446],[-6.461117959177401,53.22608843216201],[-6.46949408855547,53.22985596194112],[-6.475227126912826,53.23436921856036],[-6.471808843894448,53.236801413589625],[-6.472230482399176,53.237931873674796],[-6.496350722098179,53.242333835987054],[-6.516842377933552,53.248834192056904],[-6.522735031978497,53.24716422336149],[-6.526285542379472,53.24829004987512],[-6.5285292561608115,53.246822683457694],[-6.532941054372604,53.24830554122326],[-6.531505766819625,53.2500284030706],[-6.5335668773502045,53.250893814051494],[-6.532522777557065,53.252419721086284],[-6.535947232302749,53.25391674587585],[-6.529822208608205,53.256594005956245],[-6.526986699999992,53.25961404411019],[-6.525332179973816,53.25903162917525],[-6.524556129027279,53.25694680914643],[-6.521221958060911,53.25834052285164],[-6.517734312071624,53.26190597982024],[-6.510810779179575,53.26110305105228],[-6.510692333609521,53.26238894657564],[-6.508885655210387,53.26210392433713],[-6.506848769078623,53.26482135362012],[-6.5085528149386125,53.26613629642851],[-6.514866740756563,53.26397812642001],[-6.518152364532635,53.26465072654875],[-6.524253050509857,53.267743475118856],[-6.527516744665443,53.2674918216569],[-6.529643367539817,53.2685225903643],[-6.531149318020993,53.27059059730432],[-6.539149302747578,53.275387871465675],[-6.5463317861607075,53.27509273791224],[-6.544633024388925,53.27798459225174],[-6.546885336117479,53.27942068336482],[-6.543894048694758,53.28210599152514],[-6.535515621636891,53.284260198258906],[-6.533040843838416,53.28730405669045],[-6.53069973002172,53.28715712397452],[-6.528587757838085,53.290863595550555],[-6.526731567956733,53.29979815807054],[-6.525986165250671,53.29971072636459],[-6.526970485950567,53.30159609819774],[-6.542407301997582,53.3069808536114],[-6.528083963080389,53.3135469527969],[-6.531567884170056,53.315627135545476],[-6.531094746594326,53.31740832130976],[-6.527778399300285,53.318979248513436],[-6.524753417221407,53.32224712742038],[-6.521083849616584,53.32311444747385],[-6.520085003648209,53.32464074737487],[-6.517763053096638,53.32508980147707],[-6.514550161593714,53.323440675468156],[-6.511504087118769,53.32330800100378],[-6.505552328618447,53.32460672122555],[-6.503940629241949,53.32413857476696],[-6.505156168129719,53.32263556979043],[-6.501124982283917,53.32096407339003],[-6.49812685636002,53.32694988094889],[-6.4933818020167005,53.33035826751475],[-6.49523000447114,53.33102512319444],[-6.49508461679151,53.33249890312246],[-6.492962540533127,53.33434348177132],[-6.491155030249566,53.33418102762094],[-6.4904764169973586,53.336710500144584],[-6.489154808395122,53.337624991775414],[-6.490434617804648,53.338568744956774],[-6.4925225261921575,53.337900510733036],[-6.493483558675249,53.34014591799059],[-6.492760616181667,53.34110935097923],[-6.496630104749008,53.34112481663801],[-6.496168668078546,53.3421585687539],[-6.497977981387494,53.34314205839583],[-6.498717203384161,53.34601372878723],[-6.493320920775807,53.35073815622252],[-6.493141239606166,53.35334775363376],[-6.494993075550336,53.3533783143251],[-6.491188741242894,53.35749436771782],[-6.489476503024661,53.36279648712679],[-6.474949871758707,53.36297924519419],[-6.471432110227522,53.375861775914096],[-6.466610608330445,53.38499816245966],[-6.463434733351249,53.3840551994009],[-6.461088797778149,53.38753133412431],[-6.457070043825557,53.390485219905656],[-6.4511641750712565,53.391499813452846]]]}}]}