{"type":"FeatureCollection","features":[{"type":"Feature","properties":{"name":"County Fermanagh","source":"OSNI Open Data 50k County Boundaries (OGL)","simplify_tolerance_m":75},"geometry":{"type":"Polygon","coordinates":[[[-7.689828502425742,54.607742070369866],[-7.691524587863837,54.61031497585901],[-7.69637343547239,54.60794644835072],[-7.703401223004973,54.608287588674685],[-7.7088049266728,54.6064490002421],[-7.716468244675213,54.60610766678617],[-7.725500483750559,54.60358959075932],[-7.728050719443466,54.60406729069881],[-7.728949714448791,54.602676048061284],[-7.734796778715881,54.60188026288719],[-7.743326714855194,54.598910097427634],[-7.746106194854726,54.5998597521024],[-7.748624425012816,54.599258404440874],[-7.760026183439583,54.59440570101883],[-7.763457770956759,54.589559046568155],[-7.75924655263201,54.58727180915933],[-7.761946457689062,54.586176417803124],[-7.766702662047744,54.58602847057141],[-7.787650174431819,54.58010511577114],[-7.791195782130824,54.58050992268193],[-7.791924776937294,54.58161218958285],[-7.794479662387682,54.58109979418269],[-7.797195091280025,54.579329291266745],[-7.795886456472094,54.57811188938189],[-7.797461711870243,54.57711595042539],[-7.798617883256223,54.5779045364076],[-7.799319649584477,54.57669239237264],[-7.798983203404969,54.574332589560825],[-7.796559836668241,54.5717672345157],[-7.805439849267214,54.56607502300905],[-7.808771975267049,54.56664212598819],[-7.811963553465263,54.5641091043794],[-7.818217402641736,54.56330255650686],[-7.82196709950493,54.56062133157186],[-7.824365696472903,54.55701670332091],[-7.827698830175606,54.55674946440277],[-7.828420513325763,54.55605655293826],[-7.82713136261204,54.55573299035156],[-7.832725177139141,54.552629642536395],[-7.830476468340869,54.54835334923834],[-7.824061007629448,54.546640405694994],[-7.823751068761255,54.54462686087004],[-7.828154782608974,54.54299664546],[-7.829810913438656,54.54097916045694],[-7.843924092928379,54.53747597263284],[-7.850320332777474,54.533077493358576],[-7.853941217732372,54.53565537200966],[-7.857954770172239,54.53662641649386],[-7.868041972994222,54.53486312811996],[-7.876420444123577,54.53588317741205],[-7.880864496595412,54.535191462490126],[-7.88425854433009,54.53703716140233],[-7.886075841374178,54.53627505375896],[-7.890052651169383,54.53695274211674],[-7.893765333860785,54.535226249713844],[-7.906931215106185,54.53755137975164],[-7.912689483265396,54.53618523833051],[-7.919828080118443,54.53688414261129],[-7.924774944017044,54.53495510038873],[-7.937792012695199,54.5332781741277],[-7.94416058127348,54.53600037397452],[-7.949376762835428,54.533913316415514],[-7.951693671301882,54.53402657358711],[-7.953624110390789,54.53449945535816],[-7.956876256214532,54.53789517281683],[-7.959154781152272,54.538278069120665],[-7.958678355442851,54.53962454894222],[-7.960646792687242,54.54108586342228],[-7.969103787968603,54.544256803230255],[-7.970531039002202,54.54726794841749],[-7.990928600927969,54.54322801167575],[-8.00599388000744,54.545947587148305],[-8.012943942000364,54.53790350738475],[-8.01396694678188,54.53565671584039],[-8.012251334889637,54.53425895311477],[-8.013250922146842,54.533072484989816],[-8.017382604795765,54.53203860957939],[-8.017535902780995,54.5299715887471],[-8.022631033331729,54.526533035299806],[-8.02614140759883,54.52221838182136],[-8.028920437909864,54.52113956016124],[-8.039062006378666,54.50990257496467],[-8.039986866469716,54.50844170484801],[-8.03898212581927,54.50729608875682],[-8.041451146052493,54.50632928818423],[-8.038012691062471,54.50280255848163],[-8.04186063745756,54.49300476263449],[-8.042780843499324,54.48788142721699],[-8.06363657584947,54.48677380422301],[-8.076918705894032,54.487394395996816],[-8.078502260526008,54.48829226026574],[-8.080855107634704,54.48820096414869],[-8.080853170696725,54.48727989680397],[-8.086138408875339,54.48756843155423],[-8.098590002560922,54.48434635552919],[-8.095613963776744,54.481809504827275],[-8.097266938501837,54.47958403914933],[-8.094760220378689,54.47965313464198],[-8.091204737362716,54.47651000542678],[-8.096027648804972,54.477495277547305],[-8.11334061703424,54.47646996330048],[-8.114610103028667,54.47534537239148],[-8.114105123672894,54.47411005679877],[-8.115299682440245,54.47383939840478],[-8.111897322675448,54.47065153724365],[-8.114669405032298,54.46923355821788],[-8.148371462763048,54.470007737510585],[-8.163984292424335,54.469224304829496],[-8.173923976792645,54.467345834956184],[-8.177812641156848,54.46491298266458],[-8.170168592592226,54.46453323413647],[-8.169771549794623,54.46094778479167],[-8.16768360023632,54.45944509772131],[-8.15220870059848,54.45499348417115],[-8.142905279028133,54.45091577022987],[-8.146097986864532,54.44913719453735],[-8.145784389227067,54.44765443542779],[-8.148633089341985,54.44672989755969],[-8.150126665276245,54.444189166750256],[-8.157526086105305,54.44474066347182],[-8.160605672704556,54.44390538639788],[-8.161792556504972,54.44201646234111],[-8.158389837000088,54.43898738841695],[-8.097819427781328,54.406692179561404],[-8.09534236171404,54.40398032162075],[-8.090562882863763,54.40171452252703],[-8.089596216646715,54.399827883608616],[-8.08408561657269,54.39740495751374],[-8.083232878526573,54.39457464332326],[-8.07633369306082,54.389928030803965],[-8.073822525456121,54.38503135959445],[-8.067425557951529,54.38002454717547],[-8.06353106233562,54.37503857031129],[-8.064221285574373,54.37357760449918],[-8.059834249197019,54.37297312442104],[-8.060178746114612,54.37178215447415],[-8.058138634450048,54.37106412164101],[-8.059175695879405,54.370052419760356],[-8.057329320817473,54.3701431492807],[-8.055903926283696,54.368661017560726],[-8.058787152131199,54.367491227840695],[-8.056401528831115,54.36708787763535],[-8.05716914199334,54.36589689768409],[-8.052015821279447,54.366595418127],[-8.049322328788953,54.36596744776902],[-8.047125942333256,54.36297990475494],[-8.039202244218998,54.36275783216313],[-8.03685240651484,54.35925363138755],[-8.03158140059917,54.356873054944394],[-8.025507575869883,54.36026710055148],[-8.01796743367132,54.356785692683566],[-8.012545343925892,54.3582467880643],[-8.008161992585896,54.36112326018053],[-8.000913066912831,54.35846158956106],[-7.997644401989287,54.35576504906234],[-8.001142818384231,54.35097913225397],[-7.999950856531943,54.34783330378325],[-7.99720009642032,54.34627121932983],[-7.986512085460137,54.34429297707099],[-7.982976395783063,54.34004581416338],[-7.982439543465165,54.336068923316006],[-7.972511735176873,54.33108871991522],[-7.963527932140282,54.320637126907634],[-7.961613885611274,54.31245754073545],[-7.946646924437836,54.30459571116774],[-7.930633093737553,54.30346372715682],[-7.926098771447165,54.304674654921776],[-7.918689322358677,54.30323134744798],[-7.915360622980127,54.297386382763406],[-7.911177785973889,54.29603495754503],[-7.906107705389116,54.2966378300791],[-7.901411212942737,54.301353214464434],[-7.88824092893263,54.3005098997005],[-7.88395035277145,54.29682027343105],[-7.884262676610789,54.295045491202806],[-7.881161083468604,54.292166052734046],[-7.874664319288802,54.29465384541393],[-7.861843267246281,54.293516010425286],[-7.8633299118978,54.28973223370719],[-7.864791667211826,54.28870047789109],[-7.870589735825809,54.28818970401043],[-7.870217847575192,54.28389996838285],[-7.87151339465605,54.283414304636295],[-7.87287014054136,54.27925857237075],[-7.870726250609177,54.27754831344425],[-7.872426324790245,54.274022053403186],[-7.871601150144012,54.26806590197747],[-7.872641137604722,54.26683117346351],[-7.864338121894064,54.26032530833564],[-7.860383970370967,54.260504068725226],[-7.86213811321808,54.25248200180948],[-7.859067077392782,54.24223126609358],[-7.859905066083931,54.22976655640404],[-7.858493264634333,54.22554506711988],[-7.855379834954428,54.22251864310216],[-7.861525396529054,54.218863090795736],[-7.86018804937668,54.217692812863184],[-7.811437377292818,54.20099598237927],[-7.803477921476242,54.20702843133266],[-7.782429603829232,54.207504867171366],[-7.780507847651651,54.20875959686586],[-7.776025177352047,54.20877415555486],[-7.77224036413279,54.20721700395989],[-7.770476754191347,54.207438540475664],[-7.768397274580201,54.20945674677307],[-7.768499733656591,54.20761723128491],[-7.762344321148681,54.20755868894915],[-7.754295334479139,54.209901280133096],[-7.74797619110157,54.20946179505115],[-7.746387734350188,54.205864115286204],[-7.744175210407358,54.204242089666955],[-7.739773025158319,54.20369356433073],[-7.731529778879825,54.20482172705166],[-7.722650422041596,54.20347678806588],[-7.716822656321215,54.204472470296935],[-7.710508586530189,54.20335609609408],[-7.701986469981477,54.207929911846556],[-7.694263388176811,54.20407081872894],[-7.691854871816378,54.20389989516136],[-7.689419662282325,54.206815025992015],[-7.685389706596267,54.207725675492384],[-7.685128542155263,54.20676290545444],[-7.686614953522403,54.2065301265573],[-7.688553121912978,54.20351098111021],[-7.688272998247079,54.202139452880175],[-7.689375649561323,54.2009106733503],[-7.688249903477277,54.2003403751138],[-7.689452413357849,54.20013009607282],[-7.687908622003101,54.1985859351803],[-7.684504354632343,54.19781290519872],[-7.684407747599683,54.19531821182644],[-7.685647151299055,54.1934786803802],[-7.681622572444741,54.19378256606229],[-7.679336937605499,54.19209059524316],[-7.679525239756734,54.187372114016966],[-7.6778512635348,54.18586179468771],[-7.67657861434707,54.181948112919976],[-7.671949568938599,54.18132838923251],[-7.667167596637144,54.18625015031855],[-7.664244669521751,54.18777034209597],[-7.656136905064868,54.18566522295059],[-7.653181983628019,54.181656443699374],[-7.645559394933105,54.17725153727087],[-7.645772085256201,54.175689526322095],[-7.628321111613216,54.169220471301045],[-7.628104603985258,54.16769175414122],[-7.625291616052217,54.16543538238665],[-7.626556161044214,54.16089999807421],[-7.625335341447221,54.16044669148638],[-7.625739470479428,54.15589452310783],[-7.624238102118688,54.15267560474906],[-7.611357779749579,54.14701474665692],[-7.60935885392797,54.14551696472877],[-7.610689581420539,54.14354254237807],[-7.592748034283408,54.1397916135942],[-7.583177329476673,54.14246157202326],[-7.578792650275322,54.14091770162531],[-7.574265114434478,54.141470507136056],[-7.575635941274808,54.13464225527186],[-7.574085299015678,54.132950939699626],[-7.569614027233365,54.132597552020826],[-7.565943371283901,54.1265106581653],[-7.557318308051705,54.128372343891826],[-7.555004732649947,54.126021261049196],[-7.547845633781841,54.12227516601413],[-7.546469939985547,54.122623812304475],[-7.545891964303041,54.125628344323225],[-7.544587954346366,54.12642298148077],[-7.546527960576823,54.127311911176754],[-7.54655033921583,54.12924716510602],[-7.544444645087578,54.128283574304135],[-7.541663790520471,54.12882944519344],[-7.537930805440086,54.12712896463548],[-7.536233521416893,54.128448426259745],[-7.537048012206762,54.13098638747928],[-7.527399183632671,54.135801616106846],[-7.522316003237196,54.132935837849146],[-7.52165126366708,54.13093378376511],[-7.519563380021705,54.1298583241674],[-7.508822571721518,54.13001090864515],[-7.502339428311626,54.12647151411788],[-7.495837068551827,54.126224935693486],[-7.491883732825096,54.123301135247324],[-7.48590628337239,54.12354834004636],[-7.4796865328849,54.122246722973934],[-7.471783701594178,54.126727305559555],[-7.472575319439554,54.13076259123629],[-7.471354263817977,54.132994480615565],[-7.466860573521967,54.134157158613355],[-7.466146089997483,54.13709035641995],[-7.468478169458714,54.140814691197036],[-7.466085404397258,54.141883815916344],[-7.462409508309103,54.141661423337155],[-7.453200031355371,54.14501838168012],[-7.452290037708095,54.1475470926111],[-7.442275550709162,54.15369161385932],[-7.43162196740697,54.152045145759615],[-7.426996007730621,54.154518231771625],[-7.418311296743025,54.1543860873456],[-7.409333671887672,54.15633234118751],[-7.408989841570091,54.15330614514762],[-7.412660438711391,54.14810952768936],[-7.425075959987025,54.14124703976289],[-7.421876035154871,54.13754554208334],[-7.419402256896874,54.136656789350155],[-7.409567745861196,54.13962023840812],[-7.400026220591476,54.14076399507232],[-7.391825577663687,54.136541671193925],[-7.387562830965738,54.13768854483015],[-7.383684588592855,54.14124260329878],[-7.376635322061931,54.14194745983113],[-7.373933135160838,54.14117015810665],[-7.372613027958048,54.13899808282082],[-7.375913794351844,54.13652667941653],[-7.38156020523518,54.1349379102127],[-7.392014931689018,54.12726249629344],[-7.394180463379574,54.123216520934115],[-7.392200725726282,54.11992548514502],[-7.387187425796221,54.1229815450248],[-7.381041583213617,54.12358397215928],[-7.370456772757239,54.130653968320004],[-7.363358749744665,54.13166184255939],[-7.351401533592214,54.12392083165141],[-7.346765338469453,54.122097306709094],[-7.34702421837487,54.11780549110243],[-7.348199297741853,54.11665791802283],[-7.34315816970332,54.11567143662654],[-7.339843786337381,54.11733897421946],[-7.335997803261169,54.116373660721806],[-7.334033652458955,54.12024244788756],[-7.328834591858519,54.12255029051087],[-7.327014707190419,54.124527251708166],[-7.323258486770593,54.122289395734164],[-7.324657589604571,54.12082667855831],[-7.323921938340261,54.11766376877609],[-7.321734995498482,54.11699761727024],[-7.321301973716443,54.1147674239468],[-7.318609261255498,54.113267603235784],[-7.314047979777985,54.115206350527174],[-7.313889223060651,54.11628778283226],[-7.307547708017513,54.11737044566844],[-7.305732399474635,54.119441547276935],[-7.305399226144123,54.123145234612544],[-7.315983620057558,54.12677985270794],[-7.312086023203957,54.1312080030921],[-7.318541014185767,54.134032336352156],[-7.319099119948858,54.137317180796146],[-7.322725666285838,54.13776497508927],[-7.327628048305173,54.13502787233717],[-7.331005090602664,54.139070449744324],[-7.330018196995652,54.14095297579526],[-7.334679822409941,54.14367631455835],[-7.338806984590796,54.14396915132041],[-7.339650378450203,54.14624392906749],[-7.332967866416767,54.1478252687911],[-7.325601406403417,54.151424929096734],[-7.32392636633644,54.154434214899034],[-7.318984060765747,54.157125384979665],[-7.319850941638266,54.159057384304845],[-7.317638978740407,54.15983680049774],[-7.317972188767646,54.1605355634509],[-7.313007921781852,54.16450708156614],[-7.311629214782543,54.16454386034155],[-7.310593237078399,54.167032427978356],[-7.306565359165431,54.167525837521225],[-7.300214607826494,54.16604663636613],[-7.292491557535205,54.16997967884971],[-7.290910452343174,54.17190555978396],[-7.279981420068784,54.167342264130255],[-7.285738640118882,54.15757672471941],[-7.283892912984802,54.15367704785059],[-7.290020506263886,54.14892605125445],[-7.298938621864671,54.14873151521281],[-7.301370892236259,54.1436568221418],[-7.283990589768397,54.13975022743579],[-7.285193826421583,54.136476228131144],[-7.292480998817932,54.13052412603318],[-7.295736174015524,54.131234442252605],[-7.298666992292028,54.13372495955252],[-7.308957069756717,54.132107623405716],[-7.302918757978398,54.12649677249541],[-7.303649530672077,54.12572056410725],[-7.303211499468506,54.1222105388276],[-7.292219189271926,54.11879647649982],[-7.28405094020198,54.1226708380049],[-7.278738115944354,54.12250405926663],[-7.278182841115169,54.123669235778166],[-7.27947907529277,54.126148971855834],[-7.277860691399618,54.129083219715376],[-7.268766985761571,54.135387642726144],[-7.262822171987542,54.13734973340783],[-7.261771961449414,54.14112950045072],[-7.263758255256759,54.14329807819223],[-7.263757586652783,54.145191758964366],[-7.261455759561708,54.14743433479885],[-7.256931846281095,54.1481459545859],[-7.25689367073026,54.14902247811249],[-7.258502174597091,54.14894290860789],[-7.259028150893251,54.15166519666771],[-7.256525301546031,54.15470601670632],[-7.252491082660321,54.15560217268436],[-7.252628413279991,54.15863681796423],[-7.258291375007381,54.16091953805644],[-7.25917758435206,54.162768090471936],[-7.257812181526618,54.16422010204401],[-7.245092439884109,54.1690841949951],[-7.240220071657389,54.169637476485086],[-7.240729345301322,54.171123934849874],[-7.243691156809459,54.17249131816889],[-7.251929359645635,54.17249418471264],[-7.252906583975264,54.176459131177005],[-7.256260988779452,54.176188787899065],[-7.257928556849947,54.17716541371345],[-7.256278766496498,54.181672164131626],[-7.259374288722869,54.18423093983464],[-7.257164059592476,54.1857678602044],[-7.25597589718166,54.19014276456713],[-7.258980557530659,54.192163862732826],[-7.250906489574731,54.193866599727656],[-7.244268452136966,54.19240873048559],[-7.241069805612171,54.193467527772405],[-7.236102145288449,54.193287323691116],[-7.235527745511635,54.19610325384107],[-7.23325555775731,54.197620834972305],[-7.243277149892767,54.20051700828806],[-7.249076367601168,54.198146149965474],[-7.250304618811009,54.19959463147042],[-7.247945515770728,54.20438489595722],[-7.238861138366973,54.206664540153206],[-7.231830876156979,54.205540628610315],[-7.231496094117711,54.207089117776555],[-7.233623440240969,54.20811420079129],[-7.23203057999386,54.20929500983212],[-7.232539909366865,54.21078140307377],[-7.220795513228815,54.215851587034614],[-7.215623352933814,54.21368264962409],[-7.208473770934166,54.21275876344564],[-7.198580568431501,54.21575748472184],[-7.195198696107762,54.21750164926897],[-7.19546614773645,54.21954841511804],[-7.18929030523169,54.22437101724475],[-7.183883803989972,54.22447539364496],[-7.184761872512852,54.22399282701831],[-7.183922792768016,54.22180712262022],[-7.184954936107518,54.219971293373135],[-7.179405467135314,54.220280075168134],[-7.176876418429864,54.218329881020004],[-7.170646781604082,54.21745495840905],[-7.157660981287018,54.220893342259906],[-7.15302061514912,54.22101777012102],[-7.151714267759998,54.22303163892263],[-7.145810153300573,54.22494505131824],[-7.147587310458182,54.22612667674819],[-7.14628140372609,54.229960847724165],[-7.149535437227491,54.23134248293905],[-7.149692420857129,54.2330516356389],[-7.146646625985993,54.23574913403715],[-7.145726602111518,54.239495368795765],[-7.15325444127434,54.24274032821865],[-7.158844786695374,54.243671152534134],[-7.158395099851124,54.245039206481316],[-7.153567530299722,54.248136018356625],[-7.148298334874037,54.25070533375164],[-7.143467652398925,54.251002098952895],[-7.14228015564363,54.25276943831766],[-7.143594603932607,54.255970601530294],[-7.150330087715636,54.258338373062294],[-7.150386681239028,54.2595928898177],[-7.151535615856429,54.259769721495644],[-7.153878818988485,54.26514705613957],[-7.152426289188775,54.26662340658632],[-7.155184326886397,54.266867663818175],[-7.158980348100383,54.2689394503064],[-7.157178513639514,54.27074693841694],[-7.161838368518477,54.273791266943775],[-7.165083485816153,54.272735151686845],[-7.173414731773491,54.272613505966426],[-7.177329566123056,54.270662983083746],[-7.17996464017787,54.2732879093885],[-7.180230007758995,54.27542479568163],[-7.177797879019296,54.2780823134815],[-7.17354626781766,54.27955865553479],[-7.173187773412458,54.282162893897116],[-7.171278859206335,54.28356562462289],[-7.172128413241473,54.285256757202674],[-7.181934216041242,54.286425607034346],[-7.180337289054099,54.28758324210779],[-7.185904791615692,54.28757631515665],[-7.189190819436218,54.29038547765131],[-7.199301303226959,54.29377987747279],[-7.202854429424748,54.29472508935762],[-7.206510720279842,54.29429996775378],[-7.211884821000321,54.299708424043686],[-7.20714118361104,54.3027565158031],[-7.206615182333849,54.304985247082236],[-7.202682104121497,54.305802978832034],[-7.198049900042361,54.308555850265726],[-7.197359317645019,54.310551548669785],[-7.191149080640717,54.311813839462516],[-7.182642163684882,54.31058799837052],[-7.181668478984599,54.30925514106978],[-7.178505038478201,54.309930405766195],[-7.178874602193282,54.31467557085022],[-7.177580719036521,54.316015197759505],[-7.177923449418833,54.31817533304554],[-7.179611836273733,54.320299433330874],[-7.179761079967714,54.32452592240959],[-7.181451354692298,54.328582910667286],[-7.18065897427522,54.33181421971569],[-7.183493704111704,54.33503167425841],[-7.194618055939562,54.34202817082583],[-7.20104183886279,54.341846359834136],[-7.201752068930354,54.340929672072775],[-7.201123998101563,54.33727778108857],[-7.205936604472991,54.33692743667006],[-7.211053334762779,54.33469064858057],[-7.222449532249749,54.33379807118507],[-7.22671103383292,54.32989229162263],[-7.227151495907101,54.32703319155146],[-7.233308321035646,54.32695370979981],[-7.236516279126936,54.32543676451126],[-7.241010775800716,54.328148438328874],[-7.245978439298852,54.327249225346634],[-7.247559576513289,54.329147070601316],[-7.255020804632585,54.33331469909454],[-7.258679399055023,54.33299168844404],[-7.262596928601361,54.33733907582822],[-7.260830222863385,54.33937345941101],[-7.261422269092822,54.340635399748024],[-7.271904426050111,54.34428727093545],[-7.270738011399845,54.34729199635579],[-7.270634997302862,54.35428777665934],[-7.27129341104051,54.356179443617776],[-7.273538670135216,54.357518949049435],[-7.271169202015383,54.36096529771749],[-7.275440143957952,54.36303621099902],[-7.276604619183371,54.36677373420309],[-7.280823024919623,54.37187781677114],[-7.283649166961804,54.37262256669172],[-7.289436649625573,54.37047683392111],[-7.292215251736653,54.37383285859212],[-7.294969638003243,54.37474790018154],[-7.295402860188594,54.376391031677855],[-7.301709201381215,54.37438250995209],[-7.298313886121909,54.37270002090025],[-7.296539378827597,54.36882978175369],[-7.300916929192315,54.368984423768026],[-7.302361583818255,54.36770051930552],[-7.307737309273683,54.368327166351094],[-7.311156211280212,54.37128525919536],[-7.316090613415228,54.37072878647835],[-7.320953256601613,54.36835312272973],[-7.321600101147985,54.36979924932956],[-7.328636564147229,54.37001829951295],[-7.334494722740851,54.37173627406871],[-7.330759012156802,54.374300136863454],[-7.331913259149445,54.37664361989287],[-7.331114858655457,54.37839219124067],[-7.340244298186156,54.38401112817681],[-7.334857849304069,54.38818313260126],[-7.337313803467994,54.39231447583801],[-7.333344218891606,54.39496688624526],[-7.332977154255568,54.39622315414604],[-7.329000243426785,54.39694278961015],[-7.328635470463986,54.39805727959684],[-7.330664391942535,54.39850007999089],[-7.331999998951043,54.401743825576695],[-7.330262352498564,54.40467656599136],[-7.335091744422033,54.40578581996467],[-7.339934616657156,54.40868881722793],[-7.344549336158095,54.408776226085486],[-7.347186091261443,54.41097385961236],[-7.346421234139686,54.4131274585873],[-7.349501858572625,54.41572851259555],[-7.361585886285968,54.41966132774858],[-7.35981683017768,54.42149217791796],[-7.357231123092959,54.422108167410045],[-7.359460298080809,54.42560359898032],[-7.361287134915952,54.43190569847413],[-7.366594739089868,54.43743947424459],[-7.3764684686231,54.43683894564105],[-7.381477529833076,54.43938181240462],[-7.387391123753927,54.438220790505916],[-7.390559425211197,54.4427763407762],[-7.396685389764622,54.44031273121142],[-7.402220765912467,54.441261622828435],[-7.404587133640985,54.44019445424063],[-7.426765086326015,54.442684373958166],[-7.427732077902102,54.442419156872866],[-7.421331841041223,54.439669226301895],[-7.422731578712743,54.435226259268426],[-7.426042330336623,54.43272530205004],[-7.443235872422557,54.42642357689883],[-7.451760400619309,54.425631072153685],[-7.472079669832674,54.42131689535263],[-7.480076595121407,54.41647526270125],[-7.493821276160355,54.41379206187909],[-7.495626317081317,54.411102827980436],[-7.503665056945732,54.40875417964684],[-7.509321208986928,54.40556732192483],[-7.514713602948052,54.40897871097972],[-7.517103441793811,54.411999721704596],[-7.52795579872698,54.413768125989414],[-7.532927660324459,54.418435234309776],[-7.526235911813733,54.42138436623836],[-7.540876250660166,54.42673054915241],[-7.539976813201454,54.42810830690344],[-7.540728714540713,54.42988676925052],[-7.547312548500204,54.43415913117719],[-7.555221169696346,54.433357016837505],[-7.554020108818072,54.43398176697331],[-7.554600725188015,54.43504758035834],[-7.551912135295627,54.43665123792689],[-7.553828243914676,54.43884946098329],[-7.561979362919334,54.4369097414435],[-7.558757868733413,54.436426955321416],[-7.559106877265286,54.43546132351719],[-7.568700011829761,54.43432701286075],[-7.567569823537871,54.43169367040106],[-7.577463510280579,54.433835020692484],[-7.584429062373421,54.43137078037397],[-7.594737099467332,54.43700304323914],[-7.60389213552239,54.43449371316569],[-7.61254278022839,54.44036319462667],[-7.622403804778766,54.44109127437214],[-7.624370740031321,54.43952109560909],[-7.626301016309162,54.440297410350404],[-7.624272426460964,54.4430784377348],[-7.625069967787332,54.44867847392864],[-7.630537323305195,54.45361824184788],[-7.622546551439111,54.45498700380545],[-7.614269694213658,54.45806297642419],[-7.611685803554857,54.45816699881745],[-7.610593058133031,54.45599958681089],[-7.608589814624394,54.455813152248],[-7.607271883349055,54.456573265424396],[-7.605568045575678,54.46104679175473],[-7.608294033225529,54.46222462530531],[-7.620426975759278,54.459109136238766],[-7.622211882172129,54.46215666894908],[-7.617390282579923,54.465518177475154],[-7.620529410618246,54.46636938040585],[-7.620847972921305,54.46804210478581],[-7.6182525413218,54.469360111128374],[-7.618507667825692,54.47097936277565],[-7.629132803527685,54.47434305685022],[-7.628552912551084,54.47540637136023],[-7.630736493103718,54.47725603017034],[-7.63523385714278,54.4792474250318],[-7.636491338723362,54.48261181361256],[-7.63574794443806,54.48382344905689],[-7.630902234732647,54.486550939915425],[-7.614785081458335,54.4899847405364],[-7.616929175512798,54.49174494439902],[-7.615767424058023,54.49223566282176],[-7.610830315097692,54.4921075527006],[-7.610625208978381,54.49341060944673],[-7.59878222769463,54.49325927963364],[-7.596839744812647,54.49464664395055],[-7.590811454521614,54.49508277902311],[-7.587587264560928,54.49782973976262],[-7.581952839826271,54.4979002164727],[-7.581090219307305,54.503112280242895],[-7.574918170283812,54.50586436643604],[-7.576283553143848,54.50699211492702],[-7.576193601341357,54.50914857910532],[-7.572539693710288,54.51082206612479],[-7.571209141389274,54.51263784620528],[-7.572792934737722,54.516508872674535],[-7.571557411174362,54.520543848077274],[-7.561779587908855,54.528463767316246],[-7.564493216348839,54.52922682034162],[-7.562949777690783,54.53093985708179],[-7.556803070535149,54.53212289751018],[-7.556934288374555,54.53425185014227],[-7.56192351287977,54.537074484716726],[-7.560122395957083,54.53872734267496],[-7.56005352057054,54.54149110992778],[-7.558017158832362,54.54400071904574],[-7.548868382882707,54.54333757195416],[-7.543614564335578,54.54428438052841],[-7.545724941011627,54.545859010803085],[-7.544943928275406,54.54668092052175],[-7.538829270159203,54.54751197467377],[-7.531680378693894,54.55103544232229],[-7.527954433140414,54.556032745014626],[-7.537566541876218,54.56192413420235],[-7.53912896683015,54.56608181807547],[-7.545202615728277,54.57022274990565],[-7.552704656988412,54.570025856816535],[-7.571611441864091,54.5661619147367],[-7.588255832481146,54.564061007499966],[-7.586869080220652,54.56759705721619],[-7.588507827668756,54.56871291773505],[-7.59081552227982,54.56688005839099],[-7.596516716661053,54.565426792291525],[-7.599262214657777,54.56589573641998],[-7.599568040359688,54.569089208141705],[-7.601860719694824,54.5729960255963],[-7.609533830116805,54.57547032724687],[-7.614213588524432,54.57541805773026],[-7.620115412601295,54.57716710455177],[-7.624425849187169,54.5799263248708],[-7.622922779922167,54.583629158940894],[-7.624730516279749,54.584690876231384],[-7.640499668414874,54.58349492457755],[-7.642721785788266,54.58478050087126],[-7.657850626051455,54.58267721498687],[-7.659542520502225,54.58382792508007],[-7.668906222114019,54.58315747427534],[-7.669439728647955,54.58414764420352],[-7.668073122579004,54.58578414369036],[-7.672039351018335,54.587929609547714],[-7.673844319502252,54.58955236246192],[-7.673752697280524,54.591372040115964],[-7.67618081208587,54.59243465755733],[-7.676207596143231,54.593962667159],[-7.674142686119646,54.59586715548414],[-7.679027047943214,54.599497872879965],[-7.67605773204992,54.60321999936958],[-7.68195977446205,54.604844996587644],[-7.690758857263707,54.603325867867355],[-7.693841604033365,54.60501886928234],[-7.689828502425742,54.607742070369866]]]}}]}