{"type":"FeatureCollection","features":[{"type":"Feature","properties":{"name":"County Kildare","source":"Tailte \u00c9ireann Counties National Statutory Boundaries 2019 (CC BY 4.0)","simplify_tolerance_m":75},"geometry":{"type":"Polygon","coordinates":[[[-6.494993075550336,53.3533783143251],[-6.493141239606166,53.35334775363376],[-6.493091943081129,53.35125547025366],[-6.498717203384161,53.34601372878723],[-6.49841577779981,53.34422859628371],[-6.496168668078546,53.3421585687539],[-6.496630104749008,53.34112481663801],[-6.492760616181667,53.34110935097923],[-6.493483558675249,53.34014591799059],[-6.4925225261921575,53.337900510733036],[-6.490434617804648,53.338568744956774],[-6.489154808395122,53.337624991775414],[-6.4904764169973586,53.336710500144584],[-6.491155030249566,53.33418102762094],[-6.492962540533127,53.33434348177132],[-6.49508461679151,53.33249890312246],[-6.49523000447114,53.33102512319444],[-6.4933818020167005,53.33035826751475],[-6.49812685636002,53.32694988094889],[-6.501124982283917,53.32096407339003],[-6.505156168129719,53.32263556979043],[-6.503940629241949,53.32413857476696],[-6.505552328618447,53.32460672122555],[-6.511504087118769,53.32330800100378],[-6.514550161593714,53.323440675468156],[-6.517763053096638,53.32508980147707],[-6.520085003648209,53.32464074737487],[-6.521083849616584,53.32311444747385],[-6.524753417221407,53.32224712742038],[-6.527778399300285,53.318979248513436],[-6.531094746594326,53.31740832130976],[-6.531567884170056,53.315627135545476],[-6.528083963080389,53.3135469527969],[-6.542407301997582,53.3069808536114],[-6.526970485950567,53.30159609819774],[-6.525986165250671,53.29971072636459],[-6.526731567956733,53.29979815807054],[-6.528587757838085,53.290863595550555],[-6.53069973002172,53.28715712397452],[-6.533040843838416,53.28730405669045],[-6.535515621636891,53.284260198258906],[-6.543894048694758,53.28210599152514],[-6.546885336117479,53.27942068336482],[-6.544633024388925,53.27798459225174],[-6.5463317861607075,53.27509273791224],[-6.539149302747578,53.275387871465675],[-6.531149318020993,53.27059059730432],[-6.529643367539817,53.2685225903643],[-6.527516744665443,53.2674918216569],[-6.524253050509857,53.267743475118856],[-6.518152364532635,53.26465072654875],[-6.514866740756563,53.26397812642001],[-6.5085528149386125,53.26613629642851],[-6.506848769078623,53.26482135362012],[-6.508885655210387,53.26210392433713],[-6.510692333609521,53.26238894657564],[-6.510810779179575,53.26110305105228],[-6.517734312071624,53.26190597982024],[-6.521221958060911,53.25834052285164],[-6.524556129027279,53.25694680914643],[-6.525332179973816,53.25903162917525],[-6.526986699999992,53.25961404411019],[-6.529822208608205,53.256594005956245],[-6.535947232302749,53.25391674587585],[-6.532522777557065,53.252419721086284],[-6.5335668773502045,53.250893814051494],[-6.531505766819625,53.2500284030706],[-6.532941054372604,53.24830554122326],[-6.5285292561608115,53.246822683457694],[-6.526285542379472,53.24829004987512],[-6.522735031978497,53.24716422336149],[-6.516842377933552,53.248834192056904],[-6.496350722098179,53.242333835987054],[-6.472230482399176,53.237931873674796],[-6.471808843894448,53.236801413589625],[-6.480159474447676,53.22953230862934],[-6.488132121954304,53.22566784963228],[-6.492859866814925,53.22128844170332],[-6.497051351294617,53.22249235583168],[-6.500725491135664,53.21749755590604],[-6.50875157104875,53.21438904933709],[-6.508608953727067,53.21088531948515],[-6.510285647060217,53.21022398951868],[-6.505707116697083,53.207156944686105],[-6.499675128698126,53.20498799477694],[-6.5012678056788396,53.20399557709575],[-6.500080015848424,53.20243422407756],[-6.517767430755617,53.18923574784983],[-6.519815397338207,53.18640069753241],[-6.529328946559535,53.18999056975505],[-6.538582507626486,53.190696139287915],[-6.539060725325352,53.189333835895034],[-6.555746836957927,53.185587298612866],[-6.561970065848519,53.179371746035216],[-6.561284921943426,53.177987467112],[-6.555429293264064,53.17439243162433],[-6.555763499978046,53.17361964362291],[-6.544292370422736,53.169833660480286],[-6.539970353936572,53.167142180438404],[-6.54625055066193,53.16489774292251],[-6.552786534460735,53.15998664623772],[-6.5535665640036544,53.15768484624314],[-6.54971548816145,53.1559362163578],[-6.54960021868023,53.1535731912416],[-6.555491385114917,53.15425350429384],[-6.556536631274931,53.156585131805905],[-6.55762382122342,53.15518275585717],[-6.562899689849322,53.15619222442283],[-6.576347550082934,53.14931518005129],[-6.5751773620684695,53.14688608882932],[-6.578863655063072,53.14617792668383],[-6.57837427595043,53.142741030180375],[-6.575740163509708,53.143330298863624],[-6.57452789163921,53.14058619483355],[-6.574593624175809,53.136464545817475],[-6.576378690517965,53.136296220275696],[-6.576528483776193,53.135266204430955],[-6.565408184575969,53.13200533410397],[-6.568318102429964,53.12930260642523],[-6.572719932907737,53.13029896113322],[-6.57547471799552,53.12786729320223],[-6.571825690066732,53.12310744083928],[-6.579821599041638,53.12419538732323],[-6.582146192860417,53.12054268509163],[-6.584799941843507,53.11910878215783],[-6.586510260651927,53.11853113801874],[-6.590828924949473,53.11956896522562],[-6.594939758337516,53.11686869527976],[-6.592087312720068,53.1147967849169],[-6.592641722048074,53.1133290337219],[-6.59930026468929,53.112519205422956],[-6.598441342799617,53.1092702393612],[-6.5953964079679155,53.109165857325834],[-6.595336285571048,53.10802796308272],[-6.602164829010569,53.10802659751107],[-6.6038251339126415,53.105356019943976],[-6.610818148129364,53.10509783613855],[-6.610245408171593,53.10304546536439],[-6.6109939132909545,53.10195170405982],[-6.620299933161222,53.10287061075138],[-6.624313601490423,53.104468527179414],[-6.6264809010760795,53.10088017764077],[-6.626380013073923,53.09790177667237],[-6.6292834515041745,53.09208719422809],[-6.652367194984552,53.09103849083715],[-6.658058013275608,53.08808169624161],[-6.662264807398244,53.088895591936804],[-6.66651055731686,53.082010799319114],[-6.681012376238199,53.081523095426355],[-6.683513716327408,53.07757029245772],[-6.694714988478983,53.073755498695654],[-6.699630155045517,53.07375197269142],[-6.702920767826118,53.07232207519343],[-6.707403019759667,53.0741360814365],[-6.710993946934876,53.07350225956273],[-6.721266639548011,53.069968085916244],[-6.725071674433803,53.066726612145374],[-6.729829525731025,53.06655720456711],[-6.733208865832389,53.065126658063605],[-6.729660411558143,53.05945570397805],[-6.731061387653761,53.05524235183621],[-6.73106765662018,53.048234056686894],[-6.73344352296748,53.04496668082074],[-6.736591296966905,53.0438263415385],[-6.737277088094243,53.04022464825545],[-6.751603700233101,53.03082831105289],[-6.751106063661295,53.02963523323686],[-6.755589739969515,53.02562323326981],[-6.7619638268796844,53.025429850353255],[-6.7645900336907125,53.02640561682082],[-6.76572276046289,53.023982126937376],[-6.7719255484670455,53.022692748261186],[-6.777443077317816,53.019105965207515],[-6.773101888830609,53.0176511947782],[-6.776295737668862,53.01354327087803],[-6.766114987598874,53.00874166573833],[-6.774607410262821,53.003944879226026],[-6.7870580210152855,52.9996125378024],[-6.785784834929824,52.99796875854936],[-6.792177125119184,52.9920597612725],[-6.788533521309931,52.988886653644386],[-6.791981032854137,52.98641736591915],[-6.789471306800438,52.980368025377345],[-6.787228921862436,52.97698412975091],[-6.7855718248541175,52.976274737562974],[-6.779012555728861,52.978169321707185],[-6.770513449097981,52.96632476229398],[-6.76914759980872,52.96642241980372],[-6.761440775573042,52.95941666669372],[-6.758978734796525,52.959075771851694],[-6.751864850799746,52.95311033130309],[-6.742448743292058,52.94818834848496],[-6.736741989223084,52.94117069274109],[-6.7361905164397875,52.93874025105768],[-6.7365823293970974,52.93745632693687],[-6.740031171770875,52.93518652689678],[-6.733652347072376,52.93272942252168],[-6.7347454886691045,52.92950893662768],[-6.731044850058755,52.92857864561124],[-6.730458550965682,52.92685120304778],[-6.732750820074519,52.919908020126115],[-6.736677903225062,52.91670778404779],[-6.739400296725373,52.912169514906715],[-6.742428939054656,52.91140166731335],[-6.745839192138708,52.91256684082894],[-6.748713299212319,52.907425345797606],[-6.746255370545919,52.904513064177046],[-6.745193925433646,52.89925778850187],[-6.749752844258059,52.889648120139526],[-6.750710552246857,52.88883673926268],[-6.757980703491166,52.88995647398288],[-6.76547880905911,52.88940773108112],[-6.76519414713079,52.88613045556422],[-6.76778944164116,52.87945442025982],[-6.772495804912028,52.87906316960216],[-6.777950644077567,52.87633040016023],[-6.780894758047625,52.87450754680941],[-6.781054422386773,52.871913116303766],[-6.78650887670798,52.87180281588264],[-6.7879093858651665,52.87043725212138],[-6.787294209905285,52.869269220069484],[-6.788455633680185,52.86592872975798],[-6.798377759063149,52.8693453938825],[-6.809580679066552,52.87166782031622],[-6.8112428229629085,52.87290015705563],[-6.816527267412538,52.87198487824537],[-6.818270716797033,52.87048120959929],[-6.826228428757554,52.87223584194221],[-6.828080265998504,52.87025940810252],[-6.825240022626282,52.869019074531806],[-6.833849893560505,52.86345970859039],[-6.839120607274629,52.86183794883889],[-6.840769858484503,52.863481574561945],[-6.841712276250997,52.86370196610509],[-6.842725754932986,52.86224961883481],[-6.845707899528833,52.86399583320405],[-6.845803530151455,52.860267056055335],[-6.8482473962308905,52.86007189829985],[-6.850452948927782,52.86185302627219],[-6.856328485797133,52.86129020189622],[-6.87110233485139,52.876155378375856],[-6.877028519199021,52.876217811623604],[-6.876513893865542,52.87328344932107],[-6.87068402995882,52.86900956810561],[-6.870220855674327,52.867829075147995],[-6.871829696898139,52.8675642921839],[-6.868537417904878,52.86171917417359],[-6.8760050291926005,52.86042145742102],[-6.879697680164348,52.85757980297643],[-6.887466439254926,52.86214763044274],[-6.89690279165374,52.86532006489676],[-6.9035498946543346,52.866089612219035],[-6.909302641313216,52.869460474564264],[-6.912696506003751,52.874752225380185],[-6.918300812615094,52.8771699920587],[-6.921100687840299,52.877037774691644],[-6.922810339955831,52.87982673319312],[-6.921784396901311,52.885887187114925],[-6.930920001078891,52.884665263355906],[-6.933174501561853,52.88290661161855],[-6.934027064798669,52.87995735883367],[-6.93941939460369,52.88004741271696],[-6.940011580599429,52.886844921241554],[-6.943368627864617,52.89101892091896],[-6.940701430808012,52.89633088095342],[-6.935761088011784,52.89992553225548],[-6.936976202342993,52.90547540598186],[-6.934015686283065,52.91125943924205],[-6.93476936628088,52.915228948799026],[-6.9379931813140425,52.921058232394955],[-6.945422718611963,52.926643444528274],[-6.9460348083721835,52.93028647998236],[-6.948897498336638,52.93257345341789],[-6.951620845444372,52.937128074138066],[-6.954329930174196,52.93871370907656],[-6.953628525965341,52.94351391356202],[-6.954856096955188,52.94737373085615],[-6.95926375452739,52.94904886295343],[-6.960248309112682,52.95027673875675],[-6.959840698373641,52.951772853280836],[-6.963773455096535,52.95325831729227],[-6.965780150178156,52.95598605002067],[-6.970270557481471,52.95889085334399],[-6.968996126386037,52.963463153755505],[-6.97035390687762,52.96502990252205],[-6.970383246532415,52.96904309205754],[-6.972634385522016,52.97239909992264],[-6.9778764395630635,52.97428924991477],[-6.980042448731188,52.97809665837464],[-6.983457763229091,52.97785142201584],[-6.989407832359321,52.97499973473359],[-7.014006090191262,52.96893619262444],[-7.020229400821899,52.96609511379779],[-7.022806696312387,52.9705704333402],[-7.019069122965288,52.97185173302761],[-7.017638673711336,52.975249166489135],[-7.0227875051993385,52.97465067947004],[-7.035180075230046,52.97872132881282],[-7.0431349372299605,52.97695601477138],[-7.0483988501728385,52.97889395245594],[-7.049402008677344,52.980789870038016],[-7.0536312159333345,52.97825995258701],[-7.056175103317483,52.978505132242816],[-7.057620460492065,52.98109513989209],[-7.065425888760237,52.983133515732355],[-7.06864040475129,52.99118100679734],[-7.070988785491618,52.99285597233236],[-7.075850371453917,52.99384339961527],[-7.079462978569605,52.99753989252396],[-7.081467980046436,52.996296794813226],[-7.0883971169550195,52.999222988287286],[-7.090143083238828,53.00140960194633],[-7.090537751395826,53.004748976068164],[-7.089818782033529,53.00706017695182],[-7.0852585990657095,53.01082027446052],[-7.086340803142259,53.01422571974007],[-7.0756106996905785,53.01769457991483],[-7.068717888981146,53.021253575320024],[-7.071870427294055,53.03117559597391],[-7.067316753326782,53.03527423391887],[-7.068649223830985,53.03614393672624],[-7.064798543575768,53.037519405523014],[-7.058018779763893,53.03765086010915],[-7.048240545853678,53.04194242150467],[-7.05431088252426,53.04129726884626],[-7.059995793205936,53.043504628695295],[-7.058812091920898,53.04899813404611],[-7.059948490838913,53.05037668439841],[-7.059850405052523,53.052459448933575],[-7.047932011247159,53.056441037459585],[-7.047478939059203,53.05906646847735],[-7.053939124462183,53.06715364063546],[-7.047425235470995,53.06847932338516],[-7.045105518534881,53.073723948771665],[-7.048007691135417,53.077788620540225],[-7.048359484093841,53.08014740080508],[-7.050085049982395,53.08059500398412],[-7.052155680269116,53.08362744301127],[-7.0513664359310395,53.08495991232056],[-7.052091256771315,53.08660046271661],[-7.055525687974181,53.090145779132044],[-7.052964792700462,53.09421111772963],[-7.055469184159737,53.1006669620799],[-7.05898605550739,53.10510676542332],[-7.06713818022223,53.108367540519566],[-7.069294293890061,53.10623450700533],[-7.073770373414929,53.107129453503674],[-7.07324458167133,53.108742655664194],[-7.075450890813069,53.10976484248897],[-7.074835058162636,53.11184302652438],[-7.076383919118317,53.112355420604075],[-7.0771649392864,53.11497840734569],[-7.075663885615719,53.11633365057737],[-7.079301690208043,53.11894266425913],[-7.0783373668645195,53.121638590060236],[-7.085248915086743,53.125199793355726],[-7.083745776581025,53.12814793531761],[-7.088637970388734,53.12975432621003],[-7.091981996548459,53.1329802940557],[-7.102994698648733,53.13600498849454],[-7.096541168167486,53.14061005282384],[-7.093290323466562,53.14976907992233],[-7.093320443579553,53.151735800556246],[-7.0985793874821015,53.15476499224454],[-7.100504934637946,53.1581572961071],[-7.096233326767063,53.15912867671403],[-7.090425392687814,53.15752714077737],[-7.085782661903874,53.15784136153172],[-7.079128303507034,53.15342980946238],[-7.0773458698659,53.1506927242093],[-7.072865934702536,53.14930416387947],[-7.070937272210176,53.150640843680854],[-7.070473221163723,53.15276102627905],[-7.068971323954619,53.15342874451552],[-7.06880231841595,53.155698451193054],[-7.067564116510158,53.156087702890304],[-7.063321510224978,53.16202429976254],[-7.063940322797925,53.16626577373404],[-7.066402056712471,53.1695818288239],[-7.084174584103296,53.173156076682744],[-7.088991212463104,53.17205710647655],[-7.098985910737592,53.17244478514644],[-7.1020461352153,53.17100017138729],[-7.103235160094382,53.168661583987074],[-7.106025877631179,53.16803401416937],[-7.124850746957652,53.18055038139783],[-7.135200799521896,53.17929292591323],[-7.159027669211956,53.18134649823356],[-7.165272441451779,53.1820883823948],[-7.168935204009912,53.18491355924585],[-7.165897060924441,53.18720628671071],[-7.160052061313699,53.18898388398281],[-7.158144371029293,53.19093978247727],[-7.151311410626325,53.192314709085146],[-7.14936039143609,53.19144280981228],[-7.142242294903077,53.19147072255505],[-7.135992547552037,53.18903793145316],[-7.128902125563644,53.19023464046737],[-7.123185889795991,53.18847427111605],[-7.1195089765822575,53.189388806490534],[-7.1172266794441486,53.1887551439134],[-7.114957526156604,53.18987933064497],[-7.109109759842684,53.18771050664456],[-7.1003754883826655,53.18688711224438],[-7.0911510088574055,53.18870710473752],[-7.086730116123559,53.187167732168106],[-7.086053463829765,53.188257830492205],[-7.077699531091026,53.19062699536546],[-7.069425268619236,53.19135495673864],[-7.03605074428401,53.19001833770631],[-7.035292506414353,53.19829567912946],[-7.036340414807501,53.20102787685733],[-7.035290212612613,53.204608690749005],[-7.037928708579482,53.206712623700085],[-7.041017370720228,53.207043742581284],[-7.041073206729626,53.20837275885855],[-7.035796538579637,53.20836708218084],[-7.028732987228192,53.211729280970076],[-7.02609166784642,53.21205487463963],[-7.024526313354498,53.21113532258589],[-7.019735305669742,53.213397356133285],[-7.014400479992552,53.213729390156956],[-7.012179159037882,53.21805340774484],[-7.020003625241046,53.22186683253994],[-7.022893138121942,53.22435350531908],[-7.026853137453361,53.22486098338236],[-7.036598905983621,53.22886365709315],[-7.037107840896871,53.227313531594774],[-7.04096778825393,53.22481045787108],[-7.0492009448584545,53.22412668936398],[-7.058293554594258,53.22885506307487],[-7.071961059302361,53.23025804769854],[-7.070854562970074,53.23317891732581],[-7.072236905279835,53.23473714067559],[-7.06941099816399,53.235978978026615],[-7.064396685452578,53.23625298216293],[-7.052559222280008,53.235561743218106],[-7.0496450540733235,53.237585290400894],[-7.051884943391906,53.23947017799211],[-7.0548977875917815,53.24011615099337],[-7.054603735727069,53.242723086354474],[-7.019079573724024,53.25322352948618],[-7.034747973145938,53.27628967558876],[-7.034296495711132,53.2783274618041],[-7.032144576436564,53.27984889199773],[-7.024425157499652,53.279151937703986],[-7.01538892690911,53.28200272906957],[-7.005239032588473,53.28330911847366],[-7.003525971131531,53.28147983807144],[-6.991501557710596,53.28627953333297],[-7.007337600422678,53.290998445609716],[-7.00658777741823,53.29251825280795],[-7.013326084187381,53.29633595671275],[-6.977712534227902,53.30766031246139],[-6.979229677057069,53.31319296306247],[-6.990489142798723,53.321353889706906],[-7.024601507913639,53.330870004326286],[-7.02483975240449,53.33752947774383],[-7.021587336165192,53.339312215286434],[-7.023851661829698,53.34339762461927],[-7.032907198547792,53.3488052256089],[-7.042118493578458,53.35671534344663],[-7.045654459689975,53.35739516651243],[-7.055138353790664,53.35420815893943],[-7.061988192403708,53.354382657938416],[-7.07348034775541,53.35920569714252],[-7.089153650223704,53.36971977622393],[-7.086508255755905,53.37237357233715],[-7.085511761000254,53.3764176745351],[-7.082486333629018,53.38095562062175],[-7.078732634057521,53.38274165140197],[-7.076884083599206,53.38628602619281],[-7.0776718920038935,53.38930183808669],[-7.076650536816745,53.39342731588834],[-7.075049640549624,53.39561233768251],[-7.056663536997544,53.401844996055566],[-7.045087852962472,53.40809434174895],[-7.0335026005294985,53.409714626750265],[-7.026559850528966,53.415730363270214],[-7.025852443220676,53.41923433684623],[-7.024237189124167,53.42108440203123],[-7.013771261481811,53.42514838886853],[-7.012192839778601,53.4275690042117],[-7.0120361393074,53.43031315919628],[-7.009591847044054,53.43252138773712],[-7.008756620833628,53.43622213935117],[-7.001089023451795,53.43872474278031],[-6.995300818573936,53.441950562566824],[-6.989981652507576,53.44155413670431],[-6.986160006740718,53.442852271064424],[-6.976943957182731,53.44876535033179],[-6.96307768970139,53.45123733733222],[-6.958259126749351,53.447103624998945],[-6.951367677526469,53.444123016693844],[-6.949743406675834,53.44137974263049],[-6.93238230382789,53.4465346051898],[-6.917252820777441,53.449380444449154],[-6.915689528189204,53.448217220070426],[-6.915417365049889,53.444416938775234],[-6.914047133723629,53.44198222026682],[-6.914873030169977,53.437027441307855],[-6.910562258986456,53.43519568381374],[-6.9029033329291,53.4289494291068],[-6.891103751634279,53.42597449376335],[-6.889672274935529,53.42401851855846],[-6.889900932252245,53.42126414981806],[-6.88709403317428,53.42041689199963],[-6.886721143147552,53.417882303437324],[-6.884512054353029,53.417586102494305],[-6.885023921115993,53.416743145542306],[-6.883457249431845,53.41497839030683],[-6.864040632692643,53.41257725751433],[-6.861855330552649,53.411822480336596],[-6.861377048153477,53.4092159236701],[-6.853315039319509,53.40547418369334],[-6.847611202364503,53.404041392266116],[-6.843156602327406,53.40478610443215],[-6.842090132960552,53.40363491069288],[-6.8355603768444615,53.40313069570045],[-6.832602922363258,53.400682675011566],[-6.81997459303859,53.40120937594876],[-6.811554459839153,53.3984679368145],[-6.804360480787666,53.4041296196583],[-6.802002436425722,53.410289217130185],[-6.795456398744499,53.41335885200351],[-6.795612737952264,53.41796972228516],[-6.7918214464983135,53.41805164100934],[-6.786103234383291,53.42134193458152],[-6.7856680339554805,53.42050974392094],[-6.78223864206075,53.42184217535142],[-6.77737673607588,53.42586164427713],[-6.769481846469769,53.42878789038497],[-6.758511643026842,53.428213296728494],[-6.752659316288215,53.42919341196921],[-6.731421333782068,53.42537893638045],[-6.719717405841889,53.42045537602473],[-6.712443482071172,53.419553362581155],[-6.709455033169343,53.42051146990031],[-6.705321064341783,53.41764978685587],[-6.6956824093481355,53.41585150172045],[-6.694800051879942,53.414460428732625],[-6.692004126159945,53.41461278544104],[-6.679018621434485,53.40885497019425],[-6.669416535883673,53.40783367607581],[-6.665785405904433,53.404771276603114],[-6.665704567934922,53.40080951772595],[-6.664221801456632,53.398491100351],[-6.654133654635703,53.394910060720015],[-6.625001449557405,53.39791128390934],[-6.6122225692733885,53.397493015200865],[-6.609103991016525,53.39860875577543],[-6.593147910287889,53.396086345050335],[-6.578278371746563,53.38911102490297],[-6.573016070642453,53.389201215894644],[-6.567719883443722,53.38789609755569],[-6.570514035311738,53.39063897593252],[-6.568960005765004,53.39285310886049],[-6.564667368951408,53.39394645089754],[-6.55371564180905,53.40248723605609],[-6.548617823093679,53.40520487377649],[-6.546573803040989,53.40518128520126],[-6.545460303577876,53.403427208075485],[-6.539912649779757,53.40053514048324],[-6.538906888402834,53.39698344799962],[-6.533163660012254,53.39449859209037],[-6.522999949209353,53.39396990006325],[-6.520528138378077,53.390225099179105],[-6.51732615577414,53.38882661689769],[-6.514646144108374,53.39087103838737],[-6.507994027027267,53.38876087154701],[-6.5068284016719335,53.38700253122752],[-6.500715212432048,53.386484518125194],[-6.494879476431191,53.38433764724631],[-6.493535140266638,53.38425099755925],[-6.49083338684026,53.386700117064095],[-6.488496705653116,53.3868009015789],[-6.487639739680917,53.38864440304826],[-6.484956693724479,53.38768319344401],[-6.485187050291238,53.39024933803525],[-6.4714104258810705,53.38756014481722],[-6.468348468398436,53.38884414079346],[-6.465241597361711,53.38821492473632],[-6.463225869927315,53.389528487102325],[-6.460282121791048,53.38886790602476],[-6.463434733351249,53.3840551994009],[-6.466610608330445,53.38499816245966],[-6.470084037378683,53.379355129671474],[-6.474949871758707,53.36297924519419],[-6.489141179104216,53.36305990796478],[-6.491188741242894,53.35749436771782],[-6.494993075550336,53.3533783143251]]]}}]}