{"type":"FeatureCollection","features":[{"type":"Feature","properties":{"name":"County Leitrim","source":"Tailte \u00c9ireann Counties National Statutory Boundaries 2019 (CC BY 4.0)","simplify_tolerance_m":75},"geometry":{"type":"Polygon","coordinates":[[[-7.979391092746829,53.890570787544455],[-7.988543285317098,53.8965951857689],[-7.987929870632638,53.89963116705455],[-7.991631576565165,53.90115633164093],[-7.993729968155332,53.90414483641022],[-7.9911503161463004,53.911527321450095],[-7.989425060449775,53.91305297195177],[-7.989403020484991,53.91588087673791],[-7.994673840628878,53.9218357321307],[-7.9989808022693545,53.922315512635265],[-8.002507256143005,53.91941201435166],[-8.004839432127072,53.91952922908495],[-8.007861739376674,53.92175166314434],[-8.012993078330913,53.9271230623707],[-8.012843066733016,53.93121350878715],[-8.01043749758382,53.93197271205279],[-8.010795577997422,53.93329630627279],[-8.018683578404076,53.93380903428488],[-8.024902472368495,53.93590414194921],[-8.030233827918622,53.93387243324867],[-8.031760679448269,53.93289036825228],[-8.032698939481783,53.92992848737487],[-8.026203384074766,53.92698065257562],[-8.029786927123922,53.922367294118686],[-8.04732813540292,53.91477443311176],[-8.049020686667502,53.912537822106906],[-8.061815934357776,53.90960677025056],[-8.064067760864528,53.910962424592945],[-8.065293652376981,53.914794378143235],[-8.068406415077066,53.91739807489454],[-8.073985124508775,53.918603258682495],[-8.073088530119858,53.923729258873266],[-8.084654124771694,53.91988021294803],[-8.085934815078378,53.921097921286005],[-8.085219360510369,53.9230513175616],[-8.088974161657953,53.92813712794347],[-8.093550948118084,53.93028023796742],[-8.092896467639749,53.93169278640777],[-8.085825187524204,53.9338622100105],[-8.083083243031343,53.93588958239226],[-8.081578330535299,53.938867705760266],[-8.083552497312533,53.940275871105065],[-8.084401921251285,53.942715209259],[-8.091023872868586,53.941855533221435],[-8.100122330229178,53.94278232957826],[-8.101073528979883,53.944677818697066],[-8.099581229642013,53.948017984115715],[-8.100805395881753,53.94896633632998],[-8.107651970211636,53.95109720901556],[-8.113674829556652,53.95124853921836],[-8.115511947826757,53.952821784176045],[-8.112191121480233,53.956893914490166],[-8.102784250204992,53.96299274719957],[-8.099129905759808,53.963200401838336],[-8.09512405799007,53.96494901711109],[-8.094710288081005,53.969041726922725],[-8.091251414260732,53.97281169739577],[-8.090094086266504,53.97625691524252],[-8.079083467848612,53.97572288272142],[-8.07381691999365,53.979003661107924],[-8.072068968323999,53.98100616753465],[-8.071615531841857,53.98495592399898],[-8.06855071875583,53.98697351416468],[-8.069125950874538,53.988670201207626],[-8.07211126984174,53.98851539835251],[-8.07243685732194,53.989356099576085],[-8.075661961175957,53.989486448849895],[-8.075960307182998,53.99078245799045],[-8.077675492937361,53.990161330810686],[-8.07861910062641,53.991094241346275],[-8.079575736607564,53.99375139631273],[-8.076579103103,53.998625182237014],[-8.079034421785874,53.99991111690377],[-8.078855822576644,54.00280273002251],[-8.077473639400345,54.0044758935839],[-8.079907774214368,54.00918528292364],[-8.085377410791608,54.01110833046801],[-8.085545262178305,54.01602537071677],[-8.087683337755582,54.01759149565037],[-8.08866779654741,54.0210198792803],[-8.087841664631565,54.02214846902104],[-8.091180285806406,54.026132320571996],[-8.089421910220272,54.03167549689394],[-8.09150937768211,54.03379349219027],[-8.078969217572803,54.04899753985229],[-8.078503364851224,54.05115035531048],[-8.08047122664279,54.05300422240661],[-8.076589443115399,54.05353025511272],[-8.074970788456788,54.052705743742926],[-8.074914497356362,54.05145778613029],[-8.070460152209984,54.0512574872958],[-8.067430658565515,54.05558174654616],[-8.06035648953753,54.058221585819965],[-8.059428960687447,54.06166092381088],[-8.055256333150831,54.066211817028034],[-8.049602359362012,54.069154744148825],[-8.047569109246519,54.0715888574464],[-8.056972979123751,54.0782803729195],[-8.053149741892815,54.104686509992675],[-8.067486590148912,54.105284993521785],[-8.072352320969513,54.10450348570558],[-8.077222642326086,54.10571512164896],[-8.079088951962538,54.104577270915726],[-8.083134493190702,54.105773086340186],[-8.084233115955783,54.10944229506733],[-8.085546233705504,54.109696403281994],[-8.088636765279231,54.10803554491976],[-8.092243950087806,54.10763926616531],[-8.095862272024954,54.10900514376815],[-8.105526421539667,54.10892821856883],[-8.108525825918464,54.1108489305652],[-8.111046703644279,54.1142896838782],[-8.122423472557099,54.117554674067954],[-8.125584739111206,54.12006253512106],[-8.134740603855606,54.1198158328894],[-8.1406718260598,54.12383401441299],[-8.148064111727818,54.12523957090416],[-8.153887675244986,54.11575327894782],[-8.161404209982503,54.11239922413678],[-8.162552485403584,54.111423629014155],[-8.162259853555476,54.10942694217599],[-8.163511975745696,54.10898211357669],[-8.167407522930306,54.110685189950054],[-8.167944546175999,54.11216417582165],[-8.172504823869627,54.11173750626391],[-8.17566290585887,54.113474706993614],[-8.175632880284867,54.114852369899296],[-8.177729612388156,54.11665864173255],[-8.18053363067614,54.11776350249048],[-8.179973131096274,54.11944508612976],[-8.181630345642166,54.12041105669455],[-8.181580668972657,54.12179822926053],[-8.186227591712939,54.12357980144539],[-8.190377523106369,54.12704747695115],[-8.191036379666505,54.12824989650492],[-8.190060027303952,54.12875966758519],[-8.19532294809903,54.13320179135428],[-8.19905781819785,54.13459669708359],[-8.203306640365746,54.134114601226194],[-8.21596317949014,54.14041751812037],[-8.217304692396414,54.14522463464618],[-8.221103503955137,54.14666369546641],[-8.220577287275646,54.14901815120703],[-8.223221154946813,54.15023141247074],[-8.227447635249359,54.154753831328875],[-8.238368766756373,54.15500574942557],[-8.243525621339403,54.15756066868914],[-8.251205387110295,54.15927018976294],[-8.251829589468775,54.15733756543903],[-8.253415145673543,54.15665749700731],[-8.26030050018916,54.15697746679984],[-8.259565661820314,54.153959657310445],[-8.260830958606059,54.153185803272194],[-8.281342298009587,54.1526215289515],[-8.30345767876318,54.16709431828716],[-8.307271073264925,54.166339651943716],[-8.313682203587614,54.167124571222246],[-8.318418199190752,54.169472155549606],[-8.321002405031951,54.17408731060304],[-8.323241882432567,54.17501058895729],[-8.328393292546103,54.1732818728178],[-8.330587899816523,54.175035894346436],[-8.330227805733081,54.17666465467356],[-8.328306767524872,54.178373634244856],[-8.32081899054713,54.18111507918959],[-8.318104090424503,54.18405062277988],[-8.316549600460213,54.188623543080425],[-8.318398261437183,54.18992033067356],[-8.321755864823528,54.189384641371724],[-8.333077837510544,54.192005946222714],[-8.335380561353567,54.19495934770802],[-8.333227464957536,54.19557776901833],[-8.33361710089584,54.19686794374368],[-8.340765317331046,54.19907133980988],[-8.34770469422763,54.19928137645875],[-8.34767328404942,54.20021522422033],[-8.339276330413503,54.2035297377975],[-8.336486662563328,54.208418374688456],[-8.333838613631029,54.209111778401315],[-8.331825130172621,54.21187796257074],[-8.336412535828924,54.21259212084449],[-8.335528728929914,54.21432865700813],[-8.33646014335137,54.21524118720884],[-8.334451638021637,54.21633488820556],[-8.334378111912384,54.21739468150557],[-8.338418840155487,54.22058539709116],[-8.338514392687886,54.22189877782346],[-8.34081942901786,54.22293520140581],[-8.336739838170843,54.22967844751989],[-8.337769195061437,54.232307120290194],[-8.335721348865448,54.23419036369182],[-8.336617088917293,54.234501059849755],[-8.334517483518425,54.237412679265155],[-8.336192044719391,54.23763844797369],[-8.33605861291234,54.238762958378715],[-8.332451701160435,54.23892540136282],[-8.331578229681128,54.240108806191145],[-8.33353198158491,54.241004315067265],[-8.334714539114339,54.244543466529166],[-8.334515908664098,54.24865592634259],[-8.339488121352119,54.249144322855706],[-8.34156542971955,54.251523929080804],[-8.34673051398439,54.27440386536126],[-8.343606960733318,54.28017084281262],[-8.342937618179453,54.28355957008471],[-8.343040284148993,54.2848577639786],[-8.345209923663253,54.28553452110653],[-8.346289422196763,54.29881143578429],[-8.348310634891137,54.301286964834205],[-8.348708828301776,54.305003041351775],[-8.35433963280929,54.307589518201844],[-8.354733189491354,54.31259178258716],[-8.36260479221282,54.31428936998382],[-8.375969195221943,54.31387660643232],[-8.37505735910948,54.31597291977115],[-8.381635024573464,54.31560828206887],[-8.389781785786356,54.320307286719135],[-8.386866530777622,54.32467971455857],[-8.386140970798913,54.32886595455325],[-8.391006910937445,54.334404192303715],[-8.390272549385154,54.338751337666096],[-8.392593387953575,54.342554172383345],[-8.391609145672149,54.34494809459142],[-8.393191641678238,54.348037587186575],[-8.391777113933209,54.35010098569417],[-8.394676978964796,54.35258645569556],[-8.395009906846681,54.35485592474716],[-8.397329195961683,54.35635064810048],[-8.399446215537347,54.35999669564898],[-8.393521299949942,54.359787898128296],[-8.386937517411367,54.36150358826886],[-8.382254698937286,54.36483318918419],[-8.374826405753486,54.36702065480261],[-8.365053807604152,54.3720006460845],[-8.366642220293528,54.37458023351062],[-8.360319078791724,54.387251143153286],[-8.359101788744258,54.39639354939931],[-8.348754846484466,54.40499641274995],[-8.346287964669743,54.41221664067213],[-8.349839373827564,54.41514386916925],[-8.349262212889702,54.416319738431476],[-8.34589444454933,54.41739773503452],[-8.348005634473258,54.41962741883759],[-8.34547445906618,54.41974752236525],[-8.3444103176946,54.42130942223588],[-8.351179555333982,54.422580159388325],[-8.351315276874503,54.42375311787223],[-8.353484266142514,54.42415515738651],[-8.36412730052289,54.421936087130454],[-8.369451719781994,54.42316128514104],[-8.371980170817077,54.42264803636281],[-8.37928556477312,54.426508867873665],[-8.381386854821578,54.425901185631524],[-8.384382156276247,54.427189556601526],[-8.38950053815689,54.42714864210963],[-8.391021398844245,54.42826606423462],[-8.398104357546321,54.42722439565196],[-8.392786995590935,54.42021078323924],[-8.398323309435005,54.41733520494211],[-8.399506171407907,54.4179606978446],[-8.403586424912,54.41640101036914],[-8.408275559373736,54.41664053648823],[-8.413611061433942,54.41437453688334],[-8.418637424054893,54.41477229263431],[-8.419837090660389,54.41494007345651],[-8.41956066084368,54.41604757615445],[-8.421774497339515,54.4182320505339],[-8.427650085160305,54.42109439109018],[-8.419563632574746,54.4267664829515],[-8.408313825341612,54.43071428449944],[-8.409426570571576,54.44005557195206],[-8.401851107294506,54.445876677698074],[-8.378698688767232,54.45157987297952],[-8.37305137873589,54.45033885462886],[-8.37217565548864,54.455495175706815],[-8.374632653175516,54.45715318344537],[-8.378942495791284,54.457072078315356],[-8.378023367693382,54.45916885873561],[-8.379420904229416,54.45986102991763],[-8.380417865917156,54.463412979220266],[-8.382755476635186,54.465633910374166],[-8.372367380892872,54.4677104263937],[-8.357642182479273,54.46745969958605],[-8.344699206699339,54.47184000973279],[-8.334523317971485,54.47059480997125],[-8.329599458363079,54.47407810986394],[-8.325713864765218,54.47280741358294],[-8.321756058297089,54.4734643421685],[-8.320063119905557,54.47231628628582],[-8.31319710177379,54.47436824056352],[-8.310055339227578,54.47190475205006],[-8.3041582001807,54.47135155985521],[-8.304469468552966,54.46812833280258],[-8.299298770536957,54.46371055131608],[-8.287809749012872,54.46261721817923],[-8.282882902715889,54.46476365344936],[-8.272884084897235,54.46147890026753],[-8.270640540306097,54.459787667672416],[-8.259947123714726,54.459062684414526],[-8.25876188995481,54.45969863616842],[-8.25897698349307,54.46071860661685],[-8.25382661399507,54.46221661399725],[-8.236206166620292,54.46115734429951],[-8.23385571338635,54.46236832244955],[-8.233456892495006,54.465607752291426],[-8.231374566491521,54.46708376716777],[-8.23196882187121,54.47044953093358],[-8.224155382936756,54.46986706786014],[-8.221219937980226,54.4728806310718],[-8.217784456300079,54.47295092534675],[-8.211316649254975,54.47211594064252],[-8.205972205615183,54.46982662131469],[-8.198079638679056,54.469153689788726],[-8.195654907985325,54.46732433263541],[-8.194159268783755,54.46787403624641],[-8.185491580878889,54.46675014238128],[-8.184472018163174,54.46550711907824],[-8.170033879786791,54.46454473954886],[-8.170083905101304,54.46158474559206],[-8.16741639850433,54.459273489330286],[-8.144784288509417,54.452228432727495],[-8.142848515213672,54.450450879916055],[-8.146337483760867,54.448949318396565],[-8.145959875692894,54.44743498324827],[-8.148620442254243,54.44661830311656],[-8.15026413848169,54.44388649695043],[-8.157357115179288,54.444593370983455],[-8.160551336406746,54.44393398024635],[-8.1618780753323,54.44203423913776],[-8.158735858885256,54.43901149732637],[-8.097341855777323,54.4064897304586],[-8.095429658207156,54.40381846053227],[-8.0912623091538,54.40219748257626],[-8.089390430181377,54.39959298974162],[-8.084149563196505,54.397405148653185],[-8.08340818195781,54.3946210586031],[-8.078649669892217,54.392159847902676],[-8.07459438686249,54.38762527398912],[-8.073667955361113,54.38478999050583],[-8.067941311835265,54.38071366828335],[-8.063547632045621,54.37483174562752],[-8.064306222351936,54.373426336080634],[-8.059769836182452,54.37275664139688],[-8.060365798899975,54.37167349848523],[-8.058256491255658,54.37106753609962],[-8.059344516651194,54.36986513906785],[-8.057226700027234,54.369901860435796],[-8.056045808165992,54.36858031359969],[-8.058670335499782,54.367282358277514],[-8.056651427638396,54.36709579745534],[-8.057397754061423,54.3657560196576],[-8.050278654913395,54.36620703537779],[-8.04760380856243,54.364454467717785],[-8.047093143077566,54.36270421427013],[-8.039526869475903,54.362646519963874],[-8.037006858619291,54.35928188277748],[-8.031301069306528,54.35670084981514],[-8.025791396860894,54.359949027751156],[-8.022531321619551,54.35909694781939],[-8.020763521662143,54.357230394801164],[-8.016967864191528,54.35693662618932],[-8.012486068323733,54.35821151874584],[-8.007570724953334,54.36127760165041],[-8.000299631168827,54.35814268899876],[-7.997531696851812,54.35570205775464],[-8.001275936692165,54.35058289981375],[-7.999472662815659,54.3471755009549],[-7.986437113779968,54.34419566877725],[-7.985531885381498,54.3419050081988],[-7.9829503030353335,54.339927544524045],[-7.982587344483204,54.33620512469039],[-7.972145006092026,54.33087339012051],[-7.963366361279223,54.320509776988],[-7.96171796694636,54.31250257801845],[-7.9464192341057345,54.30442323914856],[-7.957455090900806,54.294347685472566],[-7.964794177693823,54.29042637004585],[-7.96766588496911,54.28696436654235],[-7.972471230747431,54.28441408731545],[-7.974549675001822,54.28046559837591],[-7.974365560885792,54.273538070953165],[-7.985499542798369,54.26579600129914],[-7.986134717185655,54.262922517464126],[-7.991480097208341,54.2575466184063],[-7.998334635657726,54.254050538493864],[-8.003773610067963,54.249339486845976],[-8.009921485452601,54.24835092309687],[-8.03114256724814,54.25144173968632],[-8.041176465867707,54.25400500636874],[-8.04578084347419,54.24858042385392],[-8.049260495862116,54.2462683053719],[-8.049921654082256,54.244309987363245],[-8.05401371885924,54.242367195297554],[-8.054659903110247,54.2385939849527],[-8.05742191748663,54.2374614518643],[-8.058132977846212,54.23591391003547],[-8.056263541661133,54.23432850842598],[-8.05191712335937,54.233294627071],[-8.049109006875302,54.23095233455904],[-8.04884853200416,54.22832714589313],[-8.045802056809743,54.22665951873112],[-8.046663212095572,54.22532138516602],[-8.044262279443938,54.22239146531997],[-8.039054302108818,54.22225985619521],[-8.03946384011915,54.22119376021561],[-8.036319683615366,54.219603756833266],[-8.0369317871551,54.217170860117115],[-8.033850769830602,54.21571126106246],[-8.034971132090453,54.21373521053319],[-8.033516457277548,54.214397468610414],[-8.032569880873398,54.212839145575394],[-8.033281078301714,54.208943917231984],[-8.035443448589303,54.206377140002886],[-8.039720564566025,54.204776363619956],[-8.039448431309026,54.204028893273225],[-8.045420474880606,54.20324227230804],[-8.050706866665921,54.19757536482657],[-8.050548550063496,54.195306717605256],[-8.045192823756022,54.19367812117275],[-8.046355755501924,54.19385688912279],[-8.04854973756259,54.19019569267035],[-8.0472238279751,54.18837895162809],[-8.047954456747725,54.186861551366164],[-8.044573382724431,54.185969064145624],[-8.045227654595806,54.184652852118134],[-8.042269583473129,54.18311239977104],[-8.03883435946308,54.18384288662174],[-8.035141587392049,54.18532881137178],[-8.035365131176285,54.187648951161215],[-8.03295385894551,54.18757718351908],[-8.03199895738867,54.18858229802184],[-8.030112556920777,54.18739681230596],[-8.029368761318395,54.18897689909792],[-8.03054736631471,54.189904033467165],[-8.029368297499458,54.19035450794074],[-8.024253944504272,54.18840077189539],[-8.023808398735206,54.18635579684026],[-8.023481484501353,54.18741160405012],[-8.021430570838248,54.18790506533255],[-8.013882543878783,54.18807600051553],[-8.013141650373685,54.19065099496702],[-8.005305060563373,54.19227925590595],[-8.004446007567328,54.190415423822856],[-8.000344509587503,54.1889601258608],[-7.999899650777143,54.185553160097875],[-7.994350624387498,54.18267117282097],[-7.991466520074716,54.182411272384336],[-7.991033378886559,54.18086471783495],[-7.988646386107059,54.17988886159965],[-7.98005657460066,54.178496826835065],[-7.975121121673209,54.178854104408025],[-7.968890539271747,54.177071112064766],[-7.961990679531498,54.178727851718],[-7.952981450110444,54.17889957813242],[-7.943882253749068,54.170815275736395],[-7.939017405205423,54.16868610682576],[-7.926411653006075,54.166813797193946],[-7.925134374098042,54.16344022085628],[-7.923404358484125,54.162029807232564],[-7.916599993992493,54.161221031402924],[-7.912314588381874,54.15458164858462],[-7.905132335438627,54.15388217530127],[-7.901077750669115,54.1479440265555],[-7.888381292077728,54.14179456096827],[-7.893581114789346,54.1354954786916],[-7.8883016620477475,54.13561867135026],[-7.8816363035699695,54.13184774335111],[-7.882815807413206,54.12930319852552],[-7.882107228547623,54.12780566909064],[-7.875254226241546,54.123697025387806],[-7.871008391959218,54.124335499823985],[-7.861281285321653,54.12253194353857],[-7.8519435791110626,54.11904365254983],[-7.850830531307631,54.11757995194701],[-7.858888066564747,54.11328997437594],[-7.84721610346585,54.1068724639716],[-7.829672703625207,54.1007507229194],[-7.8313699734225795,54.09858831659711],[-7.822297129301891,54.09645090007557],[-7.813294253607543,54.100417011027254],[-7.811623628055326,54.10167172812725],[-7.816162288979636,54.10317019178454],[-7.816317530109421,54.10565439963713],[-7.814897142020653,54.10593648912509],[-7.814125906921613,54.107829595672484],[-7.804928403444833,54.110645402732324],[-7.805013927918071,54.11289278799239],[-7.7991023337461565,54.116566501032324],[-7.794997774732616,54.116412384434405],[-7.7942545584029554,54.11346917040129],[-7.790100807794823,54.11300497239786],[-7.788417675390452,54.1083780985263],[-7.7862248845350885,54.10769457405288],[-7.770558382068766,54.1071120949387],[-7.762599713901532,54.10952695949199],[-7.761925167196266,54.10717434854144],[-7.756319590982552,54.106238454510226],[-7.755244501458216,54.104502209992425],[-7.757138701473824,54.102349336189654],[-7.751034033620593,54.10212387167583],[-7.752171647665005,54.101111901099465],[-7.751257055544678,54.10050047949113],[-7.751694959787044,54.096964341405545],[-7.750513683405152,54.09508121069373],[-7.7449169635381345,54.09356213225133],[-7.738697713820528,54.0944950679186],[-7.737083444728823,54.09352731866144],[-7.737581116684097,54.092161040296695],[-7.735907001632642,54.08896386668841],[-7.736594728090308,54.08292626067322],[-7.730826068167031,54.08224109199857],[-7.725266180972363,54.08468951506156],[-7.721145319085657,54.08484316451967],[-7.713115361343741,54.08306555887211],[-7.708903685753896,54.08422095295372],[-7.702254464054998,54.078759578497916],[-7.698569003311922,54.07230769850062],[-7.691549375730046,54.07019833628092],[-7.689104806225342,54.067981760717764],[-7.687474121899147,54.06809239299443],[-7.685921812434332,54.06373752984244],[-7.686521456376586,54.06234849206764],[-7.684935418436076,54.06021921256256],[-7.682074709154492,54.05918666501998],[-7.676134955436599,54.05964478957742],[-7.675551094208603,54.05728364561149],[-7.6723206602506835,54.055752668317105],[-7.666459917553875,54.0589022744956],[-7.663292935322799,54.055979754834446],[-7.657656337210919,54.05638424109041],[-7.654162749195571,54.04879060543856],[-7.65491691516337,54.042771072161315],[-7.649145532692032,54.040228698558074],[-7.643993440784171,54.04473962636286],[-7.637955936845917,54.0429103814197],[-7.635208550319403,54.03935714640837],[-7.637558964182296,54.03912003321924],[-7.640559309972772,54.03639318863063],[-7.644118438315103,54.03580228214174],[-7.646391470397192,54.03318986422565],[-7.646784675935531,54.0279229008945],[-7.642656285357714,54.027616512025745],[-7.640437248548225,54.02250608038123],[-7.63568283517688,54.02305464931587],[-7.619168365688111,54.01850516374326],[-7.616002274561148,54.01941313657729],[-7.612444089796057,54.01890673653095],[-7.611536749110621,54.02150507685638],[-7.6140787672001595,54.025323537599505],[-7.611037260545277,54.02669218424192],[-7.608256981448099,54.02463329792093],[-7.600932059670641,54.023241311898104],[-7.598480256239356,54.02051943897649],[-7.597039637006408,54.02031977651191],[-7.5972234613724625,54.01830687715127],[-7.595904365890095,54.016445066350556],[-7.593011527919546,54.016518096490145],[-7.601843825059802,54.012205300836705],[-7.5990119580486954,54.01018960475718],[-7.597800597066025,54.00621792670302],[-7.59538561883864,54.005645070642906],[-7.593117195187704,54.00292935643964],[-7.594867521832713,54.00158254180269],[-7.593533878833227,53.99588644401034],[-7.599148600926974,53.991968022313316],[-7.600442417069876,53.98769029296055],[-7.599727059901932,53.985734611018835],[-7.593304744352208,53.98455803987553],[-7.590163376421063,53.98297100259937],[-7.589345856500278,53.981407463108226],[-7.585058247220413,53.9808884753899],[-7.584171040131726,53.9765087379902],[-7.5860073869569,53.97424065525786],[-7.5855101905606315,53.97264645124776],[-7.592763411508431,53.97018912293291],[-7.593727863059854,53.968670742912316],[-7.593846116588747,53.96639950320605],[-7.588224108390122,53.96432927294539],[-7.586129557844185,53.96248833505969],[-7.587258666739158,53.95756600972347],[-7.596537414763792,53.95337369372256],[-7.600011239691254,53.95008066061397],[-7.603533390634915,53.95069795251035],[-7.604777358044185,53.949930704111516],[-7.613372952556772,53.94050835002911],[-7.612553665443209,53.938552052733925],[-7.610319340816676,53.93845695028393],[-7.611785214542949,53.93628885842308],[-7.619761113202445,53.93538578364936],[-7.634539986989458,53.93941459794987],[-7.6441349006343104,53.937923957751806],[-7.646731354648934,53.94155307593369],[-7.64956293187946,53.94189051172837],[-7.653168539791983,53.93831207030681],[-7.657676802421098,53.937387790023294],[-7.66025281242682,53.93435855283846],[-7.66073190975381,53.929318126201565],[-7.66821621442773,53.92823912667577],[-7.668981733603142,53.925053367455895],[-7.667371874467296,53.92141217263706],[-7.678396614791506,53.917042603997466],[-7.686310821494216,53.91793320317017],[-7.688207746021846,53.919128846521104],[-7.69125312416807,53.91836131250611],[-7.692596841036905,53.91625094035665],[-7.690618270642822,53.90587101410404],[-7.6932982115466135,53.90452492958896],[-7.6988369629044735,53.90468698633081],[-7.70283953863322,53.90037537001681],[-7.711398962494774,53.900281216956735],[-7.712406362159924,53.897299718923364],[-7.710733240744124,53.893400166530405],[-7.713645443365298,53.890813470142064],[-7.726255479403066,53.88818275417287],[-7.728177770232018,53.88144154729082],[-7.7305473650002865,53.87882624943627],[-7.7362413458864605,53.87776034148474],[-7.7377538611649666,53.87618173286494],[-7.745557165591736,53.878681697004254],[-7.7470997679026645,53.880224948880894],[-7.751169475991272,53.87924696347549],[-7.749980463910889,53.87611008797286],[-7.750579369588963,53.87552736877784],[-7.758162837608333,53.87363506338686],[-7.754520450281559,53.869138445678416],[-7.755221630960629,53.86738022522444],[-7.759846140173092,53.86350659985924],[-7.766986672157133,53.86710552584441],[-7.776824762642641,53.86757861594197],[-7.771111178586296,53.849493397710894],[-7.771667664137816,53.846782353846805],[-7.776379691301576,53.84346936403393],[-7.7765939534018385,53.841541253281434],[-7.779195663885664,53.83996947626709],[-7.779209621144304,53.838578464869734],[-7.78214982567206,53.837252200605704],[-7.780250652699332,53.8289117801996],[-7.784186383152642,53.82597867858839],[-7.784884525091358,53.82431364423401],[-7.78766238686079,53.823123308459685],[-7.788284319578686,53.816362521503244],[-7.799233744635468,53.816295240440056],[-7.803114180939898,53.81516071704311],[-7.810919249086252,53.820377630047005],[-7.815227319588462,53.81994164547904],[-7.818192129387402,53.81928108689171],[-7.819298479805632,53.818478275625836],[-7.81901608167634,53.817218484050635],[-7.825365623597297,53.814178984671145],[-7.827915274873605,53.811704104461434],[-7.8371079769205245,53.81083121191755],[-7.83843344544584,53.81336854218943],[-7.842680509818681,53.81604445425441],[-7.843298029535479,53.817647183024945],[-7.846394893594455,53.81849099592539],[-7.853147028562566,53.83000157988696],[-7.8547395401639095,53.83154613512906],[-7.857057374756439,53.83146066548851],[-7.865291706050707,53.82531816599552],[-7.861873387107964,53.819400746625625],[-7.862690513088522,53.817516510367724],[-7.861119156890102,53.812446964135916],[-7.863780813247507,53.807992781744524],[-7.868409973471497,53.80596714077343],[-7.876444625286582,53.808446029689534],[-7.875640744745936,53.81090447020222],[-7.870518243656479,53.81393191136439],[-7.871884841151767,53.81751408339018],[-7.875548556935288,53.81532587705875],[-7.879076179377076,53.81830520032773],[-7.882451731520595,53.81523874547866],[-7.885163153905129,53.81740093160586],[-7.885205827517194,53.820234443767525],[-7.882552769548575,53.82124168367102],[-7.881772741906332,53.827853419797904],[-7.882790408449433,53.829114823239074],[-7.8853683787826725,53.82864556538764],[-7.888597594947352,53.82375814303748],[-7.8914252821018875,53.82276240343589],[-7.896876898085127,53.821766841434616],[-7.896952162735386,53.82401560648361],[-7.911753518601942,53.821350900433615],[-7.918770170899479,53.82148537493621],[-7.9209589904248725,53.82543206991476],[-7.917973277699753,53.82853615569399],[-7.918748650040209,53.83751460077168],[-7.921626180313964,53.84034479064785],[-7.924095595577024,53.84107992917664],[-7.924419745921844,53.84645065070103],[-7.928583925470102,53.85047017190479],[-7.933522633325591,53.849956825952965],[-7.940377408593188,53.84754214158501],[-7.943727554499582,53.84993736015547],[-7.946792528790987,53.85506771851705],[-7.953462234519626,53.85811092928446],[-7.956947163056409,53.863915647189216],[-7.961618969216424,53.86696754228547],[-7.9765565370929075,53.86568715298522],[-7.981212655093413,53.869846864983295],[-7.9775397406628725,53.875590762183776],[-7.977620014213193,53.87776294835022],[-7.981683283016982,53.884170029999844],[-7.981136886055606,53.885701574424566],[-7.977301717821888,53.88806432042325],[-7.979391092746829,53.890570787544455]]]}}]}