{"type":"FeatureCollection","features":[{"type":"Feature","properties":{"name":"County Monaghan","source":"Tailte \u00c9ireann Counties National Statutory Boundaries 2019 (CC BY 4.0)","simplify_tolerance_m":75},"geometry":{"type":"Polygon","coordinates":[[[-6.8363047784574675,54.26469956958374],[-6.832952924035249,54.262159589285254],[-6.827741818865245,54.26142759445987],[-6.827090637975464,54.26022567230077],[-6.8296169328555685,54.25740973105696],[-6.829106123594267,54.24745261347074],[-6.826392190695803,54.24633298115496],[-6.826285374074165,54.244624802893895],[-6.818987253976581,54.2384648299692],[-6.820088498084599,54.235990486259226],[-6.819782988300785,54.23261329731017],[-6.81501909404408,54.22720702715062],[-6.8163564031330095,54.22519985503276],[-6.816203126090167,54.222992810326474],[-6.8086463447490875,54.22470701651735],[-6.8003425410393925,54.221103347367894],[-6.802496742852506,54.21709521438418],[-6.801030265033463,54.21312744175061],[-6.796740484578922,54.212708172522156],[-6.7946709431242205,54.21035426155634],[-6.79515956982236,54.209094630526174],[-6.790628159291504,54.20868622185904],[-6.784305690211052,54.20598720819846],[-6.777192759720046,54.201434432435725],[-6.775571367254876,54.198943860065704],[-6.768686462286692,54.20059401239019],[-6.7662142439607935,54.198533349601696],[-6.755892286815323,54.19902043300088],[-6.750881439459089,54.195091730524545],[-6.749205524457672,54.19085618724822],[-6.745195867002349,54.1881336549651],[-6.74459338772472,54.18427416110797],[-6.7414221656377045,54.18214848730872],[-6.738593867464555,54.181522870890326],[-6.735066526583518,54.185790672134374],[-6.732129442024102,54.18560677172565],[-6.727385084446658,54.182433402364346],[-6.720941399674696,54.18201469477596],[-6.7209003588091605,54.187154972735456],[-6.71297047429812,54.19141944515527],[-6.714144582075413,54.19460278625842],[-6.710087017789373,54.198058020432065],[-6.705870350635659,54.2000774659751],[-6.701165070403209,54.20034423462029],[-6.695383864176931,54.19894494317238],[-6.6948290319906425,54.19988127134015],[-6.6918486190653965,54.20022356786487],[-6.687778787218685,54.19488506596309],[-6.682929139733361,54.19320978886503],[-6.680694107430513,54.193458076554094],[-6.678366611972794,54.19564658645309],[-6.673494980459537,54.19217215631479],[-6.66467638614102,54.19298549256234],[-6.65861873494352,54.184757448176576],[-6.649199264440539,54.17963588450291],[-6.644042393062687,54.17976283169869],[-6.6426039622521085,54.17564038886467],[-6.639383748047168,54.172306104053824],[-6.635747373734674,54.17092821590256],[-6.635890430938761,54.16664253698687],[-6.633733802393242,54.16187089048307],[-6.634593500743143,54.16144658533332],[-6.631069777034636,54.15452376585306],[-6.629714904667292,54.15378666468607],[-6.631180970800898,54.15336635411138],[-6.631527311371264,54.14716880367822],[-6.635205131796034,54.14576579959758],[-6.636795798367193,54.146169514123464],[-6.637889064352989,54.14486052918113],[-6.637038295685906,54.1433124351034],[-6.638173497033883,54.1422145662586],[-6.6406891922325455,54.14209365153542],[-6.640139477245838,54.140555268556014],[-6.641046796232689,54.14001183698644],[-6.640175390059428,54.13978666167388],[-6.640968381136508,54.13873281679442],[-6.639074193657873,54.136563943061134],[-6.6402502882618535,54.13394824303177],[-6.639787836993323,54.131641171934945],[-6.643206490347326,54.12996399299066],[-6.645158961950538,54.1306530018859],[-6.649704258810642,54.12956203375402],[-6.649111657136862,54.12737159530978],[-6.651012062842999,54.12700016219406],[-6.648736478650426,54.124043760122596],[-6.648566773809213,54.12159042656426],[-6.651681581609185,54.12147878215745],[-6.653941864542851,54.12363223662352],[-6.656427934781434,54.124045851042055],[-6.660442192449035,54.124083738720095],[-6.661243054805248,54.12255944113403],[-6.660726363078407,54.117356119726466],[-6.655255894612744,54.109669481258194],[-6.650074044104456,54.10670097964115],[-6.650472429352098,54.104479046285554],[-6.6490674391701345,54.10281566660795],[-6.645434389616578,54.10062665593207],[-6.645107282605769,54.099186101019875],[-6.646050520438739,54.09828771769772],[-6.645082402946091,54.09596937259818],[-6.652044467699734,54.09298164915111],[-6.655442250888828,54.09357946869306],[-6.658862064166542,54.09613698436521],[-6.661990865627423,54.09256953769386],[-6.658782424930046,54.08759942301865],[-6.65562672699988,54.08709059961441],[-6.65871000898332,54.08392552310646],[-6.65765921752096,54.08051622747599],[-6.658977854373947,54.07745453813674],[-6.658171056458495,54.07614891116319],[-6.661206488205499,54.073749658182486],[-6.668475725312052,54.073769666315535],[-6.668857178543308,54.07245378601571],[-6.664477108706657,54.06979977037714],[-6.665087852030651,54.06628090212639],[-6.66110658112063,54.06287939846784],[-6.6578679199448,54.06176436936049],[-6.649927149832018,54.06150011209896],[-6.64872572296827,54.059283063563946],[-6.646677908212607,54.05884396599328],[-6.647756823306934,54.05708388457494],[-6.644842424697102,54.05288964739923],[-6.643070781464128,54.052835098752745],[-6.639632368156622,54.05000176472796],[-6.640676830907391,54.04819403954812],[-6.63865711778215,54.04631837742446],[-6.635778069629063,54.045510829744245],[-6.635774875605862,54.04385039093655],[-6.630029308495008,54.04336248862095],[-6.6237552535107005,54.03647200990172],[-6.6234462045854645,54.03890647908063],[-6.6174149841244265,54.03900192476734],[-6.616174092442264,54.0425883109756],[-6.606589963902743,54.039666635049414],[-6.604596104476472,54.04498048985808],[-6.601031642891654,54.044608057105705],[-6.598347498534098,54.045783057756225],[-6.586078790000448,54.04064423434617],[-6.588219336809749,54.03892792974164],[-6.583789734733697,54.03962173640113],[-6.579450963727863,54.036252543291226],[-6.573499852237902,54.034053563921105],[-6.57283428458229,54.03302603744393],[-6.579236900489468,54.030189218562285],[-6.571228006510728,54.02679218438361],[-6.571611702662469,54.022506156207214],[-6.566875418276849,54.02043415144358],[-6.563631173471329,54.02028834436448],[-6.569348430198823,54.017338151204584],[-6.5583199887893695,54.01544890560179],[-6.558207054664915,54.00971058510046],[-6.555702904863919,54.0081443880512],[-6.551529896710703,54.007640409089625],[-6.549729477571618,54.00585320217815],[-6.551064503242775,54.00274246558286],[-6.562954661041548,53.9990201199676],[-6.5545552151993345,53.99435669067228],[-6.555923201904097,53.9910696229357],[-6.554319255291193,53.990015018488045],[-6.554355310916447,53.98783928059993],[-6.552814978325439,53.9865563992074],[-6.554793908158729,53.98569697116255],[-6.55734094834149,53.987885541535654],[-6.558555046180042,53.98774804501708],[-6.567887449870245,53.98177164632212],[-6.568251776343802,53.980110000148294],[-6.562328826774553,53.978732105955984],[-6.566802939289598,53.974085340215346],[-6.56565882325357,53.970887431566055],[-6.569108590145368,53.97079380949748],[-6.572562208998006,53.968991367039266],[-6.576185269103889,53.97049891716414],[-6.590787773123234,53.97047817177423],[-6.594369733655215,53.972559591008626],[-6.5931439724350085,53.97459663694995],[-6.60820670800432,53.98085281349375],[-6.6186022897934285,53.98395184435193],[-6.62764182203689,53.982131582253686],[-6.624831510077549,53.98106279370085],[-6.626474368823611,53.975525623555534],[-6.635746367078452,53.97681703487744],[-6.639938659765428,53.975434921989226],[-6.643021857433107,53.97150664183475],[-6.635549270886178,53.96862360401925],[-6.6376146343861055,53.96461980097375],[-6.652179434624826,53.96368808767718],[-6.656027302959592,53.96610027401247],[-6.661297372555279,53.96250306188605],[-6.6479702554441085,53.95708529450213],[-6.649003056855064,53.95521414046976],[-6.6472285770798,53.95286447430287],[-6.655618637057028,53.95540913409088],[-6.656626091370717,53.956969525095985],[-6.659931996648251,53.9582487695606],[-6.66228526133831,53.95741359021161],[-6.660022104327741,53.95354748838558],[-6.653364836498435,53.9502527482831],[-6.653392270485911,53.94827306215043],[-6.650492580254619,53.94840265843008],[-6.647992838967296,53.94586530213448],[-6.651819960245543,53.9430165161395],[-6.659145252808806,53.94384413186988],[-6.660287144794011,53.94163746325059],[-6.644743969250091,53.9344557851484],[-6.633434616837109,53.932918405834414],[-6.628638351695022,53.928326604799395],[-6.630399799329928,53.92667678249483],[-6.6447890893248385,53.92381293015067],[-6.647309304370776,53.92185275123318],[-6.647349620702485,53.91605659410103],[-6.659327765234418,53.91333706224169],[-6.665395682880837,53.913392701295976],[-6.673589833420734,53.90891339574285],[-6.679423954598852,53.91047815310534],[-6.682337955363918,53.91245333890591],[-6.686373568741943,53.91195075775292],[-6.689217318489143,53.909152830569504],[-6.694698614603922,53.90791853920156],[-6.693982380960835,53.90595748890708],[-6.695345731010012,53.90351094579431],[-6.6949802452786145,53.90212253941691],[-6.696242367720555,53.90120222757501],[-6.69985057956718,53.9006794227405],[-6.714711408593963,53.90352934723701],[-6.716144713193615,53.90552625737457],[-6.721458842461236,53.90728270481546],[-6.7277776535025176,53.91141652174371],[-6.729378758732744,53.916871543595626],[-6.730588601529724,53.91766839685725],[-6.735813189415383,53.91549676512734],[-6.739065828501165,53.91287229506464],[-6.745133400466829,53.91244534755525],[-6.754992634624421,53.914473099664654],[-6.757013707961695,53.91639781093307],[-6.763451240711641,53.91774486510626],[-6.764222925421014,53.92022851052953],[-6.776274474832909,53.92522524665797],[-6.777328757403812,53.927855017344754],[-6.783071151191768,53.92599868029952],[-6.79062156681315,53.92751771889493],[-6.793278478812624,53.92650676529731],[-6.797773333208533,53.92891397138458],[-6.80789287770276,53.92821299784479],[-6.809519923047723,53.9307233255399],[-6.811497160998323,53.931695357500104],[-6.815960606924575,53.93098592535554],[-6.8193606227278885,53.93263206606031],[-6.826949159852255,53.93287942683912],[-6.830269790037613,53.93205190330484],[-6.8331725934474115,53.93470030375513],[-6.829173854341605,53.9364864432827],[-6.83608502475391,53.942015824510676],[-6.833054464707009,53.945264945308786],[-6.839190676076653,53.94734432608438],[-6.840284101021518,53.95149517590771],[-6.838818532739012,53.95272738454092],[-6.842737990997541,53.954694830635155],[-6.844728448460358,53.95763634840377],[-6.844271196957182,53.95965802491477],[-6.848454585699667,53.95957530543295],[-6.854288202922678,53.963494649564836],[-6.852553257836739,53.96589673118449],[-6.857781525651938,53.96917224918343],[-6.856229031134241,53.970305258530345],[-6.857594357954218,53.9730521483277],[-6.861806098897709,53.974971613975804],[-6.860047461231042,53.97693182475304],[-6.8630230412455555,53.978224051376685],[-6.862481950124724,53.98012404475587],[-6.86703336261386,53.98353598615158],[-6.863374560329277,53.98553159505746],[-6.864110828425113,53.987937341879686],[-6.86864369987236,53.99013463065061],[-6.8800737866321855,53.99256428941595],[-6.8814077300719045,53.99493897847592],[-6.875579157224564,53.997768898876636],[-6.8907046202041755,54.00321208994455],[-6.89030028576632,54.0077180375593],[-6.887785706004811,54.00948680300927],[-6.888925513312259,54.01160509644357],[-6.896350816460325,54.01246992054908],[-6.901255462799876,54.00873848964868],[-6.90674541831593,54.01198802842779],[-6.910299667308989,54.015664850644264],[-6.9148403935848055,54.01623197107647],[-6.91965482546474,54.01560828088029],[-6.921340732313583,54.01469147530521],[-6.921073821081839,54.01326477894217],[-6.92509508522089,54.01191766891252],[-6.925822756578485,54.01406551752242],[-6.934895048174269,54.01895832019832],[-6.933965361911029,54.02475355187613],[-6.937381249580813,54.02579502824915],[-6.938951417952295,54.027562856260886],[-6.939336790306037,54.02826665449828],[-6.937402772193619,54.02924440527233],[-6.939756482409561,54.033462581350534],[-6.942937439431436,54.03557296125677],[-6.947075586679647,54.03531997956461],[-6.949012071871604,54.03640781569346],[-6.950151986631556,54.03806347985964],[-6.9533151816536,54.03925351983788],[-6.953387362455698,54.04153498081725],[-6.9561225543999665,54.04329077302513],[-6.961635189370768,54.03988535652623],[-6.966321561269929,54.04017343127611],[-6.968225644027267,54.04319042647236],[-6.967548615684117,54.04576932535618],[-6.974623072470349,54.04687994002185],[-6.975235258440406,54.04815699108671],[-6.977924290138055,54.04843491490625],[-6.977431757170956,54.04947311296275],[-6.982372491944857,54.051921543761566],[-6.98143616148939,54.05297925800109],[-6.98215052083623,54.054491544223346],[-6.9873814161726875,54.0600952104897],[-6.986528459354016,54.06195106292659],[-7.002270162801014,54.06479829201962],[-7.009034817651405,54.07357669154753],[-7.012171505475947,54.07486427459829],[-7.011007206852256,54.07706110036747],[-7.012212345468214,54.077667993316275],[-7.022577781004896,54.077903811914105],[-7.025544550878822,54.07932856192557],[-7.029383627717609,54.0841220399549],[-7.029263930250588,54.087860874911264],[-7.025456880551004,54.088795694656724],[-7.02266301302908,54.09090923522487],[-7.014154841799991,54.09273640252777],[-7.015518532302785,54.094234228693],[-7.015102244930993,54.096796528628815],[-7.017746596792061,54.098613568927725],[-7.023560283776023,54.09922693369237],[-7.026145897970458,54.09753787633256],[-7.031757089945429,54.096740288084035],[-7.035407079512952,54.09707366798501],[-7.038389239874246,54.09952606210141],[-7.0396462228916095,54.09879511745468],[-7.043345810984894,54.09950501951367],[-7.044224554057471,54.10111959358483],[-7.048811569184693,54.100596656750454],[-7.050836339503517,54.09947238869165],[-7.051363511391373,54.0971853854479],[-7.05001270142923,54.09567152970336],[-7.052030894630462,54.09536074454483],[-7.053376738308769,54.093810862690674],[-7.068036753472735,54.09211924193595],[-7.072982700108917,54.08882576297251],[-7.07807306380495,54.08893327677331],[-7.08042733619014,54.08544586013839],[-7.086939560742578,54.0817924718776],[-7.0928460735045205,54.0826833254337],[-7.091445109272679,54.08738226744059],[-7.093281598390213,54.08941001767018],[-7.098294924017183,54.08986535061424],[-7.101190820894558,54.09387997554741],[-7.118166436210897,54.095604579595566],[-7.126011949029529,54.09470726766661],[-7.133011974837529,54.09226034967661],[-7.13407204076437,54.088572565727276],[-7.149966464912705,54.08211820106373],[-7.161062004212041,54.08419167225418],[-7.163787165234287,54.08376464458132],[-7.162984278665807,54.0874639087455],[-7.1665950505845,54.08927825868198],[-7.176277033436114,54.088374170963185],[-7.18070958156692,54.086499445240115],[-7.1831943684853705,54.090213558358315],[-7.190992046968298,54.09233589484436],[-7.192954932927682,54.09390739650191],[-7.193218041148832,54.09583831825262],[-7.194616997185955,54.09617807139565],[-7.1975423645888075,54.09616028686383],[-7.202321350837098,54.09240864738658],[-7.208954809222336,54.09540082952594],[-7.209871047336749,54.094757291645855],[-7.209864774639378,54.09631971996908],[-7.212118426100969,54.09610781434265],[-7.2183041037261555,54.098108786856976],[-7.2191345555623325,54.100816679140095],[-7.22337720809862,54.102396410147875],[-7.232377560837504,54.09654095479416],[-7.234567646965623,54.09694757762761],[-7.23735771455466,54.0999372991056],[-7.241639962050081,54.10209148996089],[-7.247007165045599,54.10218513823901],[-7.248279870457668,54.10180392799697],[-7.247406993897995,54.100006011159124],[-7.243059456307888,54.09866803170686],[-7.238038912834895,54.09479248706437],[-7.245901647965649,54.09271712464515],[-7.2501423282603055,54.09501830659527],[-7.258257954856119,54.096290597636425],[-7.263125472322741,54.09322107731197],[-7.271051741242075,54.09755228152299],[-7.273390948400292,54.100654814373755],[-7.281190959795284,54.10277453118433],[-7.2885706536271275,54.106973301830294],[-7.293363971001688,54.107769070518785],[-7.30101879561697,54.1061372829481],[-7.307422900634912,54.10924871706516],[-7.314204277517746,54.10554757593017],[-7.320901904145229,54.108533997442116],[-7.321030762811607,54.11233740739622],[-7.319826439670026,54.11352647804691],[-7.3141794777845615,54.115235006948275],[-7.313828341894517,54.11646826157415],[-7.30778438061075,54.11733961988332],[-7.305920924045236,54.11939943546056],[-7.305299972863594,54.12336205982412],[-7.316079678182758,54.126951610275434],[-7.312037454202201,54.13172450304744],[-7.318669336731334,54.13437633645276],[-7.31865979919921,54.137422720784166],[-7.32213227486554,54.138059233322956],[-7.327490146657953,54.13525145299949],[-7.330824840442673,54.13961475610169],[-7.329710637790874,54.14102621299357],[-7.33330998878961,54.14357458274945],[-7.338678156396975,54.14423944642317],[-7.339303674532692,54.14568089544805],[-7.3383486316317255,54.14742164876577],[-7.333529422675081,54.14812349510465],[-7.3261055341316395,54.151543573793084],[-7.323174267387439,54.15499747212569],[-7.31885388734096,54.15727886747064],[-7.320145300346116,54.15933605566438],[-7.317687012209412,54.159754401099484],[-7.31798125081007,54.16054023127397],[-7.313705602141877,54.16317799526388],[-7.313951298194478,54.16391817058711],[-7.31163514935145,54.16444060339873],[-7.310213725543809,54.16731147018603],[-7.300376941504817,54.16616317590866],[-7.293051101898892,54.16978939356872],[-7.291368049761696,54.17194035968026],[-7.2797773301102,54.16765996594917],[-7.28578762552164,54.15787107228931],[-7.283835875052355,54.15387481600781],[-7.289902380233156,54.14921717721674],[-7.298870509776674,54.14931730269549],[-7.301318900065431,54.14438948062421],[-7.284198055826622,54.13977021425674],[-7.285356502089096,54.13643249827181],[-7.292690043623694,54.130562887756085],[-7.294462505324767,54.131665118249465],[-7.29597713582769,54.131167698814885],[-7.298586439819146,54.13379701502637],[-7.30893385184099,54.13212436684841],[-7.305691637386977,54.128133795778616],[-7.303033340968535,54.12655748402645],[-7.303553952487206,54.12291655578823],[-7.2980824169443945,54.120626035028955],[-7.291889429592443,54.119092070122576],[-7.283759553331693,54.122857554128615],[-7.279441505207752,54.122408004841255],[-7.278005360868663,54.123265638664755],[-7.279563360456703,54.126207608901154],[-7.277555768391686,54.12962154127761],[-7.268962409497863,54.13539356009517],[-7.262968121268013,54.13740261364242],[-7.262897819465293,54.140245710537336],[-7.261893805302083,54.14122595747586],[-7.263748513558988,54.14334930119809],[-7.2638905409533185,54.14544307034609],[-7.261855048728243,54.14739891895838],[-7.256710684825447,54.148137664773316],[-7.256974223633437,54.14905593940171],[-7.258842248276746,54.14917080859298],[-7.258361356952952,54.15154779426576],[-7.25927619977194,54.151790375865424],[-7.258219172316176,54.153741502150496],[-7.252483381314438,54.15567467334289],[-7.252831295465011,54.158636236046675],[-7.257678754336363,54.159944608051696],[-7.2596113017967046,54.162699712629326],[-7.257912776300087,54.163501963750164],[-7.257824908375144,54.16471631993515],[-7.255304462744728,54.16495170202323],[-7.2534061618793935,54.166590996589235],[-7.245040316782717,54.16933305588625],[-7.2402997936618805,54.16971027352632],[-7.240669092095712,54.17113740268767],[-7.243859328865233,54.17268086690408],[-7.251343320180053,54.172746184041515],[-7.2529211056988885,54.17704899373229],[-7.256168309913417,54.17608992277612],[-7.258260768459581,54.17736397233073],[-7.256483864103615,54.1818429243273],[-7.259552172190051,54.183950147812155],[-7.257578328600836,54.185742879291745],[-7.256075317213434,54.19024068905011],[-7.2591261978101995,54.19225476222875],[-7.2509466353910135,54.194112694728936],[-7.245587890122749,54.193751370581374],[-7.244224645855237,54.19264577402942],[-7.236091683524501,54.19341163684988],[-7.235851106067694,54.1962299039839],[-7.2330090438674075,54.19780753248913],[-7.240079340291717,54.19902255986178],[-7.2427240529698285,54.20065961024721],[-7.2492199867891545,54.19791539576375],[-7.250304734196123,54.19924668786419],[-7.2478283463342565,54.202596168985394],[-7.249211347877212,54.2033149578733],[-7.248084532655963,54.20444021441454],[-7.239055237787583,54.206833096471044],[-7.231760444281259,54.20560066931536],[-7.231413655215448,54.20713999510419],[-7.233860963202402,54.20823509993316],[-7.232098891704657,54.20928544800664],[-7.232683276307491,54.21086438626934],[-7.228080223443884,54.21243198345024],[-7.225580016573289,54.21461521655569],[-7.221061996326262,54.21575834877129],[-7.214828839887509,54.2133491990965],[-7.209052801324161,54.212819419588754],[-7.202786240776138,54.21523845139251],[-7.198791699509384,54.21562824754786],[-7.195241766185939,54.21761315492372],[-7.195538974192502,54.219465558922906],[-7.190512930184456,54.22417489717576],[-7.188260904509686,54.22484379102375],[-7.184236519297172,54.224373513970285],[-7.184773745656391,54.22009554209142],[-7.179416787557117,54.220653043752876],[-7.176628807336869,54.21824309418191],[-7.170929806232665,54.21761989103869],[-7.155546687123811,54.221230681984686],[-7.153225426880093,54.22086328691],[-7.151125107867173,54.22344271764234],[-7.144978588046771,54.22473559731775],[-7.147414208804714,54.225798355206],[-7.146586214069335,54.23002335861726],[-7.1498514579458865,54.2316227790908],[-7.1496215084053265,54.23394697802824],[-7.1461301571494245,54.237080748606445],[-7.146106074382914,54.23980449089616],[-7.158980131219858,54.24391812880945],[-7.158013427772002,54.24552797577974],[-7.151268443362555,54.24939771776066],[-7.142550009084247,54.25163788819289],[-7.141424942376168,54.25319208487757],[-7.142183083598956,54.255593143514396],[-7.150500335122848,54.258366164302196],[-7.149999171700322,54.25955584686829],[-7.1515616775827455,54.25964688986222],[-7.1536257951565245,54.26315505448444],[-7.153700379335458,54.26598034381515],[-7.152474923475469,54.26673159765437],[-7.159191922942481,54.269050983269764],[-7.15718946319707,54.27067833013951],[-7.160636263237534,54.27356395754844],[-7.173239937663708,54.27275240350534],[-7.176637162223427,54.27053749472466],[-7.1780661088227635,54.27257837258804],[-7.179285204147435,54.272557454328535],[-7.1796198974894745,54.27678374990324],[-7.173612665305941,54.279485419705594],[-7.1729939965774365,54.28245793639048],[-7.171239919272492,54.283611345786525],[-7.1729861802236785,54.28607824768016],[-7.1816857965246985,54.28642154193839],[-7.180842228037357,54.28788409492862],[-7.1858311709952405,54.28757926542895],[-7.188603039624593,54.29023443110642],[-7.199223517104412,54.293813605641674],[-7.206975114444169,54.2943760575029],[-7.212115300856847,54.29967403585828],[-7.207572655656751,54.302680153616144],[-7.206575272839123,54.304981229802],[-7.201790188751419,54.306333585138816],[-7.201112184487181,54.3077993284423],[-7.198534924033018,54.30856431744555],[-7.197701168022715,54.31103767551774],[-7.1935901181673865,54.310753200493764],[-7.191588621250868,54.31187260316585],[-7.187683949047158,54.3105916388372],[-7.18330966417563,54.31079515079012],[-7.182463634445229,54.30927883232626],[-7.179229711917141,54.30965585895222],[-7.179451898102691,54.314677159909735],[-7.178024062625311,54.316655827082236],[-7.179938901918794,54.32005820388637],[-7.179984693135693,54.324504430193],[-7.181767255236387,54.32880507575986],[-7.180410272196835,54.3320754445473],[-7.188506778139455,54.337740357553436],[-7.18156627182543,54.33982698441302],[-7.1663803189087325,54.336316726034156],[-7.161726171605853,54.336955612166484],[-7.1526918863424465,54.33543269174776],[-7.146266146071651,54.33952973436214],[-7.141308998396279,54.33900752639823],[-7.140320317508748,54.34249126291403],[-7.136415022441762,54.34461534158006],[-7.127948004407258,54.34554678076411],[-7.123761778088314,54.35069799495231],[-7.116577437721323,54.35283093066459],[-7.1117035662134755,54.3529186317063],[-7.109475743169817,54.354724184668484],[-7.103641961431284,54.35585640162606],[-7.102898815906789,54.35979108915553],[-7.101739930090652,54.36077166715176],[-7.108997793903965,54.36560093211256],[-7.109690100342031,54.36830156331746],[-7.1060374489970215,54.3679892632032],[-7.091418964880738,54.37489691021166],[-7.084569178702259,54.37862117156642],[-7.083680538454718,54.38171909258542],[-7.072373729856078,54.38836761723339],[-7.0706752970059865,54.39027156488312],[-7.071912473480259,54.39131938155662],[-7.070615162568812,54.39239147421832],[-7.071283646373404,54.39371863382254],[-7.070074594362256,54.39538275004987],[-7.063533699039094,54.39947989819885],[-7.059627683845015,54.40503477553982],[-7.056300469391988,54.40768254200971],[-7.05727556311358,54.411099904223384],[-7.054943589315669,54.410049229906406],[-7.05370786787501,54.41219995436014],[-7.042659814807483,54.415003264107945],[-7.0402079581147055,54.41781685072436],[-7.038105852853229,54.4176275851537],[-7.029361143029229,54.42137266365894],[-7.025638239663096,54.41892517952285],[-7.019565728096951,54.41795700822533],[-7.019620853389498,54.41617062380694],[-7.01660295886883,54.413989197949185],[-7.014949210583257,54.414389263953474],[-7.016462819292474,54.41580690609524],[-7.014276146751073,54.41578678012199],[-7.01336084941753,54.416982722660045],[-7.011597812336255,54.41613414380578],[-7.0126405445261195,54.414968118353016],[-7.009780389834764,54.4156772130367],[-7.006838530752391,54.41509854845675],[-7.004410634250437,54.41313645110687],[-7.000654741099641,54.4132382246004],[-6.99877112588062,54.410463231693925],[-7.001090186630695,54.41078467937194],[-7.002079439557487,54.408390585111874],[-7.000168959899569,54.4076873640225],[-7.000023103957135,54.40648561277875],[-6.995790547544555,54.40649266348219],[-6.995999886339558,54.40537194596292],[-6.993910233707847,54.40513452108376],[-6.987891924672909,54.40734285530034],[-6.9899920977114975,54.40772264487061],[-6.9891786720943045,54.40946574761093],[-6.978766456249443,54.40857254243813],[-6.980994095838344,54.40762723755984],[-6.9767335594775775,54.40587233158159],[-6.976630839671826,54.403878304470275],[-6.978267712249457,54.401705291305355],[-6.975070235048965,54.40001778220623],[-6.967161953590058,54.401371931348365],[-6.959063433121843,54.39780689541497],[-6.958461202563865,54.394489052315365],[-6.959943781060656,54.3935641333583],[-6.9596310611129315,54.3922240969341],[-6.948749943561861,54.39011256162353],[-6.944041326762871,54.39109681383209],[-6.943716781064329,54.38919436764272],[-6.945568545843717,54.38720889282606],[-6.940084352857806,54.38426705252003],[-6.93874700047163,54.38455576501674],[-6.937842008110339,54.38311443663584],[-6.933323943899,54.384635647031146],[-6.923740143682276,54.38289072650757],[-6.926336028559991,54.38144135100217],[-6.928630314665591,54.381740069391775],[-6.9287754880201735,54.37989839114752],[-6.933169395811702,54.37991871485786],[-6.932754382401501,54.377890557115535],[-6.930683068779718,54.375720021564454],[-6.9274569906335595,54.37687825850719],[-6.926181490706806,54.37582196998857],[-6.924858838243385,54.37751048861385],[-6.9218019464618346,54.37758977221383],[-6.922403570411959,54.378660069589635],[-6.91946400688676,54.37837774315395],[-6.911190767827784,54.37468985198172],[-6.91106399795325,54.37344303837657],[-6.912000919169542,54.37308292040624],[-6.910904709161754,54.37238309831996],[-6.91237588011095,54.3718325864638],[-6.906696231452068,54.36951160299182],[-6.9081036948850905,54.36657331524544],[-6.909893331780798,54.36708888218279],[-6.910585362825536,54.36531526347411],[-6.907218301028617,54.361104732078516],[-6.904314749564303,54.36163948196829],[-6.902957010540258,54.360864181554504],[-6.905633819744881,54.35994405135172],[-6.904664604306305,54.35725631236844],[-6.906220441927545,54.35529784851863],[-6.9063167570361434,54.35038737835428],[-6.900062861999248,54.34960543101782],[-6.89322204626773,54.3511590487406],[-6.887515735921025,54.348913839764144],[-6.886291265094697,54.34599363795637],[-6.8847146419746155,54.34669655300078],[-6.88519274438709,54.34742433146062],[-6.883882229973516,54.34649246909466],[-6.875936881601823,54.34651190961975],[-6.875756321035845,54.342347878864366],[-6.874285737174426,54.34162385471428],[-6.875536714390249,54.33852534384235],[-6.873734631573287,54.337885017980966],[-6.872263228487254,54.33484773237336],[-6.869035134592745,54.33330558021727],[-6.868100718994182,54.330725797614704],[-6.866420532997803,54.331849844677464],[-6.865652239940913,54.330875469569655],[-6.866275695352806,54.330016480189705],[-6.86386512922,54.330094997255415],[-6.865685858367602,54.32648026172713],[-6.863656007835283,54.324855899287925],[-6.864291377962755,54.32362618785928],[-6.863328438127755,54.315314383895334],[-6.856334333220139,54.313549973020464],[-6.856570850314682,54.31162691998102],[-6.857897643116612,54.31126212027127],[-6.856866044538189,54.309951843796384],[-6.859487984978627,54.30803254079798],[-6.8574273952338185,54.3066936819337],[-6.859041583938665,54.30380833650832],[-6.853291913901075,54.301245722594146],[-6.850799470227154,54.2972950273386],[-6.85129319417535,54.29562098021053],[-6.853113682897454,54.29461459447313],[-6.852679947245192,54.292656555699246],[-6.851037639680166,54.292127240949576],[-6.851541799072874,54.291499728770894],[-6.854011450473927,54.29003612487889],[-6.860505790687655,54.28906371580912],[-6.8612538844226165,54.287109742704075],[-6.8585972220211255,54.283522779815875],[-6.859072200336481,54.281834710301574],[-6.861679518379623,54.281105185153905],[-6.868018626864834,54.282114965134056],[-6.8677116963428455,54.28569712139492],[-6.869570833751829,54.28753859044023],[-6.872292425443561,54.28794030836326],[-6.875142427582474,54.287168010671905],[-6.874324698461941,54.286440660032206],[-6.875222685716977,54.285547143882546],[-6.877847911849499,54.28511166733815],[-6.874701738475357,54.28202564163486],[-6.877909494808198,54.27908699504075],[-6.8712756198617155,54.275663623808924],[-6.870141071986458,54.27620386282202],[-6.865447728586486,54.274530868295074],[-6.864836810786732,54.27348608405695],[-6.866498478306503,54.27059903886506],[-6.865559024580804,54.269680792822165],[-6.862609611998688,54.269987010149265],[-6.8584424817219745,54.26838188982795],[-6.852620385706318,54.26904359955141],[-6.851810233755388,54.26500456507466],[-6.844113259638102,54.266841744802036],[-6.841166437326087,54.265662514537134],[-6.839353178277679,54.26772332012834],[-6.836612798338182,54.26634783943109],[-6.8363047784574675,54.26469956958374]]]}}]}