{"type":"FeatureCollection","features":[{"type":"Feature","properties":{"name":"County Sligo","source":"Tailte \u00c9ireann Counties National Statutory Boundaries 2019 (CC BY 4.0)","simplify_tolerance_m":75},"geometry":{"type":"Polygon","coordinates":[[[-8.186504752527162,54.1238723443534],[-8.181580668972657,54.12179822926053],[-8.181630345642166,54.12041105669455],[-8.179973131096274,54.11944508612976],[-8.18058850428988,54.11781826935786],[-8.175661250674395,54.11489559503069],[-8.175606355114931,54.11343636630641],[-8.172344641935924,54.111707992784055],[-8.167665327758792,54.11206033899535],[-8.167699632491267,54.110840542908186],[-8.163535008395938,54.109041038033176],[-8.162250476308353,54.10637492273542],[-8.155871685454684,54.103959525386486],[-8.153008541433136,54.10160911884927],[-8.166537842730133,54.10135378876967],[-8.176984702497972,54.08839522370096],[-8.179693858877673,54.08642573071706],[-8.184767461783544,54.0860735125245],[-8.194477321369211,54.08754071929111],[-8.202166617603055,54.086278387255426],[-8.204453444055934,54.0848945336966],[-8.209722111612901,54.085654886696545],[-8.212127542754752,54.08418750726779],[-8.21977299747596,54.08395122462208],[-8.215971990036579,54.07836754145009],[-8.219802381970306,54.076962452513285],[-8.214887087144788,54.0684683995189],[-8.216934968271397,54.066717100561945],[-8.21853071751872,54.06155244490406],[-8.226359489542233,54.05962439100704],[-8.228182034005435,54.06004837854552],[-8.22801121868546,54.05919167490478],[-8.236059155997113,54.059734631751894],[-8.239433431601324,54.057897989185946],[-8.237976257604894,54.056149712986446],[-8.238527481125626,54.05354930226057],[-8.23683131439471,54.05198281098987],[-8.239312699432523,54.048701447028854],[-8.236895699102622,54.0467289852603],[-8.235963570512128,54.04438550809825],[-8.232933837077375,54.04296706861798],[-8.23592671267439,54.042091354807845],[-8.238374791480533,54.03964017851337],[-8.24637238049504,54.04124072350274],[-8.250874875861442,54.04429262474168],[-8.254969245261146,54.05032735297143],[-8.262725933754599,54.05327833126914],[-8.264786488177618,54.05199605519847],[-8.265475383939469,54.04976881186392],[-8.273791285884727,54.04877723941383],[-8.273861638213004,54.04774418612117],[-8.276455977342865,54.046671822111655],[-8.276838855332503,54.04494833480032],[-8.274993714996562,54.04265639033113],[-8.277024868625762,54.04194195892874],[-8.279272831304853,54.042902223890884],[-8.281561325043324,54.038494492031475],[-8.286626297577351,54.03768669822521],[-8.28665107597488,54.03957750060047],[-8.289193608151065,54.04290014610564],[-8.294513462487146,54.0447696318155],[-8.302766823166893,54.03762693651313],[-8.307092311076978,54.0315227461668],[-8.307177452987883,54.03016421505313],[-8.30463409241675,54.029158707243624],[-8.304252968400009,54.027512271516215],[-8.305352316750689,54.02570968214153],[-8.309904565935433,54.023591667750324],[-8.309741208522663,54.0216213538657],[-8.3118601495383,54.02041475177583],[-8.312221309665585,54.01864270142577],[-8.309043703439226,54.016764202298816],[-8.305972138568412,54.01661204539652],[-8.310872501579396,54.01064959207502],[-8.317236724077935,54.009446621588275],[-8.317625300734155,54.00765307442853],[-8.315199877211516,54.004607669160116],[-8.345607742942901,53.99925309373324],[-8.366208256767127,54.00459078540785],[-8.375052622733023,54.00436546604143],[-8.376838389577234,54.001638104355266],[-8.375805940973676,53.99957161847514],[-8.382650045539709,53.998604079130125],[-8.391761264600243,53.99925950856035],[-8.39448699279367,54.00029912633478],[-8.394649580182126,54.00146453565877],[-8.397882340385328,54.001641416839966],[-8.398246879225272,53.999507318355064],[-8.400876869916862,53.99665510615726],[-8.39280663177487,53.99335413948633],[-8.387692380282934,53.989856340344204],[-8.387910892721491,53.98836801778145],[-8.384658811823261,53.985590951943536],[-8.38570712183625,53.981797978091194],[-8.388490166247315,53.9815468764917],[-8.390477667895771,53.97888508945202],[-8.387100835642663,53.978431247184965],[-8.387036469865123,53.97318073217936],[-8.382197057084761,53.97246478436005],[-8.382264728038628,53.971441687812046],[-8.387059900258421,53.96891773033851],[-8.389056667677544,53.96899231817814],[-8.392812188643965,53.96485778379195],[-8.398681202876983,53.96443310181811],[-8.410265865994184,53.967182956959846],[-8.416959018605446,53.96522881317438],[-8.425417196577216,53.9646513563494],[-8.422256978987948,53.961949078854076],[-8.404445798759737,53.96046132511993],[-8.406969591560161,53.95772861302797],[-8.406134107475026,53.9566582513305],[-8.37745665181214,53.951862348666886],[-8.377285090624326,53.9494485182927],[-8.376310235690891,53.94923809362092],[-8.360864522398385,53.94799315889066],[-8.360290729741147,53.951219208758026],[-8.35705502752124,53.950441347842215],[-8.346838937429421,53.95093182056663],[-8.349617078172098,53.9423015878359],[-8.342638283012787,53.941555408325975],[-8.341894953236554,53.939633705774824],[-8.336831274986105,53.935566065859014],[-8.338354826103645,53.93552224516632],[-8.338062552323738,53.932901269538846],[-8.335200768582071,53.93286798982334],[-8.335897388778415,53.93126450703747],[-8.333666960501073,53.93050137063621],[-8.332948050071195,53.92765490898781],[-8.336267680390925,53.92623835723603],[-8.364739555669843,53.92741709721007],[-8.37396157235264,53.92509281408601],[-8.376782035230462,53.925492399864474],[-8.377402347682267,53.92665949132909],[-8.384437740166376,53.92727179560726],[-8.387386280864218,53.92566115817054],[-8.391329688009936,53.925283538085665],[-8.405034026959028,53.92677039029607],[-8.431282775784684,53.926853298350814],[-8.4342989455385,53.92861750454187],[-8.43806811398124,53.92769422267018],[-8.438685812797548,53.926322877326506],[-8.444216121390067,53.9268701416171],[-8.448197730113588,53.92557677531941],[-8.45032093424469,53.919640487454096],[-8.447703580810877,53.91511858579324],[-8.450900112481758,53.91350847491403],[-8.469080783772512,53.91300969154877],[-8.477341326946274,53.920917149385616],[-8.48800357368794,53.92141308984969],[-8.501879328678356,53.92612177860744],[-8.506658059518703,53.92620895551179],[-8.509569935441304,53.92482427911091],[-8.518776499763005,53.92621974847728],[-8.523072911190322,53.9330160378676],[-8.522402233953038,53.93615764894766],[-8.519884240929306,53.93800627661234],[-8.519549165195842,53.93961061196569],[-8.52262282274146,53.94265247724311],[-8.521825538970656,53.94433881340976],[-8.526808946394878,53.947274481491085],[-8.527664738488138,53.94811720156619],[-8.526846746136412,53.9493950612683],[-8.52990499787874,53.95279181139606],[-8.536988038206758,53.958066570940204],[-8.54279906166415,53.954896185190016],[-8.551216262863067,53.95313426710425],[-8.567935538449232,53.95228989384008],[-8.573281480698677,53.95385328992318],[-8.585084926347996,53.953817657508395],[-8.589833009678095,53.965118405298185],[-8.594197726398244,53.96676165438279],[-8.593006833919347,53.97639719155429],[-8.589884821929365,53.97971993408325],[-8.593051066550219,53.98847910022676],[-8.592980736393852,53.992509102964476],[-8.59078430410356,53.99654635455808],[-8.589459570485092,53.99699056185504],[-8.590285674463388,53.997416078906134],[-8.589502259324593,53.99894240964942],[-8.58981809331713,54.00579626202568],[-8.582864121440066,54.01290176723481],[-8.598407781039391,54.01666271523803],[-8.60713293223656,54.02025849005813],[-8.607089563995729,54.02161670099827],[-8.618425730048479,54.020691655091234],[-8.623812772693547,54.02406975313244],[-8.631026695673631,54.02561102506565],[-8.632958718550423,54.02766331672641],[-8.647443099851207,54.03349905961317],[-8.648335949392948,54.035790575194454],[-8.64567945905256,54.0374582314801],[-8.647372600355991,54.03901673779962],[-8.656637738343823,54.03632078220554],[-8.661267915968253,54.03634512119052],[-8.664469300119048,54.03162579792068],[-8.682435378784742,54.02967694521396],[-8.67783413528618,54.02023648704076],[-8.675348053839745,54.018423198089586],[-8.679066678806711,54.010415772714545],[-8.680950856146563,54.00955013944703],[-8.68175906068861,54.01138952857839],[-8.69132764961656,54.006440940220756],[-8.701070621574075,54.005245341603434],[-8.706435968102474,54.00088009257937],[-8.705963057472637,53.9966761657878],[-8.70891676135288,53.99159440611876],[-8.713777255718174,53.98776723935286],[-8.725081131203511,53.9875567661501],[-8.738489350932257,53.99474370773117],[-8.751346499310444,53.98274693764725],[-8.752782842535426,53.98340376392361],[-8.755632333009967,53.98222043336777],[-8.75361574010866,53.97851527706633],[-8.754270708949623,53.97666900326089],[-8.758062969834034,53.97586707786842],[-8.766597178737726,53.976647605496524],[-8.780962513544404,53.97450385447506],[-8.782503696807215,53.97344133345517],[-8.781599279411457,53.97261200271926],[-8.782524173861283,53.96628320868984],[-8.790447223655054,53.96548520995592],[-8.80016799696697,53.96673175589131],[-8.802695806014379,53.965739796268274],[-8.80824618520732,53.96669178744015],[-8.811018658301379,53.96549374817415],[-8.845222091690234,53.97219956670048],[-8.849031031932897,53.970984295825424],[-8.853407015230403,53.97358287265322],[-8.861228158531771,53.98047980664951],[-8.86256312970596,53.980371257146544],[-8.863133816875672,53.985728625148994],[-8.862228590063463,53.98797232753532],[-8.863857007785446,53.988722049540755],[-8.863794984524025,53.98984683948369],[-8.873693476969159,53.98984421437089],[-8.876600222251872,53.98882577816487],[-8.880702116158266,53.99172706966892],[-8.881200529355871,53.99310165090746],[-8.878542079272343,53.99584348610692],[-8.878348592446274,53.99762906120538],[-8.880766587247203,53.99808035151479],[-8.881282873918694,54.000138439574606],[-8.888852198769255,54.00718522539322],[-8.887597063029,54.00773976793771],[-8.88800359474194,54.010006856373124],[-8.883001590379163,54.0210776701712],[-8.88320473104099,54.022654808214014],[-8.887551682553303,54.02171374923355],[-8.895265629852139,54.0220554644666],[-8.899040220901362,54.01907908936626],[-8.911477641447513,54.01614905070711],[-8.908670882781674,54.01375519398734],[-8.923836734752989,54.00885858812399],[-8.935719449678926,54.009824124510075],[-8.94390763701876,54.00921027339572],[-8.94658368784546,54.01312667771016],[-8.946700397659137,54.01617196934509],[-8.95206353304899,54.01868812293859],[-8.954870782777066,54.021690412401675],[-8.95888760705447,54.023848420761354],[-8.964962832267924,54.02575819832825],[-8.965253643666646,54.03008156836579],[-8.967518855978692,54.031261522338404],[-8.970778913827953,54.030815100877575],[-8.968186828753458,54.02850018482546],[-8.969024073495374,54.02713417312209],[-8.976081272714767,54.024292215303326],[-8.981043882997353,54.0265788469421],[-8.983920612269092,54.026752158054784],[-8.994890132311767,54.0235690676722],[-9.001507259017892,54.02583779556569],[-9.011257596554058,54.023985442624905],[-9.018996775306453,54.02527833932807],[-9.019328756595753,54.02748993901811],[-9.013017499370257,54.02838145251611],[-9.013000235100138,54.030040465505316],[-9.010553744577473,54.03090951419382],[-9.016069843063457,54.03380610369077],[-9.01526120158621,54.037306286187906],[-9.014087420136036,54.038096445875496],[-9.016914060307839,54.04074870953664],[-9.01539326674142,54.04104999425818],[-9.014568432996578,54.04281183928854],[-9.015315595370996,54.0470139117453],[-9.014459002369923,54.048425951537794],[-9.015440548771645,54.04963672279988],[-9.014077778021212,54.050796275248864],[-9.014239870783866,54.05241583892641],[-9.01123491387669,54.053651686176025],[-9.009165275049563,54.05323347740715],[-9.008964033010207,54.055296503942564],[-9.00988131144087,54.05573148799456],[-9.006372926743689,54.05823100890654],[-9.00171025563124,54.0580000108668],[-8.999490658515082,54.05868879830984],[-8.999580892462733,54.05981827019486],[-8.998036871085462,54.060816499492404],[-8.992091475228433,54.061681017685686],[-8.991093201785405,54.06368915805667],[-8.987614649655299,54.06436910240296],[-8.987152325737217,54.065741944541216],[-8.983203182296334,54.06830310021357],[-8.975628041610292,54.07027677041729],[-8.971499125360467,54.07275519676291],[-8.965475922309853,54.073195280771074],[-8.966469276258879,54.080319237056784],[-8.970215523546523,54.085955216421624],[-8.955258525211942,54.08936689205499],[-8.953728437025909,54.0933147655086],[-8.95819137628508,54.097730859362315],[-8.959998711509789,54.102309597562375],[-8.952424259334244,54.10501258965364],[-8.946908757222417,54.10469981276302],[-8.935388235088675,54.1061334563885],[-8.923571964836079,54.111655258630165],[-8.921278917053973,54.11492349454824],[-8.91695666193888,54.118043396853224],[-8.921053356655737,54.12347203024002],[-8.923932936799167,54.12541945798987],[-8.932396972993502,54.12561755889431],[-8.937152625735177,54.12707180357637],[-8.937873897373354,54.12834962024212],[-8.935714527919307,54.13137839227954],[-8.945560039465413,54.13221452274062],[-8.94428035339404,54.13339479415296],[-8.94560437055083,54.13609976411052],[-8.947090741621778,54.1365874565003],[-8.947279897583215,54.138447469374846],[-8.939861013573564,54.138578241348874],[-8.936798145534711,54.14306178201376],[-8.95414404900055,54.144810671922855],[-8.964604495410837,54.14833414995814],[-8.997109602235554,54.15023603328532],[-9.019029881008985,54.15759802129999],[-9.02104457813864,54.15902769784278],[-9.022790344487198,54.162301093412225],[-9.02540695604786,54.16193252391279],[-9.027090266482151,54.15913730616429],[-9.030620185729706,54.15752302143963],[-9.028739462334968,54.15488974143265],[-9.031471213084,54.153184700762964],[-9.03425102341019,54.15307624189825],[-9.035254502147145,54.15468729423112],[-9.04108438730888,54.157174598186],[-9.052527732925943,54.15681798608482],[-9.054122787388764,54.15431836526933],[-9.051962991483355,54.15176449123699],[-9.055332324853651,54.15020992465459],[-9.054764847878424,54.14833658534465],[-9.056872412754464,54.14570625650461],[-9.055996302305948,54.144174572037],[-9.057396477994446,54.14407527845519],[-9.055832236951199,54.14320479130431],[-9.056464632769506,54.14260880519099],[-9.059186567480094,54.14261830882469],[-9.063296968377452,54.14478904422191],[-9.076349376129057,54.14594907808328],[-9.080328551387709,54.14479534598665],[-9.084462070893608,54.145961781343495],[-9.08986173695095,54.14296676164197],[-9.099473859576992,54.14260608301189],[-9.104652828089685,54.14400483170538],[-9.105843005056077,54.14505229668498],[-9.102262549099153,54.1478761576075],[-9.102823776410848,54.149284661260964],[-9.121311704739822,54.15535689057205],[-9.1240056329466,54.15916321173665],[-9.13416810159578,54.1635228008597],[-9.134668439206129,54.164726279207606],[-9.133232400785278,54.165897121818944],[-9.133424337393203,54.16755167735986],[-9.129394522449832,54.16791969190169],[-9.133890411545417,54.17051460855749],[-9.133740886265208,54.171788871516725],[-9.13181746713356,54.17185646824746],[-9.13507211530528,54.17419734914254],[-9.13655318194875,54.177706028709835],[-9.133526923225716,54.17956091749288],[-9.133761043610615,54.18087339812351],[-9.130862368680528,54.180164767329835],[-9.124147972992093,54.181668902755625],[-9.126097287500972,54.18399333583926],[-9.12479474888903,54.19094588307157],[-9.126724292703965,54.19234775962427],[-9.127299012216227,54.195955884566054],[-9.120211243918606,54.199389636894644],[-9.114731479680547,54.19848677224506],[-9.11080188973307,54.200891221958884],[-9.108794489718168,54.20369219933955],[-9.10466711508544,54.203638500203695],[-9.109510412201313,54.20400197525387],[-9.111217907151442,54.20101782868898],[-9.112717695518656,54.20044279930563],[-9.1365463315951,54.204017354079824],[-9.134404777123386,54.20684346534828],[-9.131159538300084,54.208087075778586],[-9.10613451070366,54.21051375215282],[-9.094626591012078,54.21482001358346],[-9.096120197346902,54.220061318839385],[-9.098506523883819,54.22025928129527],[-9.096987881790445,54.220192689992096],[-9.096519640161183,54.22535762906072],[-9.09234357194406,54.22737792802142],[-9.092562751131956,54.22937802005907],[-9.09035645127059,54.23075647662876],[-9.089019713817246,54.23384811879873],[-9.083986646265386,54.23563206789213],[-9.084135243193352,54.23725831045356],[-9.082902912615861,54.23743066236557],[-9.083288359792553,54.23861015442081],[-9.078092785683433,54.244155986871675],[-9.075524561033205,54.24947675745955],[-9.064478976345843,54.26161048070079],[-9.063381245424532,54.266927678708406],[-9.053579685174043,54.273817488640965],[-9.054434167600258,54.277366852404135],[-9.05998445092328,54.280249480827194],[-9.054138548697589,54.2821057432753],[-9.05131936836028,54.28677563620212],[-9.055425178617194,54.29348754102906],[-9.051116399990041,54.294534753677894],[-9.03812454048165,54.293408033466356],[-9.028255285848877,54.29468518636112],[-9.023974320734586,54.29673335572691],[-9.017234131575629,54.29613464085302],[-9.015729045467763,54.2940238744724],[-9.009665351341555,54.29263526749444],[-9.002567211777116,54.293285027740744],[-9.000167656642674,54.291626880858665],[-8.989281105552447,54.2947404699778],[-8.972996038567606,54.29105921636226],[-8.969467181188286,54.291447376079766],[-8.964855405353564,54.29415208517771],[-8.961598962652722,54.29414762087625],[-8.959129413156345,54.2917516861528],[-8.959843194276047,54.289932858983704],[-8.958007742718681,54.29224224532123],[-8.951812568490228,54.29183781339058],[-8.946987719119296,54.2950179166668],[-8.939168531791834,54.291019305572576],[-8.93616026972268,54.29178048851726],[-8.935152217713878,54.29308958123631],[-8.932075213452048,54.293272961966245],[-8.93118291556515,54.29271659265013],[-8.933323093748397,54.29185082147373],[-8.932311472037085,54.29094408975092],[-8.927911924308557,54.29057327700978],[-8.919425140266288,54.28655419389996],[-8.911389418767842,54.28567717125827],[-8.905394644132565,54.283030914274],[-8.898538856151264,54.2767025372391],[-8.89767180831122,54.274496222941515],[-8.894605030793304,54.27262466571603],[-8.885742894535886,54.27096171069748],[-8.881899446890015,54.268262211962956],[-8.878980383389923,54.26767585735997],[-8.876621103258527,54.269728269868835],[-8.874001207443719,54.26920356278556],[-8.874094849014288,54.26992082775521],[-8.872715828002582,54.26870300599273],[-8.874329236288785,54.26853848586617],[-8.871757806503984,54.26844605730596],[-8.866831449514072,54.264963329340866],[-8.86517825428554,54.26229009124211],[-8.86122635322364,54.26223960588853],[-8.856841461402837,54.26387484254872],[-8.8562492677153,54.26694927502673],[-8.853731930684008,54.26192657999664],[-8.848774528453689,54.26039179664436],[-8.845291423886975,54.257485097671214],[-8.844289494082446,54.258327857400126],[-8.844120972117981,54.25712329657979],[-8.841330870253367,54.25736772472175],[-8.832331083449668,54.253692778567476],[-8.827609005114207,54.25366785936678],[-8.826647961177436,54.252802232037524],[-8.81853806180091,54.25493007442417],[-8.815025227570048,54.25482850352252],[-8.812764324560964,54.258346384853276],[-8.805041759553875,54.25721501606899],[-8.793368638577238,54.26119397927632],[-8.79203826374854,54.26413274063064],[-8.790967072321898,54.26369885664322],[-8.790959688921092,54.264982609479496],[-8.788780328304519,54.265170537298715],[-8.790067763082869,54.265723191151665],[-8.785795626753618,54.26639305514368],[-8.786899669183752,54.26824297858093],[-8.78454307927435,54.27179906411007],[-8.780343846736772,54.27237956786625],[-8.779958363871136,54.27346357405049],[-8.773260734157647,54.27700600792703],[-8.762476828066392,54.27904655891103],[-8.757177559247042,54.27900661548546],[-8.755883235336471,54.2776650187915],[-8.75394648105198,54.2775503808677],[-8.753751258700591,54.27470011039334],[-8.756695232748937,54.26934089354632],[-8.755853760670966,54.26873595570561],[-8.750991972754417,54.267598541987326],[-8.741179960201045,54.267583666838284],[-8.73243645342181,54.26404521260524],[-8.725498454315137,54.26279624509128],[-8.721745706665759,54.26457434454258],[-8.717534148530964,54.264337689934116],[-8.711617257848744,54.2666402142816],[-8.700660690699406,54.26748348061269],[-8.696981338475966,54.27048696729861],[-8.68669505463214,54.27280631981791],[-8.67977215152853,54.273139378198344],[-8.669155666756236,54.27142386219034],[-8.659955921019495,54.271754864020586],[-8.653396194309858,54.268656889251545],[-8.649735372095837,54.26518089259933],[-8.649877699909387,54.262681500571404],[-8.645298122880293,54.26081720774606],[-8.643871034229132,54.25898110942653],[-8.644374423131428,54.25780021995411],[-8.6397330045376,54.253919926618025],[-8.628240146249134,54.248088984919725],[-8.62797785196783,54.24724920557652],[-8.629579959988211,54.24709115565718],[-8.633336171556593,54.25057450767326],[-8.640913188354375,54.25048689295278],[-8.640760179107462,54.252472422585704],[-8.638746193111187,54.251540856635536],[-8.638323504645275,54.25221834668058],[-8.642846222815553,54.254461389730054],[-8.643219419602465,54.25383252722211],[-8.641011603371703,54.252485427243094],[-8.641199489545246,54.251472049781675],[-8.64409329507096,54.253256880875064],[-8.649090376817675,54.25134937284936],[-8.645477109241122,54.25008159234909],[-8.646353670802972,54.248257776408195],[-8.644015234899976,54.24970533311285],[-8.640797393863945,54.24734363945887],[-8.627456813496861,54.24540613086792],[-8.632055666323769,54.245111176606876],[-8.634860945043322,54.243423918088794],[-8.634948396569808,54.24011273843909],[-8.636772569364025,54.23862359310318],[-8.632977563160711,54.24056132992674],[-8.631794970943293,54.2429569975822],[-8.625598727328422,54.24220107564273],[-8.627052346740035,54.2404529566104],[-8.626244497866233,54.239518819532215],[-8.628070676696355,54.237815620628325],[-8.625380192433584,54.23651240622959],[-8.618324085427185,54.23605322740129],[-8.616472270950467,54.23476552084178],[-8.614656237889847,54.23531545899522],[-8.61445579924568,54.234279687138596],[-8.61216566754427,54.23385258399654],[-8.61379277677472,54.23289435335969],[-8.611375202481131,54.23229047853282],[-8.611847900240404,54.23106947692947],[-8.613006929802447,54.23254729731697],[-8.611852862623248,54.230636563009554],[-8.610178006450232,54.23091381767799],[-8.6099140333928,54.23196777180627],[-8.606656691333738,54.23066413229171],[-8.606748198784057,54.22925158749818],[-8.604852432825458,54.22978152618293],[-8.605588860500331,54.22753191971079],[-8.604422316950515,54.22283676789637],[-8.590307354999496,54.22334664767848],[-8.591947828975941,54.22216168281519],[-8.58771954141961,54.20941599618339],[-8.584167328180902,54.20763208931824],[-8.579972545649822,54.20726139996877],[-8.574896452470307,54.2089371304802],[-8.575094600819982,54.21128785888988],[-8.573186643295161,54.21185368061712],[-8.576303702766463,54.21533856095023],[-8.575766768698989,54.216235740709614],[-8.577667535059982,54.21662142438634],[-8.577411002532179,54.216872475877175],[-8.56973546396348,54.21722719424894],[-8.564522760673178,54.21599229202718],[-8.547386369489478,54.21832363576487],[-8.536634765595313,54.215334840064635],[-8.522163154618465,54.21655009917892],[-8.516983278758676,54.21823942874915],[-8.51328150250964,54.21468122392467],[-8.511915304388868,54.21424391306895],[-8.512825477151251,54.215843995934016],[-8.50831107011543,54.21695078197006],[-8.506957162316597,54.218137155393215],[-8.507469187475694,54.21887402209973],[-8.512294875244992,54.218780254184516],[-8.515959637139145,54.22120528590025],[-8.521263221035543,54.22045226490938],[-8.522962553451464,54.22194849311791],[-8.53035215399083,54.2223065851634],[-8.533755813904476,54.22694406165722],[-8.53175868009707,54.229311497271105],[-8.537723954822912,54.228346391477594],[-8.536259259828794,54.22742513264232],[-8.537026518673883,54.22689490136702],[-8.535341064629694,54.22263035204224],[-8.536223126992269,54.22215426648364],[-8.536457774108651,54.22331132995775],[-8.537338137300921,54.22403991556601],[-8.537284928271902,54.22213391123011],[-8.540374608857825,54.222736257733004],[-8.541210681074652,54.22219268818472],[-8.540682265771084,54.22132561851012],[-8.545741099297643,54.223560113346196],[-8.541147888651556,54.224011565274324],[-8.541576627686474,54.22509105390273],[-8.546321287813873,54.225924739530235],[-8.542110625960719,54.227227723337805],[-8.542580368586824,54.228967653887445],[-8.544420493093325,54.2301566226547],[-8.549858617013536,54.23094507203598],[-8.558096948060141,54.22951446348532],[-8.561399742860665,54.23058163547869],[-8.564330740823427,54.22968147825675],[-8.564665083811086,54.231049778075345],[-8.567257651205567,54.230932057767],[-8.571208315825203,54.23312647736767],[-8.57311254179249,54.23270916227401],[-8.574519300020942,54.2356611785332],[-8.571929975053768,54.23502500162254],[-8.574164623913411,54.236935193611984],[-8.57482161837369,54.23915867998363],[-8.572028122913707,54.239600812669664],[-8.573289956124581,54.24128811411521],[-8.575888785732582,54.24330853853604],[-8.577475472430644,54.243171490646176],[-8.576763202410472,54.243961339703496],[-8.579219676544636,54.243924608101366],[-8.578689439509386,54.24497885205478],[-8.580743231309345,54.24632109201678],[-8.585836349201115,54.24614908264777],[-8.58564170142409,54.247405333149175],[-8.58671212050218,54.24763885178191],[-8.585660056225443,54.24922857137794],[-8.586737434745759,54.250891871640384],[-8.590654135874992,54.25342492147546],[-8.594031693444578,54.25405084981971],[-8.600370592999315,54.25313026826928],[-8.598772686754435,54.25522181328317],[-8.6028995763711,54.26093117271169],[-8.618877763769001,54.2597294369162],[-8.617352935945863,54.25744898766418],[-8.621131957501014,54.25458226307298],[-8.61953880074698,54.25431361040756],[-8.619825600384377,54.25316596210513],[-8.623685429935001,54.253784419849325],[-8.624494399484359,54.256953594824935],[-8.622038460251908,54.26190423944575],[-8.612882501638866,54.267464810882004],[-8.607208858495474,54.273632882685305],[-8.606581014243192,54.27831456515318],[-8.609535718052916,54.28027682246103],[-8.609298146621313,54.2818430586648],[-8.611753917233115,54.28321398059646],[-8.611196254002524,54.28449072528271],[-8.607225503532165,54.2824511047514],[-8.602279617483774,54.283366916273174],[-8.602377280815558,54.28215692102753],[-8.600765993559243,54.28152799097152],[-8.591570136897197,54.284028468635945],[-8.588970141844424,54.283175119596116],[-8.590838789010558,54.280676554010796],[-8.585767477573865,54.27656382315131],[-8.577634536570807,54.27729213798985],[-8.578818027096888,54.27827321547477],[-8.578021777850934,54.278859449551184],[-8.571611525708539,54.277892065094036],[-8.570769096766146,54.27545157679851],[-8.562904054574195,54.27585127962096],[-8.552276351579177,54.27967920225794],[-8.545024310443155,54.28032149385593],[-8.526743611274874,54.279161116201905],[-8.52099467371674,54.27812889396557],[-8.517588028196597,54.27637048356273],[-8.508134267290892,54.28262267093129],[-8.497113982613035,54.28301324920531],[-8.498585178040042,54.28494101653952],[-8.495323770389916,54.285735503037756],[-8.490908076899778,54.28181043432961],[-8.47690354014114,54.27411953903757],[-8.47496601942393,54.27373748825906],[-8.474182924825417,54.27243378136249],[-8.474964619623101,54.27484812607888],[-8.478767471100333,54.275222108169984],[-8.47759080250306,54.27592366219877],[-8.478584010432108,54.27652954301609],[-8.476210058866146,54.27697907909358],[-8.475402240600133,54.27870728353604],[-8.482084640304484,54.2789236344644],[-8.486611721045008,54.28107423573218],[-8.485512906285757,54.282231839169135],[-8.476583684809185,54.28307860390964],[-8.479598948759703,54.28472336521135],[-8.478528346859719,54.2850850034315],[-8.478617930820038,54.287003046848206],[-8.489209012779138,54.28826724920337],[-8.489735393166042,54.28968143381325],[-8.49097593148036,54.290022291357296],[-8.49091947530181,54.287992411195646],[-8.488012106996559,54.28755417471241],[-8.491587948946922,54.28641008052009],[-8.488090638116441,54.285546339838994],[-8.491086119313056,54.285317635645264],[-8.492197577296624,54.286392462399924],[-8.491715520977552,54.291997918261295],[-8.511714994613577,54.298344471122284],[-8.514637358813545,54.30032004968128],[-8.52667465094657,54.30340137493448],[-8.535899112650839,54.30199110773769],[-8.547189887901798,54.30478821246696],[-8.552180765107876,54.30450123966964],[-8.552197256259365,54.30574255374546],[-8.550063150459032,54.304746723668984],[-8.549087038034493,54.30593983234274],[-8.57222625824545,54.30450356906999],[-8.577410647608616,54.3066106330917],[-8.573437790281867,54.30755433868161],[-8.572916169576718,54.310349789946194],[-8.571166949029466,54.31107302469531],[-8.572396786740438,54.317652183658986],[-8.571573813363171,54.317821914567716],[-8.576236448752665,54.32014789905362],[-8.573289795699642,54.32237572744405],[-8.568225671832865,54.32295319538065],[-8.566574685364978,54.324661285060934],[-8.566328501614414,54.32679229530999],[-8.569191306708902,54.33081914045511],[-8.569609386958973,54.333813751577644],[-8.566121886902232,54.33767585449522],[-8.564974696651861,54.33759716161418],[-8.565707008962358,54.33345182988504],[-8.56215338831636,54.329798420306616],[-8.5619860792879,54.32751224268649],[-8.558632731792715,54.32272130629212],[-8.529998754898587,54.31501177143136],[-8.515151921154814,54.314027883837554],[-8.507587082896698,54.3155273109796],[-8.506328002003322,54.317583011156955],[-8.50035075807,54.32146907315807],[-8.50128755667475,54.32223562514039],[-8.500433040756741,54.32311554335939],[-8.508696076120765,54.325596912143496],[-8.509877879869622,54.326985108686586],[-8.509397684633365,54.32817461465479],[-8.50345760512119,54.32776956765407],[-8.500830372396472,54.32814696760993],[-8.500971015135596,54.32833205233918],[-8.508935196339966,54.32956027035774],[-8.511116206671426,54.327927442155456],[-8.515217853375281,54.328028132008505],[-8.525466136241219,54.32969340716706],[-8.528593568404775,54.33153424276845],[-8.535494709907374,54.33277115767834],[-8.536644078782613,54.33237422722064],[-8.535914818812186,54.33207290234317],[-8.536547306007337,54.331268669009084],[-8.54128559592433,54.33062833911522],[-8.544144833802893,54.32867146870794],[-8.547420931564707,54.332046368903214],[-8.550443082646435,54.33262216471572],[-8.544631585563373,54.33340593621107],[-8.539144695085467,54.33655754229188],[-8.53587199277568,54.33546625712199],[-8.537669327739785,54.33756204293834],[-8.53721413014413,54.33676802144431],[-8.548359760156817,54.33765271310193],[-8.551507617656586,54.34074704090215],[-8.554420230064494,54.34198555506],[-8.571454779155527,54.342000572100915],[-8.577225628373782,54.344130831814134],[-8.586871833689383,54.34244067853016],[-8.593529205387131,54.343081446948574],[-8.598420198186304,54.34189122641365],[-8.59759852082874,54.34145534580482],[-8.598215865800485,54.34072443703009],[-8.602268162851795,54.33856320524099],[-8.614432238516308,54.33808111765819],[-8.61671125755501,54.33545332619447],[-8.620424670444887,54.334562715055036],[-8.634024296370594,54.335425939540336],[-8.643524480732754,54.33351713861506],[-8.647080787272202,54.33108078169959],[-8.643104887641371,54.32693450324341],[-8.64218257804227,54.32307855904842],[-8.644009432849757,54.322796233822984],[-8.641670152540323,54.322938997745325],[-8.642194291274928,54.32123900226162],[-8.645967023546914,54.322761750686304],[-8.656442733294284,54.324071981814036],[-8.658322144212931,54.325991579368186],[-8.657866357539762,54.32810643587115],[-8.655066243914492,54.329334981746804],[-8.655928700590767,54.32937232242801],[-8.655336678691603,54.33014645244767],[-8.650217976198071,54.329535866924374],[-8.648119485737167,54.33103218410126],[-8.648337267911137,54.33211990125684],[-8.651356989125421,54.33317216483337],[-8.648159422523573,54.33482117098897],[-8.652702475197831,54.34041025187918],[-8.657218113080576,54.34312349119239],[-8.667692537962676,54.346629242737635],[-8.673028105415439,54.34679096487885],[-8.675436612898514,54.34731012348858],[-8.675364358859742,54.34854031732067],[-8.680458866161864,54.34900150863352],[-8.669833983019968,54.350556022370384],[-8.669793968596835,54.35347838197206],[-8.67169395987583,54.35526240170373],[-8.676461265155929,54.354954519874894],[-8.678656102564014,54.35604302609481],[-8.681918305012545,54.35479529221255],[-8.680097293055683,54.356871968692744],[-8.676874952003484,54.35811235714457],[-8.674348220131982,54.35850237615505],[-8.674939498325239,54.35709999527021],[-8.672892962370781,54.35695022858921],[-8.672021455982778,54.36036802993946],[-8.673434413194348,54.36143387135199],[-8.6750404779483,54.36162662734996],[-8.67796296985466,54.35948359120332],[-8.679780400226075,54.359834267687226],[-8.670373513171953,54.364664551680015],[-8.667947533079431,54.3623951205365],[-8.664097949160732,54.36257314062564],[-8.659786125808868,54.365828692458614],[-8.65236656338321,54.366964932601114],[-8.650343877488917,54.3686240427882],[-8.640661728190201,54.371204539319734],[-8.635634016615931,54.36936642253834],[-8.631387827638614,54.37074048321398],[-8.627166206343812,54.36821086827354],[-8.625359129405624,54.36838824564411],[-8.62193574167012,54.370790373263034],[-8.621488966329796,54.375811597196176],[-8.619020577732233,54.37769702694156],[-8.6189241956923,54.37914009554628],[-8.61649358702637,54.38020041499485],[-8.605511555003297,54.38175913324346],[-8.599012529326094,54.38448324417861],[-8.592372643331295,54.38476183609003],[-8.58179065283898,54.390954897741345],[-8.570804327053592,54.39169320057712],[-8.569378862433775,54.39313438323158],[-8.571244967704507,54.396297484330574],[-8.569233328271082,54.396044849487836],[-8.571240167101713,54.39678214831599],[-8.568597996667439,54.397454825900425],[-8.568580839539546,54.398740873249864],[-8.570885901419123,54.40023443840912],[-8.574759550314278,54.398777417284506],[-8.568547295895515,54.409847392875484],[-8.56059379453162,54.40514099773626],[-8.55365530138211,54.40528772119149],[-8.541977015950792,54.40745222872334],[-8.534635590739905,54.4099227825613],[-8.527717184591886,54.41368126851304],[-8.526432448489416,54.41660099606042],[-8.527055741776156,54.418174251616364],[-8.530438596856762,54.4189446635399],[-8.529623726566749,54.42043441170605],[-8.52912194542909,54.41903721927038],[-8.526082605151148,54.41832262899335],[-8.521564789049522,54.42031013707369],[-8.521325711869643,54.42343379341957],[-8.518913531780425,54.42231804480729],[-8.516355441767244,54.424633389366676],[-8.508103067089385,54.424149777834984],[-8.513776166237085,54.420160409061126],[-8.519117374644404,54.41903914144972],[-8.517883145701596,54.41783270897143],[-8.513961644677027,54.41798387076039],[-8.51938095907673,54.41604752192771],[-8.519491756706342,54.41508561293263],[-8.522446921190603,54.415902456900305],[-8.52484398957334,54.41484409390872],[-8.526178178672241,54.41188152219968],[-8.531294515492096,54.410209469721615],[-8.534611530276722,54.407041721719715],[-8.541918489042763,54.40618277418966],[-8.550916142425818,54.40316568620053],[-8.559964122582915,54.404334561505536],[-8.563921245201954,54.40119771388711],[-8.562014041805268,54.398386376953056],[-8.551952913588172,54.395299129625634],[-8.554125111470308,54.394458258521965],[-8.545326718117638,54.39261220394091],[-8.54405769881519,54.392870716436796],[-8.54369086582588,54.39467163875998],[-8.548394321944023,54.39411107197066],[-8.550796306054458,54.397389715241296],[-8.543358287937435,54.397915804717925],[-8.54089818693313,54.399798593409784],[-8.532504849364312,54.401912056411014],[-8.530599650713619,54.4032062788556],[-8.532758913485315,54.40363446397968],[-8.532363570754198,54.404831461808705],[-8.529192589900353,54.4047430888651],[-8.530266163465146,54.40325808003791],[-8.528282759088967,54.40330715258332],[-8.526762796565913,54.404135637214665],[-8.527432130084572,54.40481074952917],[-8.52635474348634,54.40629418562769],[-8.518995690348248,54.40920117712759],[-8.519744058080446,54.410733301844886],[-8.514792256539117,54.412999402924],[-8.503110508202814,54.41442364683958],[-8.501999914782486,54.41534055798245],[-8.49685266461599,54.41407817267069],[-8.498456948515,54.415643230986234],[-8.490728757949189,54.41787358866907],[-8.48685442418551,54.421813133152575],[-8.486083064318734,54.42149645760663],[-8.485919685280788,54.421467597824375],[-8.486886018386308,54.42221669336994],[-8.485581130783807,54.422708694174545],[-8.488289406136277,54.42326542196744],[-8.488679806797709,54.42474920327485],[-8.482741395173582,54.43171885590972],[-8.477131038537085,54.43283219375974],[-8.46725793088313,54.440111443336534],[-8.468591108868196,54.44667448805756],[-8.469894032220846,54.44833999672021],[-8.47339463102866,54.44876562839029],[-8.475894757985408,54.45232811941375],[-8.480598674787748,54.45148943668664],[-8.486545322162591,54.45380210530176],[-8.478527513341138,54.453297711416255],[-8.480450115403846,54.4541755724817],[-8.477282615263869,54.45352539052707],[-8.475221316909133,54.45438925245217],[-8.47556289987725,54.45735171035559],[-8.473991492560037,54.458161991790924],[-8.474863773962024,54.45915962556746],[-8.47326401563973,54.46047540741532],[-8.4713463242243,54.459332561383874],[-8.469664428134399,54.46105669408935],[-8.468185848314864,54.460482166225916],[-8.465178673578656,54.46138402794903],[-8.467472131563847,54.46270350016183],[-8.46730111026679,54.463882678869496],[-8.468221650380483,54.46381461946972],[-8.46735770200142,54.46401935171215],[-8.469876464509865,54.46613899459832],[-8.46917809855618,54.46953531586772],[-8.467029829016166,54.46925247480462],[-8.46624297811284,54.4708255463049],[-8.454516627655659,54.47302521297642],[-8.448851200231106,54.47099799045464],[-8.44708552244812,54.469185482492485],[-8.446948667936484,54.46612476875721],[-8.445707168204759,54.46567650167076],[-8.447825291944845,54.46643328791984],[-8.450039584768362,54.46399104507407],[-8.449039633616852,54.46368827455598],[-8.44733511129529,54.46549632488051],[-8.448882107094908,54.46369835720052],[-8.451080988564936,54.46339829107704],[-8.452270414666994,54.46136726637071],[-8.446844118170338,54.45735249399346],[-8.440335028297623,54.45499146903218],[-8.439417639737929,54.45328478944004],[-8.441310950234323,54.452271594460356],[-8.439100736391833,54.453087562869136],[-8.438672352310984,54.45494903082747],[-8.41690788708527,54.45603307691893],[-8.401644269913447,54.46327030248077],[-8.395383482880463,54.463281861468985],[-8.383245901801617,54.465678630657926],[-8.380923143317563,54.46409347153394],[-8.379781624236722,54.46043183907892],[-8.378023367693382,54.45916885873561],[-8.378942495791284,54.457072078315356],[-8.374632653175516,54.45715318344537],[-8.37217565548864,54.455495175706815],[-8.373141853666567,54.45026194844141],[-8.378698688767232,54.45157987297952],[-8.401790594854875,54.44589732955658],[-8.409426570571576,54.44005557195206],[-8.408313825341612,54.43071428449944],[-8.419563632574746,54.4267664829515],[-8.427650085160305,54.42109439109018],[-8.421774497339515,54.4182320505339],[-8.41956066084368,54.41604757615445],[-8.419837090660389,54.41494007345651],[-8.413611061433942,54.41437453688334],[-8.408275559373736,54.41664053648823],[-8.403586424912,54.41640101036914],[-8.402562053834531,54.41744943781667],[-8.39475662416218,54.418462403423824],[-8.392818494434117,54.420375661321046],[-8.3981157213228,54.42714553855276],[-8.395081927763158,54.42799269146089],[-8.39076849377142,54.42825362910625],[-8.389605872283262,54.42717492610044],[-8.384283509216134,54.427174325744446],[-8.381386854821578,54.425901185631524],[-8.37928556477312,54.426508867873665],[-8.371980170817077,54.42264803636281],[-8.369451719781994,54.42316128514104],[-8.36412730052289,54.421936087130454],[-8.353484266142514,54.42415515738651],[-8.351315276874503,54.42375311787223],[-8.351179555333982,54.422580159388325],[-8.3444103176946,54.42130942223588],[-8.34547445906618,54.41974752236525],[-8.348005634473258,54.41962741883759],[-8.34589444454933,54.41739773503452],[-8.349262212889702,54.416319738431476],[-8.349839373827564,54.41514386916925],[-8.346287964669743,54.41221664067213],[-8.348754846484466,54.40499641274995],[-8.359101788744258,54.39639354939931],[-8.360319078791724,54.387251143153286],[-8.366642220293528,54.37458023351062],[-8.365053807604152,54.3720006460845],[-8.374826405753486,54.36702065480261],[-8.382254698937286,54.36483318918419],[-8.386937517411367,54.36150358826886],[-8.393521299949942,54.359787898128296],[-8.399446215537347,54.35999669564898],[-8.397329195961683,54.35635064810048],[-8.395009906846681,54.35485592474716],[-8.394676978964796,54.35258645569556],[-8.391777113933209,54.35010098569417],[-8.393191641678238,54.348037587186575],[-8.391609145672149,54.34494809459142],[-8.392593387953575,54.342554172383345],[-8.390272549385154,54.338751337666096],[-8.391006910937445,54.334404192303715],[-8.386140970798913,54.32886595455325],[-8.386866530777622,54.32467971455857],[-8.389781785786356,54.320307286719135],[-8.381635024573464,54.31560828206887],[-8.37505735910948,54.31597291977115],[-8.375969195221943,54.31387660643232],[-8.36260479221282,54.31428936998382],[-8.354733189491354,54.31259178258716],[-8.35433963280929,54.307589518201844],[-8.348708828301776,54.305003041351775],[-8.348310634891137,54.301286964834205],[-8.346289422196763,54.29881143578429],[-8.345209923663253,54.28553452110653],[-8.343040284148993,54.2848577639786],[-8.342937618179453,54.28355957008471],[-8.343606960733318,54.28017084281262],[-8.34673051398439,54.27440386536126],[-8.34156542971955,54.251523929080804],[-8.339488121352119,54.249144322855706],[-8.334515908664098,54.24865592634259],[-8.334714539114339,54.244543466529166],[-8.33353198158491,54.241004315067265],[-8.331578229681128,54.240108806191145],[-8.332451701160435,54.23892540136282],[-8.33605861291234,54.238762958378715],[-8.336192044719391,54.23763844797369],[-8.334517483518425,54.237412679265155],[-8.336617088917293,54.234501059849755],[-8.335721348865448,54.23419036369182],[-8.337769195061437,54.232307120290194],[-8.336739838170843,54.22967844751989],[-8.34081942901786,54.22293520140581],[-8.338514392687886,54.22189877782346],[-8.338418840155487,54.22058539709116],[-8.334378111912384,54.21739468150557],[-8.334451638021637,54.21633488820556],[-8.33646014335137,54.21524118720884],[-8.335528728929914,54.21432865700813],[-8.336412535828924,54.21259212084449],[-8.331825130172621,54.21187796257074],[-8.333838613631029,54.209111778401315],[-8.336486662563328,54.208418374688456],[-8.339276330413503,54.2035297377975],[-8.34767328404942,54.20021522422033],[-8.34770469422763,54.19928137645875],[-8.340765317331046,54.19907133980988],[-8.33361710089584,54.19686794374368],[-8.333227464957536,54.19557776901833],[-8.335380561353567,54.19495934770802],[-8.333077837510544,54.192005946222714],[-8.321755864823528,54.189384641371724],[-8.318398261437183,54.18992033067356],[-8.316329145397638,54.188297572845705],[-8.319078189324449,54.18265265600902],[-8.322286354738635,54.18008603617669],[-8.328976030549573,54.17795580546837],[-8.330587899816523,54.175035894346436],[-8.328393292546103,54.1732818728178],[-8.324635979849479,54.17488794062772],[-8.321776022054042,54.1745831991823],[-8.318418199190752,54.169472155549606],[-8.313682203587614,54.167124571222246],[-8.307271073264925,54.166339651943716],[-8.30345767876318,54.16709431828716],[-8.281342298009587,54.1526215289515],[-8.260830958606059,54.153185803272194],[-8.259565661820314,54.153959657310445],[-8.26030050018916,54.15697746679984],[-8.253415145673543,54.15665749700731],[-8.251829589468775,54.15733756543903],[-8.251205387110295,54.15927018976294],[-8.243525621339403,54.15756066868914],[-8.238368766756373,54.15500574942557],[-8.227447635249359,54.154753831328875],[-8.223221154946813,54.15023141247074],[-8.220577287275646,54.14901815120703],[-8.221103503955137,54.14666369546641],[-8.217304692396414,54.14522463464618],[-8.21596317949014,54.14041751812037],[-8.203306640365746,54.134114601226194],[-8.199233113330186,54.134612374813614],[-8.195770078043443,54.133496759369244],[-8.191443150781978,54.13019943902464],[-8.190060027303952,54.12875966758519],[-8.191036379666505,54.12824989650492],[-8.190377523106369,54.12704747695115],[-8.186504752527162,54.1238723443534]]]}}]}