{"type":"FeatureCollection","features":[{"type":"Feature","properties":{"name":"County Westmeath","source":"Tailte \u00c9ireann Counties National Statutory Boundaries 2019 (CC BY 4.0)","simplify_tolerance_m":75},"geometry":{"type":"Polygon","coordinates":[[[-7.367901622583385,53.341014860908864],[-7.3877723125995916,53.335641198365906],[-7.399125073948569,53.330241136199334],[-7.424667602742496,53.33472066469848],[-7.427727462614636,53.332095155740866],[-7.432252888585604,53.33233868241911],[-7.434692486129301,53.3297531712363],[-7.444246683397194,53.32875373756236],[-7.445076486530199,53.32639036800333],[-7.443733007977372,53.325438734419876],[-7.44455424848012,53.324035848651405],[-7.443064282381683,53.32264614157232],[-7.445404396993396,53.32202109798725],[-7.445031633122849,53.32103535982379],[-7.446375253156847,53.31982803094683],[-7.45161899465635,53.32013043418186],[-7.455828618610138,53.317962486058526],[-7.458791452126481,53.32088328400297],[-7.463171171870078,53.328248519219585],[-7.470733391953098,53.32933453475835],[-7.470596670578594,53.33149458828711],[-7.472263092375798,53.33271364101371],[-7.479042650158189,53.330774961497916],[-7.484672391747851,53.33158419317384],[-7.483694463302873,53.32967292177318],[-7.485372838798081,53.32917161277213],[-7.492557296289806,53.32940506765577],[-7.492523625363683,53.33019556937443],[-7.4953140468477875,53.33114925613829],[-7.494739957678184,53.33248698427281],[-7.496313364397055,53.334299457121816],[-7.495666443863379,53.3386752560311],[-7.493852172724523,53.34081940381949],[-7.509489250683172,53.34493659224054],[-7.51496291566601,53.34371414488555],[-7.528801317356171,53.34723962544067],[-7.531290553851263,53.33962978515408],[-7.529611324980386,53.33907016137146],[-7.529226579702767,53.33763312863092],[-7.532173072872559,53.33700674532462],[-7.530968746751191,53.33604589695419],[-7.530983212283463,53.333810304298375],[-7.532307388170784,53.332603025170194],[-7.534032117903625,53.3328703067421],[-7.534583798091921,53.33088850927743],[-7.532845324991465,53.32766743885198],[-7.530075097736447,53.3280817557517],[-7.530897483535528,53.32657517778321],[-7.525932588450857,53.324963580716805],[-7.525879627282221,53.32373980170636],[-7.528036339164309,53.32166261091328],[-7.537024838870969,53.327084706913865],[-7.539795095812901,53.335524208403086],[-7.542243722983055,53.33840460289821],[-7.554282302172553,53.34468948846865],[-7.556897993181014,53.34843144141434],[-7.562615239862724,53.34735719561791],[-7.5616946749798055,53.349094519138816],[-7.565920009314406,53.35186692010116],[-7.563478860567612,53.353763195952034],[-7.56756417920844,53.36175644115212],[-7.568384847194022,53.36777525444618],[-7.567813657641937,53.37013768543395],[-7.565782427617998,53.372301807113715],[-7.565679147370179,53.374929595773835],[-7.567151118092709,53.37826249658342],[-7.566236409417466,53.379511508301576],[-7.570585052875056,53.380939869303546],[-7.574989322115523,53.38098183529074],[-7.576978193737427,53.38415876414983],[-7.581899637262919,53.38706874305173],[-7.580174290855299,53.39030464352931],[-7.584673504214234,53.39603979153276],[-7.5911507077440845,53.39899368571666],[-7.605041662296701,53.40056051113096],[-7.604848363314373,53.401452765615986],[-7.606510102131028,53.402596462153106],[-7.606179131231693,53.40374148864303],[-7.607613206636887,53.40456609325347],[-7.60467455897971,53.40592556427818],[-7.606118129562349,53.40734866428593],[-7.605780713846824,53.40978746558828],[-7.606748817441065,53.411469219721944],[-7.613085048397506,53.41131005210529],[-7.615919496320666,53.41369020217731],[-7.619178834656891,53.41466647764104],[-7.619713724951335,53.41611928438272],[-7.624695773403807,53.41807473493202],[-7.627816770771307,53.41344209679502],[-7.631812286530383,53.41395772852104],[-7.638265501088463,53.41273812229982],[-7.641396033232532,53.41165121809482],[-7.642114412997621,53.41098791261286],[-7.641104953588778,53.410208021445186],[-7.6419039947206855,53.409957816788534],[-7.645359163155667,53.41097845000757],[-7.648616306242437,53.40488402576564],[-7.654500857844765,53.40534775402464],[-7.661570447229341,53.407958214774055],[-7.663587842660496,53.40976652043216],[-7.6659766003678245,53.4051323387846],[-7.665633461840366,53.4011828469889],[-7.6796160449968465,53.40243534410023],[-7.6755507388417685,53.39902716347119],[-7.678811553667097,53.39755476880689],[-7.679898134608051,53.394112615441784],[-7.684599563560977,53.39264938850802],[-7.689090838721823,53.3943018597228],[-7.695661429960404,53.39108684017805],[-7.691462721977825,53.38964483812975],[-7.696207768725465,53.38123898171986],[-7.701763398117813,53.38298834285894],[-7.705525014669736,53.379770490484255],[-7.709331303470982,53.38026887677958],[-7.709720511561322,53.37612612963474],[-7.715135122514347,53.36983598179563],[-7.709082146737891,53.369681520605496],[-7.703816004531407,53.36637452911733],[-7.714995524051296,53.36233716214119],[-7.717289755785082,53.360056602199315],[-7.750180761379864,53.352109302926685],[-7.762195505062221,53.34810752521768],[-7.772147310190283,53.3470047757124],[-7.777002181683098,53.34816633259097],[-7.77892915895857,53.349947669370614],[-7.7845670558134135,53.34945964441342],[-7.794351478269561,53.35316971747083],[-7.797948702300491,53.35037524499672],[-7.804520127859157,53.35041179274457],[-7.818306076079805,53.3545312206794],[-7.81835325220532,53.3563376285993],[-7.825378961387917,53.355763874038466],[-7.836815446132934,53.35363002598628],[-7.837679017317453,53.35159174620797],[-7.844884864478283,53.34970285785229],[-7.840340720458458,53.34776002867494],[-7.846630917173496,53.34114587456821],[-7.854573919272262,53.347075316634935],[-7.867450310326707,53.34679597207017],[-7.8827397474241145,53.348987924896896],[-7.893286478439268,53.35372851948828],[-7.897126434970995,53.35769019628108],[-7.904791949239514,53.36042014799079],[-7.906087401685519,53.36244594239456],[-7.908714211182432,53.36268673526468],[-7.909199285460192,53.3616820995702],[-7.91258593580365,53.361057862881694],[-7.918871676779598,53.361367567835906],[-7.923450982039457,53.36318839156698],[-7.918390985172394,53.36735456578759],[-7.911980388779951,53.36823509460628],[-7.910315557636672,53.37138208128361],[-7.914302662546603,53.37692436561622],[-7.913885341346134,53.37915318936173],[-7.917211592244127,53.38258517712716],[-7.919878125427391,53.38372906619411],[-7.923289887074553,53.38821729126925],[-7.924138636862305,53.39496402687654],[-7.929132548605963,53.3976261071824],[-7.930470683550814,53.39996834543339],[-7.940744120041831,53.40386456848474],[-7.942922382521674,53.406919473973204],[-7.943715926585544,53.410524640181784],[-7.94050158315841,53.41241194282577],[-7.942027206088861,53.41206734729839],[-7.972956197389754,53.42227561898871],[-7.955759637527215,53.43124039777806],[-7.9525165561780895,53.431443332730936],[-7.955325963352014,53.431851140949576],[-7.957232697364256,53.433514297308776],[-7.958655134963342,53.43582162708134],[-7.959898057263191,53.442874745868124],[-7.966197704730945,53.44683829966423],[-7.966835313795827,53.44970995889402],[-7.9550486090892605,53.48146977110209],[-7.9697926407364745,53.52173027498672],[-7.9478719203849595,53.52515190222236],[-7.939140388375514,53.52777070306488],[-7.92172867123896,53.54253370739916],[-7.914724242263363,53.54459986930516],[-7.893900242301826,53.54297835799879],[-7.8577597228779705,53.54916070872584],[-7.8444363859374135,53.543243830771345],[-7.841398467168441,53.543351814219456],[-7.841184079495585,53.5417211825432],[-7.836613337936365,53.5389601250256],[-7.833033475199961,53.53979009393967],[-7.83221092182831,53.5424260371696],[-7.822837904829839,53.542421560517376],[-7.820571568691392,53.54487444646213],[-7.809130129613337,53.539516231992835],[-7.796001937713048,53.53651267057321],[-7.7853749823046225,53.538632005007045],[-7.7795804984091035,53.53593041114437],[-7.773818982550249,53.53542318493903],[-7.768613258233984,53.53676791101239],[-7.7598542391739755,53.53530760057615],[-7.7485845968315745,53.530188457843344],[-7.748906569374271,53.529419102197465],[-7.745882130599313,53.52690511577472],[-7.741044515366863,53.52702778504837],[-7.735616234054551,53.529477690242075],[-7.7221756936200245,53.52764645836047],[-7.721359347953473,53.52819738365962],[-7.723079746772014,53.5310382323274],[-7.719975691725196,53.535270243176676],[-7.711828952011416,53.5371742259248],[-7.709957895346109,53.53658955008657],[-7.705397823638437,53.53850600863065],[-7.690508058718243,53.53452494031619],[-7.684332037228751,53.53374899108744],[-7.682797627141686,53.534779100293996],[-7.679025633328012,53.53073157835397],[-7.674475127821867,53.52919170176538],[-7.661837088395775,53.533351824550245],[-7.657250488590201,53.540498791025925],[-7.656756307619553,53.54674494621612],[-7.656607915115446,53.55157584221789],[-7.660965749884622,53.55857395287429],[-7.649771192183038,53.56267752765358],[-7.638251306232277,53.57491431669221],[-7.630467576297808,53.57912057165259],[-7.631082935812533,53.58708472653981],[-7.627957624182431,53.5910020657147],[-7.6218241930991795,53.591336947008664],[-7.619422876736915,53.58922174762531],[-7.610242288579771,53.591854508401966],[-7.603420770966121,53.595774540969785],[-7.601160094160891,53.598746772072055],[-7.6031611524792915,53.60244654196768],[-7.608578611163166,53.60599082368237],[-7.605040404784816,53.609907140513634],[-7.598029127921084,53.61294583464341],[-7.5887062136472645,53.61450196509658],[-7.586295778060238,53.61344606387347],[-7.581768812552438,53.613929877374865],[-7.576871393372691,53.610821005190665],[-7.565845982619127,53.61120283721507],[-7.559853610840756,53.61360638896349],[-7.562298198104161,53.617114707753835],[-7.565234355114915,53.61775958381893],[-7.5697710065993355,53.62230152298954],[-7.568398676552624,53.62533768693166],[-7.569061467043863,53.627314156462276],[-7.564895690604265,53.629344072603864],[-7.570487628584042,53.635667158465246],[-7.57927011548008,53.64035982547701],[-7.595694773560124,53.64418376668221],[-7.60611154520152,53.64847399156376],[-7.615003128882215,53.64881637117784],[-7.614745413426189,53.65377883618558],[-7.611528006132818,53.65968450889437],[-7.592486191827225,53.65704976469507],[-7.569112845955913,53.64645537743608],[-7.564907536288915,53.64940923481284],[-7.5654761300213815,53.651182816911756],[-7.564692235279777,53.651872301767234],[-7.57380122579564,53.6562515703499],[-7.575321061973779,53.660097569655726],[-7.571207989433686,53.661613766972174],[-7.568326561286827,53.67130000257536],[-7.548606893841998,53.66935157255723],[-7.545323390572644,53.67080337938574],[-7.543718010398172,53.670266601798545],[-7.541941667994904,53.672034874411544],[-7.546295163085186,53.6756217703679],[-7.538461074052932,53.67673063536225],[-7.528602826793291,53.67438890584947],[-7.529404388673266,53.676853240857355],[-7.5319183473582445,53.678940253059864],[-7.5307245350596865,53.68178396411192],[-7.534950336455686,53.685068972467505],[-7.526401248582208,53.68987952372529],[-7.528267431011595,53.70005132658145],[-7.517625515122765,53.695488718496115],[-7.509490327628587,53.69888223474098],[-7.51379893206325,53.70339066032966],[-7.516995616664965,53.704972324630084],[-7.515872388623522,53.708508876472074],[-7.507768461313287,53.70663718705714],[-7.491689397891047,53.699624603627],[-7.485538469437736,53.702186467888474],[-7.484484406681113,53.70476404444247],[-7.486111660534401,53.706200561382616],[-7.483235812198715,53.70952194539411],[-7.477030906971268,53.707744795570186],[-7.475518673097083,53.70939385630409],[-7.477002669366904,53.70985938215626],[-7.47342387903804,53.71478225750378],[-7.466384413180288,53.711894462399975],[-7.458740337790801,53.720408022376766],[-7.4588993476610135,53.72276997379118],[-7.46029785279431,53.72416816888177],[-7.458970298810224,53.72583248935888],[-7.45870126447715,53.729753482019674],[-7.447506799360123,53.72903449370382],[-7.445004205104792,53.73213825198459],[-7.437985034047874,53.73087522023094],[-7.429612839741503,53.73493093645626],[-7.422947702445426,53.730873644320994],[-7.4163975160230455,53.72395862437762],[-7.406437847302625,53.725903359508145],[-7.407119760716381,53.729107472797935],[-7.405237820604654,53.730492734077494],[-7.405925742254042,53.73238574422392],[-7.403540627775479,53.73402087765459],[-7.398841933254959,53.73415942678072],[-7.397707687863348,53.7326405058264],[-7.395292420314677,53.73372273598463],[-7.393913590638165,53.732298205517516],[-7.389853532982578,53.73364195105829],[-7.388794593537705,53.73496414770752],[-7.385861356979395,53.735068978372325],[-7.386602957702461,53.73642163081043],[-7.385010824805993,53.73717133820673],[-7.384270247603703,53.739122717264465],[-7.386396496177313,53.74180433336231],[-7.385327478091561,53.743496330294924],[-7.3858989013690675,53.74550913940775],[-7.383096693875708,53.747585678192586],[-7.383782738721523,53.75089728070215],[-7.381276460595525,53.7518384457719],[-7.379600662230788,53.75465130180361],[-7.374924909234004,53.75556052549532],[-7.375823346496568,53.7583990889854],[-7.380295376114711,53.75851042986132],[-7.37723101372273,53.76352400093785],[-7.383221148681,53.76422201508319],[-7.384866037875246,53.7670714061738],[-7.384830828633603,53.77131329387346],[-7.39554315984451,53.77265251609031],[-7.398319980084027,53.770381494079615],[-7.400530368241221,53.77046053088317],[-7.409972726164199,53.77904919904236],[-7.397837541967786,53.77881502770495],[-7.387709405504621,53.782186503483544],[-7.382793664731555,53.785295567790016],[-7.378305189126969,53.78442643508189],[-7.343667894490768,53.799051974320044],[-7.341872427421672,53.79249887567636],[-7.336107183191021,53.78795544769611],[-7.316649758402654,53.788573257699],[-7.3164266561405435,53.784163420534995],[-7.292081171816587,53.778308623692055],[-7.286217468092715,53.774788846902226],[-7.286614192009348,53.77350288698794],[-7.280701490747414,53.76900258314403],[-7.282511851930476,53.76727692464844],[-7.275220334704321,53.76343252679135],[-7.273093613068734,53.75564242911517],[-7.267946958183898,53.75081017138054],[-7.2577560013897475,53.74529214433126],[-7.253875722719076,53.745230083772796],[-7.243881945412349,53.74255832370259],[-7.240187786802964,53.73944586511446],[-7.238131923998086,53.73581534083052],[-7.231928408573343,53.735631634735],[-7.229913268175783,53.73390084578918],[-7.23154307525102,53.731885686688315],[-7.235121144345561,53.730262720361914],[-7.232138649222687,53.72772769846901],[-7.235629890464327,53.726011158297275],[-7.234495542049089,53.72427745779216],[-7.238593716417047,53.720814253091845],[-7.238049759911635,53.71904745386888],[-7.2393703252762025,53.7177474849227],[-7.237094586015855,53.716363611026125],[-7.237946000028507,53.715986972598245],[-7.236584541793789,53.71387080260931],[-7.23532649111211,53.71420590690916],[-7.230367603012057,53.711423542186694],[-7.2257798398402695,53.70332236773401],[-7.2193964825432175,53.70317080458654],[-7.216280517984663,53.70480334595161],[-7.21415929586147,53.70357415170093],[-7.213257351576812,53.69898690453424],[-7.210239245184791,53.69640979531202],[-7.206574844750232,53.69914378177983],[-7.203331922047882,53.699953587527794],[-7.197673067608677,53.69735936912799],[-7.198310917798343,53.69686010807282],[-7.193754928218201,53.69368954575032],[-7.193355693104971,53.69102937426064],[-7.191882305976534,53.68986171712126],[-7.189963095938967,53.69142163721634],[-7.186244570666652,53.69198725302258],[-7.174226499025712,53.68822956843176],[-7.169111117966914,53.688751062520105],[-7.160235973161159,53.68694030356201],[-7.158027032440322,53.6853046737123],[-7.15315781148341,53.68594902212652],[-7.1477296342344045,53.68465230954949],[-7.142662819655276,53.67983307601738],[-7.137218547785047,53.676889236467055],[-7.135077298086418,53.67356584698144],[-7.130010792624443,53.673881087390505],[-7.126694079399819,53.67745745737364],[-7.1235992313350724,53.67839566727152],[-7.124910772489329,53.67888035921321],[-7.12252014391117,53.68247515773833],[-7.120468611939064,53.68286553749045],[-7.115398800271253,53.67873467775696],[-7.109078415019516,53.66881275999135],[-7.104298345985033,53.66635692114539],[-7.099285868513271,53.66590284090818],[-7.096887695215579,53.664600127934754],[-7.096094247372366,53.661413198679455],[-7.088569875523295,53.65797385847736],[-7.087613961992544,53.65572411239735],[-7.082187413760931,53.65445837588879],[-7.082332217120962,53.65338846553469],[-7.07953078809894,53.65227949505786],[-7.075533925034015,53.6523818316629],[-7.074143871849936,53.65083971081033],[-7.0739103997718225,53.64821015115074],[-7.069511966296542,53.64713997506752],[-7.06766084363886,53.64590110095763],[-7.068005821985834,53.64497250013923],[-7.066114597437665,53.644945064101464],[-7.059983652369798,53.648567636502015],[-7.057781932440554,53.652180225813915],[-7.050393034630685,53.659249409217],[-7.043327979615437,53.65917822518151],[-7.040537362513773,53.66051091227057],[-7.038122327292434,53.65975679149119],[-7.036608637912409,53.657271967515136],[-7.032198461831186,53.660462028669485],[-7.02888323596414,53.66058113357804],[-7.028948623474873,53.66205639423713],[-7.0233427256216725,53.6717566051883],[-7.008359465396472,53.666944553196494],[-7.004477049915462,53.66822888538826],[-7.003908604503649,53.66901328401477],[-7.005059309891246,53.67206652171121],[-7.003958012361378,53.6762910287018],[-7.0006466913631495,53.67724846262239],[-6.98997244878517,53.67603035653813],[-6.985278770970706,53.672130260774566],[-6.981995772645898,53.672157927520146],[-6.980555929993103,53.671088788693936],[-6.981005149334169,53.6689690350998],[-6.979932642144377,53.66773239735637],[-6.9754403161884255,53.66621543605103],[-6.977636227782664,53.66372170923455],[-6.973401290463683,53.65994692636874],[-6.972769053712918,53.65804916321133],[-6.964094916972105,53.65596655349369],[-6.959669839601891,53.65789779985077],[-6.955759426139784,53.656161245696936],[-6.954977758565658,53.65391464695029],[-6.958581744197004,53.653256394080536],[-6.956224633620215,53.649544666892254],[-6.958217448810061,53.647716490223075],[-6.960198249658561,53.64774184335309],[-6.962307635690291,53.644062211269656],[-6.963118587593037,53.64157243036553],[-6.962305892558628,53.64060058007663],[-6.9629882485218015,53.638226235496525],[-6.962075124956738,53.637780847461094],[-6.963486065720683,53.63622548374633],[-6.962706833834343,53.63482779164588],[-6.965200037518893,53.631295589077915],[-6.9782084740643775,53.627730259549935],[-6.988598994856514,53.618676723593204],[-6.9874923230113195,53.616715494977996],[-6.987972010381605,53.61291758460881],[-6.980367372519404,53.607765129078174],[-6.979827742180015,53.60520172868302],[-6.985621375376358,53.59134231935028],[-6.987113664124171,53.59136659979072],[-6.9870548632247615,53.59002559648039],[-6.995628703243839,53.5891587835798],[-6.995533162559735,53.58447624680373],[-6.989654256442247,53.578001681102364],[-6.995016526853307,53.57635098619383],[-7.014028362906071,53.57822054273342],[-7.023467477088126,53.57505463304481],[-7.031343897265535,53.567222246755385],[-7.035491306212193,53.55699943016062],[-7.030009764079778,53.55084453145287],[-7.018055181909289,53.5447547622371],[-7.021906269858181,53.536729012526195],[-7.023406681890579,53.52667849155955],[-7.022967615569444,53.522319282183],[-7.0374010754411005,53.513017800658176],[-7.038814835909205,53.508608186974556],[-7.036751848708144,53.50751904881767],[-7.035352743703652,53.50368640720009],[-7.03822909149258,53.50344071873699],[-7.042844751621082,53.50031750416386],[-7.064447195824027,53.49715036820296],[-7.068854312925853,53.49516798979867],[-7.068646249538682,53.49263455523903],[-7.066271817586041,53.49164180581091],[-7.0618712169355105,53.48650832128292],[-7.061842119734422,53.48319170321153],[-7.066283498722303,53.48356650230441],[-7.067071007320941,53.47921743801838],[-7.067129346503776,53.477279741214524],[-7.06379864829894,53.475412637452024],[-7.065917666080203,53.47238450466257],[-7.063471839865195,53.47072309688532],[-7.062990448287462,53.46889568994063],[-7.06971682511315,53.46607713259849],[-7.071179490463854,53.467222798572585],[-7.074371994506345,53.46707833617917],[-7.0803366202804146,53.4644471586032],[-7.0872887486178735,53.459313130415495],[-7.090858461278967,53.45526615828821],[-7.098989343408941,53.45181869152206],[-7.102883998423958,53.451682431226985],[-7.123577054734007,53.4459927090424],[-7.144376470833973,53.44921497972372],[-7.145793675452212,53.45037894283305],[-7.151339051924717,53.45012416434516],[-7.153047305954202,53.44767447162911],[-7.155622610939944,53.44692985307663],[-7.15595622551884,53.44482078210948],[-7.157051616653557,53.44481235764703],[-7.158691435158152,53.43915441997858],[-7.16724324737609,53.43828267226902],[-7.186226856489899,53.43385058881535],[-7.194895732042599,53.43481718644431],[-7.1925425818184054,53.430839998356184],[-7.1922466893988295,53.42328779580149],[-7.200800342944643,53.4241839660042],[-7.209506908472487,53.42173497671731],[-7.213675487124187,53.418118870714615],[-7.2114278074247,53.4157966937329],[-7.211066752866371,53.41233235502433],[-7.215487481853712,53.40708921983686],[-7.221780904282754,53.40550827706881],[-7.231623589052408,53.40541097667211],[-7.245791579512402,53.400592008610396],[-7.252825032681348,53.39979925190922],[-7.255108219742397,53.39837764437112],[-7.27049623410691,53.39776170907178],[-7.274219536767565,53.39978403617088],[-7.277506942343893,53.399365197502334],[-7.278341052229963,53.39873110932456],[-7.276120504766001,53.39599713370539],[-7.279051899850173,53.3934564605391],[-7.315243817937511,53.374870215544746],[-7.328702784980745,53.3657582181179],[-7.332759141496719,53.364216096535024],[-7.339339883987027,53.36461568916838],[-7.342952384972427,53.36337317949171],[-7.347402082572649,53.360186096851876],[-7.342526941067693,53.358717797233226],[-7.3592903609407365,53.350337312304994],[-7.365397780273195,53.34868580983335],[-7.36793123416606,53.343764806377116],[-7.367901622583385,53.341014860908864]]]}}]}