{"type":"FeatureCollection","features":[{"type":"Feature","properties":{"name":"County Wicklow","source":"Tailte \u00c9ireann Counties National Statutory Boundaries 2019 (CC BY 4.0)","simplify_tolerance_m":75},"geometry":{"type":"Polygon","coordinates":[[[-6.146015148004316,52.783717719981226],[-6.1457805625208985,52.78169981458696],[-6.143115940879817,52.78139993055967],[-6.145729430287515,52.78126364887906],[-6.145323335433158,52.77976394068586],[-6.140816549266472,52.778606610677386],[-6.142485281220587,52.778198610454396],[-6.141824782265582,52.77600114687882],[-6.136866774371819,52.77708741980908],[-6.142981217150238,52.7738869545887],[-6.14483948212509,52.76589160632487],[-6.143062084482447,52.76013340006783],[-6.138176322491196,52.75910722717908],[-6.137771677557221,52.7579687971856],[-6.140813321841261,52.753989608004204],[-6.141218631208624,52.75079220482297],[-6.14717542051908,52.743591050925],[-6.144523818349146,52.737697673229725],[-6.148942057134247,52.73845863221106],[-6.154407760466308,52.73783255499634],[-6.163480525325345,52.74059026859862],[-6.1645105584649125,52.74256834404853],[-6.163092515955029,52.7434555486834],[-6.165238704854651,52.74517606118615],[-6.174273872198372,52.74800872036893],[-6.1835999267802295,52.74807793461158],[-6.183757470877618,52.74925808258847],[-6.182781540388355,52.749666173144725],[-6.178837533941062,52.749476126838964],[-6.1769864627543,52.75066562795305],[-6.17035013612045,52.75035194432098],[-6.168319854524514,52.74914746632762],[-6.170277645252397,52.75040331291073],[-6.169838215095485,52.752438449207965],[-6.173702519896244,52.75247852755976],[-6.17590306959164,52.75549399015985],[-6.173365196202865,52.75643040841499],[-6.17381030953591,52.75824468088596],[-6.171002008106669,52.760670396005985],[-6.1730248484561825,52.761990189482475],[-6.170080982750997,52.7629144595556],[-6.1679890322851705,52.76625063436648],[-6.179730437454963,52.767741676168896],[-6.180465666960378,52.766998851120775],[-6.181628750995402,52.76861684126407],[-6.184020083146914,52.769261127442164],[-6.1880222980041255,52.76799312455062],[-6.1922410680653375,52.76877140783291],[-6.197774375740306,52.767996447826334],[-6.202925730209249,52.77112723470031],[-6.204343522399595,52.773703600028796],[-6.211824876442217,52.777268295788325],[-6.213872819110992,52.77729839624622],[-6.219736723911615,52.772267105797816],[-6.222615376056186,52.773949287106376],[-6.2258513281498225,52.77809655712051],[-6.229419575667737,52.77946941297461],[-6.234135410457929,52.77763790379243],[-6.242868042898044,52.778366552302806],[-6.252062797891327,52.78631226403995],[-6.2543539773906405,52.79056831744217],[-6.252955060921249,52.79362639213524],[-6.255776986864965,52.79443601393625],[-6.261957160424958,52.79483321624488],[-6.274395111202306,52.79155874048724],[-6.291867739184531,52.78190375039951],[-6.302964502128197,52.78410302510054],[-6.315345541034761,52.79413568449752],[-6.31756568043567,52.79747161629862],[-6.32411969331308,52.79547202561342],[-6.334312209785085,52.79619678486791],[-6.339630980039623,52.79020338200193],[-6.349070042374673,52.790758983744716],[-6.3491552282822425,52.79216636322966],[-6.352859081219675,52.796130615370714],[-6.357584154205874,52.79427406306417],[-6.368561905233371,52.795297198296915],[-6.3739303951382364,52.793008684309235],[-6.378022666652667,52.78912875873083],[-6.382837209945488,52.78791723902468],[-6.388035648232043,52.784753913282444],[-6.393119061133313,52.785802782907325],[-6.395733425621855,52.78860751787992],[-6.4059492281637365,52.78353936427854],[-6.413555062829906,52.77674709672073],[-6.415859139049334,52.77616172116121],[-6.416452215354736,52.771965249749876],[-6.41372199533811,52.767938226625795],[-6.416861697005443,52.763358782319266],[-6.415673130281142,52.76160841935728],[-6.4175159107880075,52.76182646700786],[-6.416176195994092,52.75819274050145],[-6.417009274927123,52.75542797854279],[-6.425751781807792,52.75343898687218],[-6.432365666986148,52.754687847309484],[-6.4329260602105505,52.74148605141217],[-6.43405885222228,52.739311538133286],[-6.4326988073018,52.73511024309961],[-6.438364375836495,52.73591082501264],[-6.4393914609883325,52.73440872814204],[-6.438526136223375,52.73275014857968],[-6.447641988936155,52.72639642979147],[-6.453353236272562,52.725759743621275],[-6.453195642060688,52.7239314271935],[-6.460313935414609,52.7222973162372],[-6.459674000923338,52.72146033237239],[-6.462343015319316,52.72067482718256],[-6.461024037256771,52.71864365155154],[-6.4652923349495826,52.7180180923773],[-6.466641096590299,52.716579000174754],[-6.473126467275036,52.71473560741841],[-6.4713663002098905,52.71244374530686],[-6.471730287774179,52.70997047616402],[-6.479350827182308,52.705526759045824],[-6.478549463035896,52.70461846547655],[-6.482705372181979,52.70189986544457],[-6.4886453629087635,52.701607209339045],[-6.488762378894967,52.69760544103248],[-6.497424080663081,52.69034253478156],[-6.503939874499496,52.69439504550024],[-6.503573003983726,52.6915548563557],[-6.5056775670883225,52.68951310947819],[-6.52002912784801,52.684793281221175],[-6.526441701721098,52.68435782172136],[-6.532910520349217,52.68604782305386],[-6.535807520406496,52.68307898226012],[-6.5585974948515116,52.68507356550583],[-6.565646608885008,52.681962285822266],[-6.570804724160446,52.68546072497532],[-6.570627175563277,52.687893614310546],[-6.56878558153065,52.69036723865107],[-6.57041494352577,52.69360911194245],[-6.570447833476107,52.700953634318815],[-6.574669247589714,52.701674543433846],[-6.574404160086099,52.70478691773032],[-6.587166634501019,52.700703725671154],[-6.597380625634886,52.70178907609519],[-6.598990330928105,52.71033527486536],[-6.602124064517064,52.70952333765075],[-6.606236078853067,52.710226112648165],[-6.613026188768626,52.71385319062149],[-6.616261794427193,52.71341461271187],[-6.615371746316494,52.71127517570609],[-6.620084588904819,52.70859754916902],[-6.618699833878344,52.71329298757131],[-6.624035424405323,52.71823357039954],[-6.625608467410291,52.72298589455272],[-6.631291302203529,52.729415506329524],[-6.634312110236878,52.73256321176596],[-6.654307692506523,52.746149302998326],[-6.652738370873424,52.747863425933026],[-6.647316685068521,52.74981642256535],[-6.645769536570307,52.751759590242244],[-6.646299275252692,52.7549501811151],[-6.65127169003542,52.75771258793033],[-6.653676636136234,52.76051020510266],[-6.6544529979182085,52.766335114592714],[-6.656483498032648,52.768786570551555],[-6.667706242152688,52.77050036359663],[-6.668504994883367,52.77329477986671],[-6.677802632263385,52.7796377597352],[-6.684897203591865,52.77901415269057],[-6.6926739728067215,52.775976476763034],[-6.697499727106689,52.772748372426875],[-6.700372472641179,52.774673971778675],[-6.699674785806316,52.776069166069185],[-6.700824483865005,52.77704024129233],[-6.705798243985963,52.777859796759266],[-6.710951796453799,52.77637534726591],[-6.710224811652187,52.7773827755653],[-6.712277881223282,52.77839611199973],[-6.710912033272142,52.77990909050028],[-6.711442777860327,52.7816088179465],[-6.70828857483129,52.78152056073687],[-6.707663800715807,52.78311039240451],[-6.7022783935127865,52.7870635251175],[-6.704427413412418,52.78998537112715],[-6.702866828378456,52.79265831986348],[-6.704836281345897,52.794594988362164],[-6.699765560094334,52.79479313856204],[-6.69636844659423,52.79621219850782],[-6.697041091513578,52.799776226801995],[-6.69851144294453,52.80132755082984],[-6.697247605068675,52.802704642691516],[-6.70246048271289,52.80366969067382],[-6.702512841378364,52.805257303392985],[-6.700421259183079,52.80771083706706],[-6.698622606758946,52.80817430476458],[-6.698745937887339,52.809096874789915],[-6.695610641907827,52.81147566903388],[-6.686374602526455,52.81386584649499],[-6.68562627107765,52.81513501503691],[-6.6791347933891645,52.81473630635906],[-6.672409136411142,52.81636045990708],[-6.667917174849577,52.821528573448596],[-6.669437094892271,52.822581254269316],[-6.668181337679964,52.823568142071025],[-6.668612615107498,52.82496441672469],[-6.673898963554769,52.82845418666388],[-6.673085809386907,52.83140294348739],[-6.670619089945283,52.83252338067738],[-6.663875838243687,52.83177146338405],[-6.664680264327899,52.83625276521931],[-6.654116350127021,52.83444701558113],[-6.653789641170159,52.83264834151008],[-6.649137818042102,52.831373566502045],[-6.646271308974681,52.828221839698216],[-6.637685818438567,52.82941439651199],[-6.629518793960805,52.824081493541144],[-6.62501554133739,52.82276846000839],[-6.624350811365859,52.82003536916945],[-6.627437826960909,52.818130393697956],[-6.615094029561791,52.8076023667351],[-6.609429683584677,52.808228470685876],[-6.60661926116281,52.810011037821404],[-6.603258201686921,52.80710800006993],[-6.5996287332755434,52.807058339438605],[-6.597735701395579,52.80549135229922],[-6.587387618788565,52.803482401922246],[-6.584111621112301,52.80669033100309],[-6.573779968828983,52.803483686767606],[-6.572307778445536,52.80193925014198],[-6.567206349365201,52.80778566148454],[-6.56048099434045,52.8113500229773],[-6.564972811141158,52.81496892066885],[-6.550092775343856,52.81885793398571],[-6.548388570555279,52.8205996656952],[-6.541869270562943,52.82034818369325],[-6.534462106617034,52.82155842935284],[-6.527584219930905,52.81880666376278],[-6.518575283467823,52.81950355328195],[-6.520288815042431,52.821365449080666],[-6.524452552958239,52.82186622148626],[-6.528594304122774,52.8265519516283],[-6.5275397029718345,52.82883407154461],[-6.52864609582957,52.83159395240612],[-6.522643487759585,52.83749592174825],[-6.522875510323078,52.84408088093556],[-6.5254387216796745,52.84974310142357],[-6.523815271606079,52.859997484452904],[-6.529046291998935,52.864925697559585],[-6.523018002251626,52.86646588112411],[-6.516501304893113,52.86609541599162],[-6.510997076329482,52.867663155868556],[-6.508713917028346,52.8673208218447],[-6.507934451728145,52.8702633213203],[-6.509178949239736,52.87202353468844],[-6.504916585331967,52.87755468648026],[-6.508576901547969,52.88038492736161],[-6.5220156271508145,52.885034144955064],[-6.524499273046998,52.88651999622289],[-6.527104439616971,52.89009542081892],[-6.528842191684675,52.889662972592006],[-6.527837167651261,52.888654340371495],[-6.528830897668451,52.88795531958234],[-6.530053503885009,52.88834248061893],[-6.529848720267048,52.88947525555358],[-6.537713758334578,52.889678366116144],[-6.537480661902565,52.88712319013588],[-6.5408466093861835,52.88601847247065],[-6.540188972565306,52.883343931099525],[-6.543108880814909,52.88241812693072],[-6.5420367616763375,52.879308655500914],[-6.543136369207283,52.87728858290508],[-6.547154941676498,52.87636993492767],[-6.549162810322723,52.874746034387016],[-6.564471497114915,52.88095571342177],[-6.572453407693801,52.88107197791174],[-6.579433230590061,52.879649809676714],[-6.582290805781732,52.880556613994],[-6.586828962302733,52.87960199397581],[-6.588101489069872,52.8830979675127],[-6.586778384620355,52.88552954683002],[-6.589369850429034,52.890232165606],[-6.5879171105982595,52.894952664246084],[-6.589156990872463,52.896692847690325],[-6.591383089084058,52.89746681253937],[-6.599393933567558,52.89783135189307],[-6.60766635615492,52.90059635829523],[-6.608898074636682,52.90046901759944],[-6.610311322037866,52.89741424176164],[-6.635088631303289,52.903651262635506],[-6.6428913029143555,52.90192389118127],[-6.645532960299641,52.899076255457565],[-6.64453623703806,52.89685058388058],[-6.646006562070372,52.89621484037981],[-6.65493039139562,52.90626750498189],[-6.658542397595383,52.90784485834505],[-6.667424775075839,52.90839592767198],[-6.672546439664621,52.91018857014915],[-6.676878346876955,52.90528566199341],[-6.681003239165658,52.90605428133505],[-6.685267586992624,52.903932046634075],[-6.693240789173384,52.90545533261739],[-6.693790360000272,52.90645857634469],[-6.692748158412819,52.90921691489339],[-6.701030217023676,52.911552152471806],[-6.711840846746733,52.917909758556576],[-6.72110165873654,52.9142244726175],[-6.727182875599553,52.91393517286235],[-6.732205821253781,52.91559618607264],[-6.737241694325822,52.91577658121033],[-6.732750820074519,52.919908020126115],[-6.730458550965682,52.92685120304778],[-6.731044850058755,52.92857864561124],[-6.7347454886691045,52.92950893662768],[-6.733652347072376,52.93272942252168],[-6.740031171770875,52.93518652689678],[-6.736556263674099,52.937496712148636],[-6.736741989223084,52.94117069274109],[-6.742557538578367,52.948286778160245],[-6.751864850799746,52.95311033130309],[-6.758978734796525,52.959075771851694],[-6.761440775573042,52.95941666669372],[-6.76914759980872,52.96642241980372],[-6.770513449097981,52.96632476229398],[-6.779012555728861,52.978169321707185],[-6.7855718248541175,52.976274737562974],[-6.787228921862436,52.97698412975091],[-6.791981032854137,52.98641736591915],[-6.788533521309931,52.988886653644386],[-6.792052247774067,52.99249503135851],[-6.785784834929824,52.99796875854936],[-6.7870580210152855,52.9996125378024],[-6.774607410262821,53.003944879226026],[-6.766114987598874,53.00874166573833],[-6.776295737668862,53.01354327087803],[-6.773101888830609,53.0176511947782],[-6.777776877169188,53.01856696224443],[-6.775741141463529,53.02073862439577],[-6.770666378350117,53.023184684332165],[-6.76572276046289,53.023982126937376],[-6.7645900336907125,53.02640561682082],[-6.7619638268796844,53.025429850353255],[-6.755589739969515,53.02562323326981],[-6.751106063661295,53.02963523323686],[-6.751603700233101,53.03082831105289],[-6.738768678254507,53.03895686188504],[-6.737145741974895,53.04036896720985],[-6.736591296966905,53.0438263415385],[-6.731428495023099,53.04666987861064],[-6.731061387653761,53.05524235183621],[-6.7296468217629295,53.05934409002119],[-6.733208865832389,53.065126658063605],[-6.729829525731025,53.06655720456711],[-6.725071674433803,53.066726612145374],[-6.721266639548011,53.069968085916244],[-6.710993946934876,53.07350225956273],[-6.707403019759667,53.0741360814365],[-6.702920767826118,53.07232207519343],[-6.699630155045517,53.07375197269142],[-6.694714988478983,53.073755498695654],[-6.683513716327408,53.07757029245772],[-6.681012376238199,53.081523095426355],[-6.66651055731686,53.082010799319114],[-6.662264807398244,53.088895591936804],[-6.658058013275608,53.08808169624161],[-6.652367194984552,53.09103849083715],[-6.6292834515041745,53.09208719422809],[-6.626380013073923,53.09790177667237],[-6.6264809010760795,53.10088017764077],[-6.624313601490423,53.104468527179414],[-6.620299933161222,53.10287061075138],[-6.6109939132909545,53.10195170405982],[-6.610245408171593,53.10304546536439],[-6.610818148129364,53.10509783613855],[-6.6038251339126415,53.105356019943976],[-6.602164829010569,53.10802659751107],[-6.595336285571048,53.10802796308272],[-6.5953964079679155,53.109165857325834],[-6.598441342799617,53.1092702393612],[-6.59930026468929,53.112519205422956],[-6.592641722048074,53.1133290337219],[-6.592087312720068,53.1147967849169],[-6.594939758337516,53.11686869527976],[-6.590828924949473,53.11956896522562],[-6.586510260651927,53.11853113801874],[-6.584799941843507,53.11910878215783],[-6.582146192860417,53.12054268509163],[-6.579821599041638,53.12419538732323],[-6.571825690066732,53.12310744083928],[-6.57547471799552,53.12786729320223],[-6.572719932907737,53.13029896113322],[-6.568318102429964,53.12930260642523],[-6.565408184575969,53.13200533410397],[-6.576528483776193,53.135266204430955],[-6.576378690517965,53.136296220275696],[-6.574593624175809,53.136464545817475],[-6.57452789163921,53.14058619483355],[-6.575740163509708,53.143330298863624],[-6.57837427595043,53.142741030180375],[-6.578863655063072,53.14617792668383],[-6.5751773620684695,53.14688608882932],[-6.576347550082934,53.14931518005129],[-6.562899689849322,53.15619222442283],[-6.55762382122342,53.15518275585717],[-6.556536631274931,53.156585131805905],[-6.555491385114917,53.15425350429384],[-6.54960021868023,53.1535731912416],[-6.54971548816145,53.1559362163578],[-6.5535665640036544,53.15768484624314],[-6.552786534460735,53.15998664623772],[-6.54625055066193,53.16489774292251],[-6.539970353936572,53.167142180438404],[-6.544292370422736,53.169833660480286],[-6.555763499978046,53.17361964362291],[-6.555429293264064,53.17439243162433],[-6.561284921943426,53.177987467112],[-6.561970065848519,53.179371746035216],[-6.555746836957927,53.185587298612866],[-6.539060725325352,53.189333835895034],[-6.538582507626486,53.190696139287915],[-6.529328946559535,53.18999056975505],[-6.519815397338207,53.18640069753241],[-6.517767430755617,53.18923574784983],[-6.500080015848424,53.20243422407756],[-6.5012678056788396,53.20399557709575],[-6.499675128698126,53.20498799477694],[-6.505707116697083,53.207156944686105],[-6.510285647060217,53.21022398951868],[-6.508608953727067,53.21088531948515],[-6.50875157104875,53.21438904933709],[-6.500725491135664,53.21749755590604],[-6.497051351294617,53.22249235583168],[-6.492859866814925,53.22128844170332],[-6.488132121954304,53.22566784963228],[-6.480159474447676,53.22953230862934],[-6.475262476161533,53.23440980222043],[-6.46949408855547,53.22985596194112],[-6.461117959177401,53.22608843216201],[-6.460997191419189,53.22519688724446],[-6.457487938387496,53.22702146473042],[-6.45746370121535,53.22965619754087],[-6.454644977669856,53.23123721818564],[-6.430897717552384,53.23156738319836],[-6.423586112507512,53.2305108475612],[-6.419761521706262,53.231309808953974],[-6.416541818583023,53.22744119905537],[-6.4140850152573305,53.21936417392019],[-6.412576856232735,53.21776085677156],[-6.410576309624439,53.21630561956179],[-6.407456154425587,53.21765863270856],[-6.405739174481783,53.2171028304795],[-6.402643519688595,53.213499688041665],[-6.401315766330402,53.211305156199366],[-6.402830396659273,53.20819586069569],[-6.39791487747174,53.211847298303105],[-6.392640725250098,53.21347626901256],[-6.382317044586256,53.21432255901341],[-6.3758535133132535,53.216058619766905],[-6.368360290752148,53.21380388679235],[-6.370112724815418,53.21028125358641],[-6.374636216883923,53.19244926590656],[-6.360567115728547,53.186271576429924],[-6.354234566032857,53.18476197252226],[-6.347288376489042,53.18095749514512],[-6.332066493004835,53.178197387383484],[-6.312125963823689,53.194528786670524],[-6.30765287233796,53.21447049880566],[-6.308452859322933,53.21870231788015],[-6.310826771966863,53.22222287684609],[-6.3045414086122005,53.22458575838595],[-6.292146052804613,53.222817628978945],[-6.275995287031025,53.21111887928878],[-6.268827901419012,53.209557093756],[-6.259343010888389,53.20511530132813],[-6.239551607883087,53.20217402844111],[-6.227283306075621,53.2052592039274],[-6.227239009500741,53.20839826569665],[-6.222909484177663,53.21149579341613],[-6.218311735215629,53.21234640841878],[-6.210779993014929,53.21032050602995],[-6.208325954118646,53.211109701970216],[-6.208942319498613,53.21442614084862],[-6.207163280432037,53.216172401739975],[-6.202461408866564,53.217134941159486],[-6.194918704579706,53.21653065259979],[-6.18232100465806,53.22086686945816],[-6.175121476001464,53.21309252820848],[-6.173505483649954,53.2094520380803],[-6.168810550742141,53.20831589753533],[-6.161766823739256,53.20255760762437],[-6.14740464569083,53.20344115743404],[-6.136904286564499,53.19912675723421],[-6.131379961541075,53.19886857265466],[-6.132189231119627,53.200028151847334],[-6.128791225925755,53.20084245563168],[-6.129452688649909,53.20251603058997],[-6.128615061397269,53.20393591052643],[-6.125181689628607,53.20405648170986],[-6.126233516663534,53.20750046978887],[-6.119411659263526,53.208058960107444],[-6.119161791815528,53.210507258119634],[-6.117048679753793,53.210716406029775],[-6.114249100038027,53.20797946449339],[-6.108619073678321,53.211181239799906],[-6.107591819299062,53.210206013776734],[-6.102778705292742,53.2107728950608],[-6.1018161593793385,53.20923840284859],[-6.100488575355837,53.209491248566394],[-6.0993775695226615,53.209487676693655],[-6.099218652541348,53.209429834803366],[-6.103392691672203,53.20883527195668],[-6.109530843828035,53.205338992524915],[-6.103223589613881,53.208429381420686],[-6.1005504754457345,53.207654414018904],[-6.09872723090047,53.20936654273887],[-6.1005331393524544,53.20729292453474],[-6.09327126722002,53.19731907559147],[-6.091504720042691,53.1961834034371],[-6.087907462627915,53.19678458319652],[-6.088627204102754,53.19648746743211],[-6.087582693532406,53.19564300813544],[-6.079817288897076,53.19216549986726],[-6.0760161902346805,53.18839821926527],[-6.07684146751443,53.1843986081969],[-6.074694433052595,53.18235529084601],[-6.074916424006238,53.178415722388365],[-6.0718996995186325,53.17547921071298],[-6.074648111900647,53.17435466331879],[-6.076741238312818,53.1698268277136],[-6.0754727065795775,53.16243903316339],[-6.067757022375276,53.151798582674516],[-6.065367673188053,53.15031672397034],[-6.0636432333327654,53.15123651723469],[-6.0625383623273,53.148425423007126],[-6.05995913308366,53.14800862068558],[-6.05932409008983,53.14670196929108],[-6.060262364094565,53.14439340982335],[-6.047855303162692,53.130027934867606],[-6.042053639752202,53.12015084994052],[-6.040512772123818,53.105051183202036],[-6.037672897688656,53.09560451822924],[-6.037734885450965,53.08929887896353],[-6.034436487472786,53.06979209575692],[-6.0394262461193495,53.05846304974444],[-6.048322734237513,53.029297818034294],[-6.0499009059563145,53.00550164719189],[-6.047498036817735,52.992598863285025],[-6.040569395079358,52.98312381148766],[-6.0364916522764,52.98346359633254],[-6.039373330383407,52.982736547780014],[-6.037326384227409,52.981312148965955],[-6.0345888031290515,52.98137258328695],[-6.035424605399322,52.98064512970736],[-6.04097230401185,52.98140819391636],[-6.041371214069841,52.980876493893604],[-6.033772806026849,52.98048835538464],[-6.0327464927073775,52.98182147378688],[-6.034625635454138,52.98324880465472],[-6.0343480135883345,52.98336249882646],[-6.030402935818364,52.98114452563418],[-6.030965617987653,52.98053168881471],[-6.027846227326297,52.97792379894089],[-6.023709095431687,52.97791660365271],[-6.022133135831446,52.97681341963345],[-6.020958578578552,52.97287036454643],[-6.013618891135929,52.97315910076775],[-6.010376714084152,52.97201258606921],[-6.007493610345719,52.97264848664679],[-6.008119040764279,52.9720444843904],[-6.004570953855124,52.96973703873987],[-6.004189111576357,52.96830653604652],[-5.998045526159192,52.96550332908027],[-5.999977407406721,52.96454064262779],[-5.999172134253622,52.96217576821142],[-5.999823395526107,52.96105239143858],[-6.004938483937472,52.95919198583551],[-6.005430373357728,52.95786009987249],[-6.006497965617741,52.95836575052177],[-6.00674213838959,52.956193455761024],[-6.0097546504946155,52.95447987135123],[-6.008875589731825,52.95447415931614],[-6.0088799275969516,52.953340520475],[-6.009239609049336,52.95442831151416],[-6.012389997874526,52.95402785567009],[-6.015288134636136,52.95208065400339],[-6.014498119900312,52.95054523011868],[-6.015270010710562,52.94890621779013],[-6.014115000814911,52.94759682443465],[-6.017202198993841,52.94453357963912],[-6.014759495782608,52.943216536143154],[-6.014422624628167,52.94159736943085],[-6.0163713151399225,52.940233973868104],[-6.015744113320846,52.93807970914578],[-6.017125255468688,52.93705878574296],[-6.017002050109481,52.934733427360904],[-6.022844975791929,52.93042051114107],[-6.022889739614892,52.92913106237314],[-6.020457039584375,52.927898629617154],[-6.020925665352981,52.92537155103205],[-6.031546753054128,52.92101547036633],[-6.03784312579983,52.91537009850358],[-6.038464029323249,52.913777684844334],[-6.0373452253174165,52.91134874224593],[-6.040690591883502,52.906452403406725],[-6.039836985239412,52.90345893158798],[-6.036448713102944,52.90287969701516],[-6.038492832814436,52.90148095821218],[-6.039708062592836,52.898471638971806],[-6.038917848526076,52.89781632513919],[-6.042461345705656,52.89731935820112],[-6.0430488835519265,52.898592000964605],[-6.043936906345246,52.89875113931276],[-6.047758516644459,52.897865594742754],[-6.047935328696669,52.8967873553223],[-6.047196531306271,52.896260514588654],[-6.049946853367106,52.89598880309025],[-6.046965207920822,52.89625798674393],[-6.0475664820690005,52.89788731920363],[-6.043033697569271,52.89826960181429],[-6.043295245418748,52.89687846340282],[-6.052020903568253,52.8903964067703],[-6.0594392392220495,52.88000494775865],[-6.064544595541462,52.868726836439045],[-6.0646477478414145,52.86638044564468],[-6.063604887073574,52.86443654790413],[-6.058645792175096,52.86211290054058],[-6.0569541668210665,52.85860072180233],[-6.060716579312133,52.85603814323356],[-6.075145173141304,52.85200359912895],[-6.088580437747089,52.846770740333845],[-6.095397478065514,52.843670631431564],[-6.096878022004746,52.84204592734199],[-6.1020079787322,52.84256287288611],[-6.09978595514546,52.84105937483706],[-6.1098458625221195,52.83439995335667],[-6.1122190201450195,52.82940760387666],[-6.116147692473774,52.826062061505816],[-6.1158910860129145,52.82418181602944],[-6.118867287292837,52.82090125021165],[-6.120568633418823,52.81537947871968],[-6.132235400847035,52.8081731833268],[-6.140855130440598,52.80096532251309],[-6.142467637655154,52.798335851414606],[-6.141703253277312,52.794430552199046],[-6.137968300790176,52.793685819187104],[-6.139079104047526,52.79282741099127],[-6.1367369529515585,52.79346867299192],[-6.1430249237556325,52.7878937553888],[-6.146015148004316,52.783717719981226]]]}}]}