{"type":"FeatureCollection","features":[{"type":"Feature","properties":{"name":"County Antrim","source":"OSNI Open Data 50k County Boundaries (OGL)","simplify_tolerance_m":75},"geometry":{"type":"Polygon","coordinates":[[[-6.475893930204197,55.252220600736614],[-6.477229422834059,55.25071039985406],[-6.483373358039898,55.252040584927286],[-6.484295076468671,55.2506416916155],[-6.483919602502532,55.25175098315802],[-6.485859379184983,55.251246437178196],[-6.484615413358035,55.25088851435675],[-6.487439341031086,55.249514554508124],[-6.487493317118428,55.24857169833542],[-6.490320150786546,55.248294326332015],[-6.491827379136089,55.249536080617176],[-6.491544174521841,55.247582370882796],[-6.495863225488093,55.24852836635368],[-6.496103499808389,55.246850916435704],[-6.497307832951852,55.24623748748612],[-6.502869147169012,55.24757694499571],[-6.501730984685926,55.246546767145546],[-6.503855757546553,55.246897980355484],[-6.502746210822751,55.24593096358276],[-6.503170997605993,55.244750167435896],[-6.505849612646305,55.245018476852096],[-6.506048038763204,55.240437782857214],[-6.510079979535827,55.24028332736143],[-6.511921880460547,55.241430363064055],[-6.512963573064334,55.23855912967284],[-6.518210695749374,55.23948932279487],[-6.518770158901689,55.23846302234754],[-6.517276380451184,55.23647589451175],[-6.517712108919305,55.23539427885432],[-6.523413289883671,55.23597066879889],[-6.523445753668984,55.2343531843191],[-6.524957473147183,55.23509155718843],[-6.526462437697847,55.23400540639847],[-6.530642329263444,55.233672288453185],[-6.532365275990774,55.229425801682304],[-6.527786996706308,55.228711459195914],[-6.527352478789971,55.22656707172328],[-6.529700497976439,55.22361326524647],[-6.536278900528479,55.21962577149513],[-6.534812448750706,55.219122297841025],[-6.540026813894444,55.2204376758943],[-6.544765110067083,55.22024588833751],[-6.545565092087474,55.217865632547536],[-6.544346861663204,55.217257062403974],[-6.546988434980082,55.216023316516086],[-6.550414471636314,55.21724371145924],[-6.550433830578707,55.21999391440721],[-6.552600460549956,55.22005728951107],[-6.555233774655776,55.2190208296916],[-6.55543003243167,55.21800785102374],[-6.557029278467107,55.21811770214868],[-6.556496904081713,55.21723948680227],[-6.558295695115051,55.21787303619449],[-6.563427310579051,55.21685081417139],[-6.561658802490891,55.21747476541814],[-6.562848550724687,55.217597409805805],[-6.564030060177543,55.21711782519063],[-6.563215146599479,55.21664958469641],[-6.564239736110771,55.21575460821735],[-6.567705657728393,55.21635480590395],[-6.567436336864485,55.21477905199014],[-6.569936800199209,55.21554698632598],[-6.573513941686229,55.21448589180654],[-6.572536660352753,55.21373703548071],[-6.573266978941965,55.213539485221396],[-6.576954063615471,55.213692888494656],[-6.5772212089038,55.212042558902525],[-6.57995580408671,55.21204047152031],[-6.581928649203266,55.21098658542195],[-6.581875605287869,55.20989843543866],[-6.605133368245817,55.205961737294885],[-6.627792338729877,55.20859960553141],[-6.645656518858736,55.204765094583486],[-6.650309783698928,55.20656579849902],[-6.650323363278054,55.20806727845943],[-6.654416731037563,55.2101118286807],[-6.657060825343646,55.212953526590155],[-6.65902614936595,55.21111167735795],[-6.662480714311784,55.21267061564011],[-6.662466042044888,55.21080949686525],[-6.659156013370699,55.206987621525215],[-6.659819563882934,55.205810635906374],[-6.657308249853989,55.20719530691277],[-6.655956827829207,55.20608867472916],[-6.658789158763672,55.205652147742136],[-6.656243734852827,55.20453750135866],[-6.658748862096449,55.2003662829143],[-6.662449502473327,55.199079175191386],[-6.6689659283823,55.19879363602726],[-6.665083866199565,55.19087197932835],[-6.655362971610487,55.192281852615736],[-6.65403843176465,55.19314390595316],[-6.654240600954406,55.19413519668065],[-6.651317803270501,55.194642127231475],[-6.650639481883077,55.193802873588915],[-6.646792098524315,55.19495134672673],[-6.643685135577005,55.191634838991305],[-6.63795963167972,55.187996319346446],[-6.632224615623801,55.18808906628637],[-6.622636449641818,55.18609211318244],[-6.621551840315563,55.18340482405281],[-6.622827174152504,55.18056461306935],[-6.622196021500974,55.179523224833076],[-6.61347912507834,55.181874014113795],[-6.611442212313283,55.18063670866707],[-6.609604325854592,55.17706404680335],[-6.605816949182155,55.17425563694325],[-6.605527529629336,55.17018356683037],[-6.603058630566285,55.16561423229035],[-6.592190847987925,55.16782624932152],[-6.593231017036614,55.16725374670212],[-6.593336421181966,55.165389301342806],[-6.58766267927916,55.16099634466997],[-6.588450447748129,55.15979161233947],[-6.58469350173389,55.15624059389784],[-6.584557528972935,55.15232736585003],[-6.580786570674142,55.14697749602784],[-6.580220080396611,55.14416088991951],[-6.575600058547601,55.14397166550331],[-6.57372376174424,55.14271312158212],[-6.57037520935695,55.13547935449334],[-6.568003746490707,55.13483077889221],[-6.568413303780003,55.13117970368994],[-6.569489162618724,55.13083943863736],[-6.568544119888707,55.13065745608681],[-6.569185778627089,55.11824077964757],[-6.570688797246386,55.110170115295006],[-6.585051940124055,55.08837305897284],[-6.604739916264845,55.08406255516222],[-6.608043098111007,55.079347664162206],[-6.605729555579784,55.07518579648303],[-6.602426135876247,55.073343953735744],[-6.597718641116935,55.06823774383227],[-6.58502229559713,55.06406214128757],[-6.58260425763166,55.05954424663311],[-6.580368908359597,55.05786273289818],[-6.582920256842812,55.05054692279973],[-6.573132281993758,55.038588228707475],[-6.572790648627782,55.03605870101953],[-6.574607299594827,55.03252872355257],[-6.573587833684387,55.03015980154072],[-6.574006303067276,55.02769398819911],[-6.576804149375396,55.022590978039325],[-6.576474853434832,55.01688326343781],[-6.578531009355261,55.01410056826945],[-6.578578791391515,55.012225532726696],[-6.582644058251016,55.00995884680078],[-6.58063209403167,55.00468792719342],[-6.577023220031116,55.00145860966876],[-6.574368329282597,54.99540298017911],[-6.571147829732746,54.99275635988402],[-6.571520760786648,54.98886946962477],[-6.570239309579858,54.98540535225746],[-6.55982920614602,54.9827373691805],[-6.552835922489165,54.98303501207832],[-6.546352631974913,54.97952594392439],[-6.54687455987451,54.977903106652576],[-6.551951781855014,54.97489016166092],[-6.548244189910257,54.96924614938885],[-6.547374518654215,54.96370522932398],[-6.5449358457081,54.95944119018006],[-6.536691244741953,54.95756659687389],[-6.537160854475246,54.956067780889796],[-6.540080059748132,54.95485554923342],[-6.539231859995482,54.95323954444468],[-6.534360220707484,54.95153941325778],[-6.530817383440096,54.94820108902764],[-6.525112190345386,54.94615501527088],[-6.521388076129508,54.94240594458065],[-6.518101206171538,54.94112001135751],[-6.514882740765519,54.93459821623413],[-6.499593608860151,54.91812360791177],[-6.499412532355926,54.91584141678994],[-6.503116818668088,54.91422629583435],[-6.503180880532293,54.91281603980973],[-6.505608848149907,54.91167953931335],[-6.506125513524678,54.90782256773033],[-6.503577963364083,54.90577998755245],[-6.502672260118571,54.90095024085276],[-6.500845311394645,54.89908880567751],[-6.500905452180367,54.896421986128395],[-6.499045944052617,54.89483163712045],[-6.497581486115456,54.889382084016994],[-6.490143039900815,54.88614382794535],[-6.487966311388957,54.88282724858683],[-6.486762671556247,54.87597961724096],[-6.482273143223162,54.87418179737372],[-6.480033988599931,54.86677449881879],[-6.475075534751105,54.86086663379797],[-6.473730783233482,54.85615517468507],[-6.471194819494883,54.85336717200351],[-6.472292454828051,54.85127036813421],[-6.470571534165678,54.84673265605024],[-6.471598367593069,54.84164112936495],[-6.466848597905293,54.83937122335087],[-6.46615729794291,54.833771398466304],[-6.460608901641922,54.829147440389015],[-6.457074410368181,54.82454470646375],[-6.460172227949746,54.82144330396445],[-6.458531273489164,54.817245038273605],[-6.470799852034927,54.812631471328146],[-6.477838318235529,54.79401418528868],[-6.476958370463442,54.781209542845815],[-6.477672763061536,54.77874514645867],[-6.480207379672633,54.77588747900406],[-6.467853166891103,54.764516669891854],[-6.465093173074141,54.76454915074783],[-6.462168127839002,54.766871806531604],[-6.460679044752205,54.76685434994755],[-6.457318890222812,54.76174242434606],[-6.461479330008423,54.75929180726226],[-6.465635099468243,54.753859242603355],[-6.485797300965464,54.73700476766645],[-6.496066330191073,54.71381511715666],[-6.469036395987815,54.68523506510219],[-6.407011283525111,54.648428756570006],[-6.426454538863658,54.5680492066267],[-6.390554025207726,54.522936437478364],[-6.380738597472743,54.51399787006347],[-6.352851292927976,54.509255768783824],[-6.338881779098542,54.50922148280446],[-6.334733241614328,54.51100067290638],[-6.326431163445021,54.512010456421905],[-6.316630965223895,54.5071120489673],[-6.313102079357861,54.50387137083245],[-6.303051968409292,54.50240208077234],[-6.296260541452735,54.49773621045743],[-6.291229410992123,54.4971698948041],[-6.287560951397101,54.498153467617264],[-6.280599987454672,54.49575818770033],[-6.277813114123161,54.49688905857441],[-6.279952155463715,54.501084429764546],[-6.275794285106901,54.50084520200685],[-6.266067611100813,54.499062129704235],[-6.263157847582548,54.49487789057086],[-6.257664042887014,54.49160172248061],[-6.251268322318053,54.49229720017309],[-6.239819304911728,54.49063495846695],[-6.238495182794176,54.4918294467776],[-6.240866594224979,54.49323421249697],[-6.239884228755414,54.49456838531658],[-6.236383084791738,54.49431552373264],[-6.229129326036867,54.496097874589076],[-6.208661666207647,54.49018105091958],[-6.206090045993308,54.48717707696584],[-6.201000132707029,54.4862257475461],[-6.199432132873707,54.4832362930698],[-6.188930951526418,54.479867574029235],[-6.189185270088323,54.47845577057043],[-6.187993679633563,54.47737147591978],[-6.183478761897777,54.47854811784968],[-6.176500154947338,54.47680039555957],[-6.171706892852705,54.480027626796115],[-6.164701266472544,54.47956737582221],[-6.159800492074836,54.48137149473553],[-6.151095128318866,54.4826408329848],[-6.147368142336608,54.485189002057986],[-6.143425078170955,54.48602643441975],[-6.141217157209843,54.4876557649246],[-6.140227725642137,54.49029612019733],[-6.135054488753123,54.49395188735456],[-6.135509954979542,54.495010077110365],[-6.134479265205535,54.496053868504255],[-6.130546396231822,54.497347255773136],[-6.120160579766026,54.494522383797204],[-6.113016239254043,54.49478080340692],[-6.111504788813098,54.49631192614303],[-6.096934837524124,54.500782435083835],[-6.08676047124862,54.50247549009899],[-6.0872522381017,54.50346516243282],[-6.081959844480225,54.50530229093568],[-6.079045055085338,54.50578841166329],[-6.077697332201346,54.50501225768876],[-6.077573318341934,54.505803470493696],[-6.074875829359103,54.50600530958594],[-6.066825501814904,54.50460692001146],[-6.063471120902224,54.50206159863961],[-6.064865447525645,54.50054859721449],[-6.056845086720318,54.49770587845352],[-6.053698011383136,54.49978328780614],[-6.051230458701882,54.49889192277448],[-6.047055456661378,54.50056501666668],[-6.041338592183282,54.50499369795595],[-6.034158474837276,54.50361297168826],[-6.027467396199215,54.50471975316077],[-6.025656084510886,54.5078646574115],[-6.023257524721137,54.509581494156045],[-6.025234567456438,54.5136281227605],[-6.024120174793541,54.51438989431116],[-6.023964943235602,54.516905139750435],[-6.021261891127893,54.51943684271001],[-6.02310703274461,54.523312851041375],[-6.027256022438987,54.52509084121164],[-6.023028702718516,54.52616174172192],[-6.024975402961942,54.52799452892458],[-6.022943209860278,54.52951956844342],[-6.014253826250382,54.5312685197423],[-6.015012043620146,54.53305354525917],[-6.019221668812471,54.5343900600432],[-6.017837744069501,54.536404407148126],[-6.011270124655137,54.53564686698211],[-6.003751330501149,54.53882881089297],[-6.002440187629266,54.54050083482649],[-5.997561939690584,54.539838656735384],[-5.997840294493368,54.54241775479902],[-5.992987826833937,54.542919867462025],[-5.989212304482956,54.54150573131179],[-5.987130223750133,54.53741246268952],[-5.984581592140432,54.536414160539316],[-5.98451705699007,54.53539137346161],[-5.978515391513754,54.53545849197711],[-5.977342944561893,54.53429046627989],[-5.978003711171322,54.532332407678375],[-5.976550699871705,54.53077417880377],[-5.975370134870358,54.530612882611756],[-5.974861944301179,54.53168063006849],[-5.972769705085157,54.530820105338485],[-5.971825728125634,54.532720548376695],[-5.968642244501607,54.53283280228888],[-5.967071016452041,54.534681692395026],[-5.96769250269938,54.53596214078285],[-5.960334339345234,54.53770373485032],[-5.962822652719003,54.54083069263536],[-5.966043774932306,54.54255695838764],[-5.964881564657917,54.54374647485988],[-5.965459932781807,54.54645507829325],[-5.964672652469573,54.547659887964016],[-5.959970727143294,54.549062901328575],[-5.953823801396847,54.54785977358244],[-5.954288891279174,54.550454191818815],[-5.951828081229731,54.55356349912816],[-5.951646129557088,54.555506528859546],[-5.941905955453294,54.55344895147134],[-5.941180448873022,54.554129877777775],[-5.941743781955612,54.55603526034502],[-5.938732296726456,54.55779529058508],[-5.936416085281328,54.55773979314973],[-5.933646524468842,54.55995367137146],[-5.934380021693203,54.563411107168456],[-5.926990172676012,54.56456399983309],[-5.928687915844061,54.567426778346146],[-5.925393106491201,54.569513032163584],[-5.931072689210356,54.575343996290115],[-5.92783675700848,54.57783589622477],[-5.927767103904592,54.58032326891815],[-5.919694584898552,54.58389357609972],[-5.91887030507513,54.58585707530779],[-5.920223085857154,54.5900252319403],[-5.912741707454304,54.59485419552737],[-5.912882060581916,54.596171159485976],[-5.920406726340522,54.599112784248064],[-5.920306213973134,54.60156863830005],[-5.918430332343368,54.60446489556575],[-5.874505789264528,54.63854991453048],[-5.912918352332108,54.648037902515306],[-5.910702214269433,54.64868962377615],[-5.912691478021743,54.64931719387716],[-5.904646263009514,54.65574735930395],[-5.902578580451003,54.65891974674268],[-5.900073715136907,54.65976361033492],[-5.900657400401355,54.66411775258476],[-5.898066528691318,54.66816854248358],[-5.897430391023321,54.67195642593951],[-5.894387886090026,54.67460386051488],[-5.878566528721056,54.68333300757068],[-5.872849790648943,54.68532765527847],[-5.859365280005791,54.69354865992954],[-5.849857575421805,54.696509303796766],[-5.85012138983638,54.69883409986271],[-5.845818759591906,54.69889074548965],[-5.841679422413526,54.70207865343979],[-5.841589313644542,54.70435052615869],[-5.83311202478373,54.707629811713],[-5.824756613035185,54.71022784849135],[-5.825482306981215,54.7093633828523],[-5.812381993697095,54.70957963200386],[-5.814645760907815,54.709621925088356],[-5.815198653511494,54.71108153859081],[-5.811331504249647,54.711335509019015],[-5.811762521398894,54.70933201923504],[-5.810344841888963,54.71032453390164],[-5.806654615186424,54.71025868056028],[-5.809069358865846,54.71255699351677],[-5.806732039345217,54.71301091895133],[-5.807972045457808,54.71234681959823],[-5.806824007994261,54.71233898251074],[-5.80627156589723,54.710411788310545],[-5.805362987525482,54.71419323518595],[-5.796494023374822,54.71813506654645],[-5.795711484873809,54.71754185442725],[-5.796093413246343,54.71831478170115],[-5.790433507128183,54.72071128956924],[-5.780575651836275,54.72272374974615],[-5.769430558873207,54.7235644599663],[-5.766127493622405,54.72011787745569],[-5.767666312452548,54.72280471672179],[-5.765680376658266,54.723226679549796],[-5.764812198201913,54.71960225517479],[-5.765132813949965,54.72328595437429],[-5.76267408563618,54.72403801683393],[-5.757705986532423,54.72402220656181],[-5.747178638059228,54.72691559799359],[-5.743857573484477,54.72487009421985],[-5.745935136814104,54.72738105471217],[-5.73899839292433,54.73378158990275],[-5.733485256202888,54.737778941757654],[-5.726686966783702,54.73791697254124],[-5.717362433608978,54.743298550173684],[-5.709502659213205,54.74636807618922],[-5.707592684909072,54.75253412547378],[-5.705029774125773,54.75538613341502],[-5.702247308575298,54.755832968716774],[-5.702837422521555,54.75694344697075],[-5.701901688760382,54.758530393031194],[-5.69806763525075,54.76021994955864],[-5.692019237868511,54.76552413688632],[-5.688223682152903,54.766656702382576],[-5.688522847195621,54.76813795908684],[-5.692743502733928,54.77132078755184],[-5.694695660158257,54.774270289631964],[-5.693756485076781,54.780931845694745],[-5.691838175093489,54.78365808747938],[-5.692687826063632,54.791325443413896],[-5.689364899613975,54.801675557055404],[-5.691658394712495,54.80959532341315],[-5.699989781448109,54.81861194084259],[-5.711933616233661,54.835535034457536],[-5.7253965258464,54.84814131284121],[-5.729994357325387,54.847509681116875],[-5.736674713422769,54.85152588813844],[-5.74678830017408,54.85551024514512],[-5.762453790276215,54.85927082928518],[-5.763750584413126,54.857764766193036],[-5.76230636331776,54.85370862622073],[-5.766655067303841,54.852232614082304],[-5.770445090588192,54.852407075016565],[-5.780170677977389,54.858519618166554],[-5.782795645939077,54.85590351847576],[-5.781544898595017,54.85299453751043],[-5.782359887190522,54.85188123793145],[-5.786345927654018,54.85066577395817],[-5.790070082461346,54.85215109538321],[-5.79103084968489,54.85053753801072],[-5.7900659942847,54.84924575913336],[-5.791101090154781,54.84915398548305],[-5.791336128082192,54.848503184255875],[-5.790348366443505,54.84900971580725],[-5.791243621609877,54.84806909386904],[-5.790237352189436,54.84776574042204],[-5.789084281795289,54.84458939409311],[-5.792003561797785,54.843671337931404],[-5.791318820929853,54.84302509414891],[-5.788883154889055,54.844359642098844],[-5.788942155384127,54.84334457989597],[-5.786718748764745,54.84243591022808],[-5.787346861460162,54.841947562230494],[-5.777486850408745,54.839375926159335],[-5.769248259701826,54.83197749773669],[-5.760271318803081,54.82951644987868],[-5.751061861768787,54.82517789092442],[-5.75038149661771,54.82448628699465],[-5.751130521390411,54.82383924503192],[-5.753115350727879,54.824167170664225],[-5.752189597440362,54.821329012962536],[-5.745452626874155,54.818949023478694],[-5.743557424856821,54.81722008158813],[-5.744023790520587,54.81535164133585],[-5.739400324099398,54.81617200292097],[-5.734141189200059,54.813414522223795],[-5.736654184234853,54.81166923780058],[-5.734839320945287,54.811992740872846],[-5.731683970663921,54.810052254543805],[-5.731254317571746,54.808098623725314],[-5.732313510164149,54.806434062988245],[-5.731417038548166,54.80489144757172],[-5.723716562616078,54.79860951692217],[-5.723712701593792,54.79637853036219],[-5.725859609141795,54.793284152271376],[-5.722055685959679,54.79336885088722],[-5.719405659823549,54.78846307421578],[-5.725336603104726,54.78532829110182],[-5.724248657162953,54.784275721125574],[-5.718078341586377,54.78501165692865],[-5.721530450528139,54.78172506944937],[-5.720409561436811,54.77854291700728],[-5.721811064789008,54.77791191577248],[-5.720819977109683,54.772619539514906],[-5.724305187232278,54.774568519538896],[-5.723638412267758,54.7759945177359],[-5.725749328718763,54.77808047330325],[-5.726008802067001,54.78050236180485],[-5.729073545408839,54.7836319134104],[-5.733137487868207,54.7912798990319],[-5.73868940102927,54.79528624572957],[-5.736834761345854,54.79511407226682],[-5.737093148625364,54.79582224144828],[-5.741144686023738,54.79825277412525],[-5.74642212957326,54.803456969278024],[-5.747946648152733,54.80743451343894],[-5.755714861159176,54.812043605014246],[-5.753652205543809,54.81214551861306],[-5.746820860600587,54.80896272632195],[-5.742014854615912,54.8091042113811],[-5.742717583925834,54.81095666484021],[-5.749645852156082,54.815761054284266],[-5.752301228718709,54.81648361322931],[-5.757085363915375,54.81560345967392],[-5.764425948521682,54.818033736211646],[-5.768384514196342,54.81672797559339],[-5.767694702804692,54.81573957528653],[-5.771349070654281,54.815595953599015],[-5.776697510584623,54.81886662406463],[-5.778638259772459,54.81683646050332],[-5.778046342498578,54.81620144869324],[-5.784519549915115,54.81921694166531],[-5.801823528715716,54.823646315414074],[-5.807113877659046,54.82755049476361],[-5.80681438758687,54.82866069221633],[-5.80938118638213,54.830405143660585],[-5.811352630209785,54.834122903342646],[-5.812075272735543,54.84172287692533],[-5.817022786773284,54.84715861661099],[-5.811984257092391,54.844670877457034],[-5.803499240663854,54.84457259151289],[-5.801010144359378,54.842389120045716],[-5.803664533883711,54.84061878861319],[-5.800437344720056,54.84063932200106],[-5.79883864767945,54.842471063046],[-5.800805520887367,54.844120066487484],[-5.799970500257194,54.84488239814963],[-5.798342921204953,54.844338793441224],[-5.796321452687971,54.84788733161717],[-5.797037163463383,54.847904818859845],[-5.796170952923967,54.84951178089702],[-5.796892069505406,54.852003027612405],[-5.798589236411153,54.85435588906386],[-5.79790676078411,54.854735206946074],[-5.804303317993438,54.8574184716284],[-5.806952160958529,54.861260588243304],[-5.806161996304199,54.862041745823014],[-5.810485016840022,54.86773259626825],[-5.822377045826191,54.87634059759634],[-5.831603583051533,54.87770580477166],[-5.837553786085212,54.88145578917607],[-5.839839098129977,54.887582047359466],[-5.842425199629822,54.890207503326195],[-5.840552454203754,54.89259086522262],[-5.840801888467845,54.89560097264656],[-5.844431022786357,54.901075990810845],[-5.858405116742182,54.89922476604281],[-5.878006686373969,54.9076601593631],[-5.883120852603933,54.91384325649516],[-5.883102352673708,54.91672115210928],[-5.886442177721098,54.91891377684706],[-5.887057784873451,54.92297569429177],[-5.889412289870299,54.925639640595946],[-5.89402900299513,54.936226720225925],[-5.898687612433106,54.94296503704738],[-5.902843931275989,54.94536529243058],[-5.904024678391045,54.94830734738106],[-5.910447644432545,54.95312589000986],[-5.917917102311153,54.9619438875813],[-5.926932379938136,54.96728060080999],[-5.936872525406892,54.97038997834373],[-5.9458820251348,54.97119221364422],[-5.950793194057203,54.96913825777942],[-5.952164543000271,54.9696375119028],[-5.950666730267359,54.96982792153437],[-5.950662854136239,54.9701063176615],[-5.952182033915852,54.970060665199675],[-5.953927246190635,54.968095987472346],[-5.953621803689025,54.969243687393565],[-5.958744559640832,54.97188485129236],[-5.95955026077326,54.97310845543616],[-5.958876350906842,54.97470285175203],[-5.96040900541529,54.976483083927974],[-5.96463785634023,54.97928743596755],[-5.970583605161319,54.98124044861559],[-5.982325453077064,54.97919761148294],[-5.990201998088073,54.984899318636195],[-5.992579321353233,54.98964839260345],[-5.98903127872929,54.991213428905155],[-5.987708690497125,54.992703165098625],[-5.988900437706292,54.992883181956955],[-5.988158856181022,54.99410766766225],[-5.987218772466698,54.993006940206755],[-5.986473357030107,55.000625737528544],[-5.977190071691854,55.00750088046479],[-5.978405577197118,55.01207957534768],[-5.975551215475956,55.01510807500532],[-5.974970764678986,55.01918713643859],[-5.971263033003452,55.02299653848521],[-5.971744347603125,55.03070613926949],[-5.963364836487416,55.04401388778763],[-5.962837074250178,55.04842676847882],[-5.966377930469601,55.052672112151015],[-5.976692388328511,55.056677297557286],[-5.992543260447476,55.05953063912121],[-6.004484687990153,55.0590164754476],[-6.013208610464506,55.056846578633866],[-6.023852331990365,55.05749466669007],[-6.042649360414776,55.053402601721665],[-6.050273464121289,55.05644627195473],[-6.057526358526117,55.063399550994355],[-6.057642632050841,55.06419228400645],[-6.054125397422458,55.06622767635003],[-6.052853384299105,55.065685202944124],[-6.054426337681118,55.06985487129183],[-6.052517394634935,55.07535940500367],[-6.052753224215014,55.08025255989309],[-6.051615584391238,55.0813660405051],[-6.054723667753239,55.082164033004794],[-6.055041468602328,55.084236241444145],[-6.04853659051776,55.088594455293546],[-6.047706559991467,55.091654351225586],[-6.042484514053558,55.095404481808195],[-6.037414391160269,55.10106260229562],[-6.035321509012226,55.10549431146853],[-6.033807590518959,55.113584576331164],[-6.035166263152967,55.1158182951646],[-6.035545585288389,55.12307796124295],[-6.03834820022826,55.12621672128249],[-6.041751548033193,55.12529426041217],[-6.040911696446108,55.12576559302905],[-6.04202793369161,55.12755478364453],[-6.041716581497055,55.12994908195257],[-6.039459958519257,55.13266169817603],[-6.036326257781022,55.13320217549556],[-6.033453104481578,55.13599369583774],[-6.025548455259688,55.140516014039804],[-6.025615945187391,55.14709603901821],[-6.026457897632989,55.150229143667794],[-6.02604893787979,55.15843682389613],[-6.027371454144968,55.162000179098754],[-6.033659373535939,55.16973690200856],[-6.045405864116018,55.17182153047692],[-6.051038443377661,55.1758882552729],[-6.051846609775725,55.18249854587797],[-6.055926798600455,55.184400142475866],[-6.06051553420451,55.18928472534449],[-6.064221371039384,55.19054160133007],[-6.064661737907775,55.19392821782301],[-6.060999647278753,55.195197385569756],[-6.062109604244935,55.196231419049106],[-6.061627685176667,55.19859634226923],[-6.066554289811503,55.19687127855122],[-6.073510128325045,55.19788519119153],[-6.087753108735263,55.20395234057535],[-6.096493422987445,55.20607262056229],[-6.100867065867588,55.20880395302705],[-6.107037687495042,55.210171718125295],[-6.113173356216391,55.20909383271567],[-6.116286660166718,55.209692202600976],[-6.121662980395845,55.21283476161396],[-6.122637322028925,55.21569932178733],[-6.128883617456842,55.21780406897307],[-6.1336486574747,55.223830002241385],[-6.141879783897024,55.22750253661391],[-6.156172621166895,55.22715438709222],[-6.165649394817105,55.22235196067927],[-6.167807252078802,55.21933918051372],[-6.172967558247866,55.215987011702424],[-6.178706932083379,55.213650384055654],[-6.196170695503884,55.21095648561119],[-6.203336760767917,55.21162463247092],[-6.212935560493569,55.207701074465604],[-6.219301725773055,55.2073315833579],[-6.220363416669485,55.208480146202504],[-6.219886620784674,55.207259530431536],[-6.221417741204047,55.20610559244138],[-6.234394440007788,55.204487896842814],[-6.238106320848402,55.20492505496505],[-6.239497549070549,55.20591342955318],[-6.238969470132678,55.20780166440619],[-6.240891647893978,55.20769598606519],[-6.246896026519458,55.211732210589965],[-6.258914675452835,55.21250601103496],[-6.268003770209346,55.217198285663464],[-6.273209694812378,55.22159856114535],[-6.27976890408232,55.222199152003746],[-6.286845447120191,55.224568443876656],[-6.28892846474649,55.22681894238177],[-6.290510033918844,55.22696798140561],[-6.291070832190392,55.22916924493311],[-6.289421689214334,55.23016938285924],[-6.292534150781226,55.229487307564646],[-6.295772428991047,55.23159293571669],[-6.297081872462972,55.23010226606175],[-6.312396024912177,55.229741800568746],[-6.317583413690727,55.23259417155851],[-6.328062172164908,55.23563934645259],[-6.332962352943927,55.23968213868098],[-6.337373374661468,55.23880165941084],[-6.346453996162666,55.239371968329436],[-6.349455790011357,55.24084348573434],[-6.350925633954951,55.24284174186971],[-6.354131069560035,55.24146728034237],[-6.360349574364483,55.24133062719069],[-6.362748256114874,55.24367418025702],[-6.366266292250761,55.24415528952902],[-6.365434056706461,55.245203946369095],[-6.366241331365229,55.246176812849754],[-6.366687960484708,55.24530240857432],[-6.367442550754638,55.24640959671588],[-6.369988844125878,55.24535805392921],[-6.368879061640828,55.24664560437741],[-6.371504002718129,55.245963353052176],[-6.370826427941192,55.24453404883225],[-6.3736577440213,55.24235410886732],[-6.380775192623324,55.24251670506942],[-6.383847334100075,55.238731069148024],[-6.39198958209871,55.23476441723118],[-6.401095273727598,55.23252704996397],[-6.409246060619043,55.232378727149566],[-6.413865893148209,55.23356543645275],[-6.416345546484645,55.23740972169066],[-6.421425364144913,55.237398385211634],[-6.421281342439959,55.23859153041002],[-6.422479765028555,55.2377542379889],[-6.421780942670678,55.23717864562944],[-6.424562502687665,55.23796245720268],[-6.425415856608166,55.23674279800877],[-6.425515506164251,55.23774179663711],[-6.427026853903884,55.23695333084169],[-6.427241917980033,55.23857391503231],[-6.433418799733567,55.23790301948434],[-6.435323041861162,55.2393754641614],[-6.437157560806487,55.23723456348851],[-6.437688934821241,55.23845497362135],[-6.441515624089916,55.23908161184288],[-6.441383251988357,55.24000548607405],[-6.447675272834124,55.238445713143285],[-6.448653880390769,55.239492345751245],[-6.449895104796584,55.23952699095412],[-6.44933124498453,55.238701443431836],[-6.452255964853689,55.23909121842145],[-6.453720004118133,55.240207127630086],[-6.455266903416965,55.239302328978866],[-6.456157268525472,55.241363189056955],[-6.458201063706952,55.24175900835422],[-6.457417230197484,55.24208089052355],[-6.458091574723962,55.24289881015493],[-6.458714108275659,55.2419095092473],[-6.461748800180567,55.243073272555556],[-6.460567947288066,55.2442618243114],[-6.462214683700108,55.24591027509306],[-6.462236741869635,55.24804944196298],[-6.464810936071979,55.247418729238305],[-6.468906622562486,55.250348756225584],[-6.468320720267165,55.2512217710674],[-6.469577636661492,55.25048349361895],[-6.473590312072991,55.25199244380414],[-6.473006082321529,55.251274927739665],[-6.47429515127638,55.25052801958775],[-6.475893930204197,55.252220600736614]]]}}]}