{"type":"FeatureCollection","features":[{"type":"Feature","properties":{"name":"County Limerick","source":"Tailte \u00c9ireann Counties National Statutory Boundaries 2019 (CC BY 4.0)","simplify_tolerance_m":75},"geometry":{"type":"Polygon","coordinates":[[[-8.507100783144697,52.735242195590885],[-8.50878716906025,52.74685114973821],[-8.505916944478153,52.749843185365705],[-8.492909691881437,52.75382403287341],[-8.48802030405267,52.752920893005566],[-8.482835140980589,52.754829905533136],[-8.483183859784837,52.756169976114464],[-8.480079096239285,52.757398950857656],[-8.476045521201014,52.753527585287245],[-8.475211797839993,52.74690809317265],[-8.46959654366463,52.73905250520753],[-8.47293683599276,52.7376174322276],[-8.472570655420585,52.7361284945698],[-8.470995756076876,52.73549824258086],[-8.472600356529606,52.733922529771725],[-8.470124294609581,52.73248767608468],[-8.470167866765827,52.71813830276566],[-8.466916542628255,52.71771931363715],[-8.468944019441293,52.709923014394704],[-8.468412045186314,52.707032948269706],[-8.465032738455374,52.70376194347983],[-8.462819316114023,52.70546002967504],[-8.461837473272285,52.704953484727426],[-8.465428769543133,52.70186761014209],[-8.465442816966993,52.69600840169189],[-8.457434063165216,52.698680009789406],[-8.455403634403464,52.691698997681705],[-8.449558534065822,52.686544443940846],[-8.451644118649812,52.68465317007921],[-8.4468390746056,52.68645619904344],[-8.440502127747857,52.686012071981644],[-8.43286941328633,52.682468131925155],[-8.432837692924684,52.681139973472256],[-8.427714114207868,52.67786114081115],[-8.417249550856596,52.68433694702441],[-8.415754489546208,52.68766992331864],[-8.407007254669045,52.6900757300576],[-8.40671712631579,52.691209247592944],[-8.403137939660425,52.69250787721968],[-8.400353605710148,52.689894997229075],[-8.393625593464494,52.68927485937267],[-8.386818360771406,52.6869477087445],[-8.386378392445181,52.68303480373035],[-8.384736129109772,52.681353279160696],[-8.37747730030062,52.68157680531755],[-8.374064988308522,52.683362893194186],[-8.37239895723636,52.682743257927356],[-8.370054066616634,52.68376413109027],[-8.359736525490394,52.67927616495981],[-8.356934701596636,52.680702947718785],[-8.354793438389917,52.68047487930363],[-8.355461892266083,52.681583153384295],[-8.354711637911905,52.68205524749042],[-8.350855955346862,52.68216383707662],[-8.33931988258996,52.685905372423804],[-8.337456481997854,52.68719615096653],[-8.337539120022411,52.68921233043967],[-8.321696141465448,52.689546277427716],[-8.32091077737923,52.6914229710087],[-8.31851774397753,52.69021771266529],[-8.317043693395346,52.69237178130803],[-8.31518282912283,52.69279641770434],[-8.308005595435429,52.692034434629164],[-8.306229625620015,52.692553937230194],[-8.306289539627056,52.69418837655811],[-8.29789960755299,52.69430915247991],[-8.296575764650392,52.696314896447305],[-8.292006705215874,52.6945139171538],[-8.284999083690456,52.69456541148392],[-8.28425500666985,52.69285294448033],[-8.282579745220044,52.69367732428398],[-8.281035976149862,52.69166776514288],[-8.274653835914021,52.69054714872501],[-8.268932614826705,52.68851573082506],[-8.268452583353959,52.68692749688887],[-8.25307168671951,52.68241770143069],[-8.253818041078398,52.679986030720826],[-8.252477749736121,52.67491326241382],[-8.254342833976231,52.67009078615428],[-8.236968780537072,52.66892371753556],[-8.232330354817057,52.66663860196335],[-8.228351959566035,52.66257104765258],[-8.228828238749548,52.66200473983893],[-8.227190116879212,52.66260427999616],[-8.228584438504774,52.66510852731244],[-8.224808950407569,52.66649942996173],[-8.224392976163495,52.668291944456854],[-8.220673028440245,52.66824493775136],[-8.215775149738812,52.67086619259174],[-8.210732566110797,52.66966178997645],[-8.21091780528103,52.67097867452676],[-8.209647340344937,52.671328169601146],[-8.205619614802082,52.66938552766959],[-8.199138803580583,52.66920537400051],[-8.197211606233864,52.67063150850382],[-8.18912134236992,52.67091949100599],[-8.187861567293428,52.66814773540459],[-8.192642732649627,52.664628495688646],[-8.192771279774545,52.66223773613108],[-8.197628287296851,52.655244741445614],[-8.194546427276075,52.649903826026154],[-8.194912021993192,52.64497011493375],[-8.19755317201911,52.64291431824671],[-8.203590156578223,52.64161011396617],[-8.20301593964999,52.64110035526989],[-8.205534341514435,52.638651812785646],[-8.209548661944117,52.63589575973023],[-8.213365880967851,52.635049223502875],[-8.215347965412812,52.632824471730295],[-8.2118310767717,52.62863975548217],[-8.21304032750115,52.62295078342703],[-8.211166083686193,52.62132148758841],[-8.21552770602368,52.621457046537095],[-8.218958555069975,52.618106302611245],[-8.219324223303019,52.61044528489952],[-8.210490175634444,52.60760626160598],[-8.209137433348562,52.60214837815299],[-8.212042510148134,52.6009106157089],[-8.214264227747114,52.59505715653625],[-8.21966723037801,52.59225555907863],[-8.224019302963589,52.59170446391728],[-8.225489528560589,52.590523793359075],[-8.22495836960205,52.58885093240614],[-8.233550771420683,52.58596366302717],[-8.233107299581881,52.58479538220211],[-8.235165277362466,52.58337352989442],[-8.235331152474787,52.5820902648635],[-8.237475345100368,52.58175108779853],[-8.23015574773172,52.578027509210635],[-8.225645966741725,52.574523973730024],[-8.224351658431623,52.57188465349441],[-8.227013276047176,52.57050569229583],[-8.2274504901957,52.5690498554442],[-8.225691232608561,52.56826073831195],[-8.226661097773372,52.56660621146312],[-8.229454915017795,52.566327636425044],[-8.233118400010706,52.56277576701874],[-8.2356452693039,52.562224061704086],[-8.232746049464346,52.56133846918832],[-8.231339353154594,52.55969077851193],[-8.230926141701609,52.55666810813697],[-8.228909502547285,52.55557893960116],[-8.22654431005696,52.5560228833041],[-8.225796922355281,52.55505621556242],[-8.228254560944562,52.548184292794296],[-8.23160779585758,52.54374622944421],[-8.232617540054118,52.53573729767814],[-8.228413238160947,52.532835345492884],[-8.226087180937641,52.52590535228179],[-8.22828937115841,52.525121201930446],[-8.230506613869357,52.52118058649252],[-8.231744489033161,52.515139362414025],[-8.236529634165656,52.516035251589265],[-8.237524928746044,52.51317937518525],[-8.248723439391709,52.511948866712494],[-8.25421816718029,52.50980431378462],[-8.256440482054618,52.51111736335754],[-8.256171214423457,52.51701253547905],[-8.258855567709439,52.51996434637317],[-8.264821815854004,52.51931436902245],[-8.26895168164316,52.52067036565183],[-8.27176831770055,52.51707352779189],[-8.285830961853431,52.52155464246671],[-8.289426507449582,52.51654819681156],[-8.289530418552381,52.51473634891335],[-8.294232804856524,52.51185527024153],[-8.303940944619274,52.508788274170776],[-8.3112582863937,52.51070461990538],[-8.317757317671834,52.50599315217215],[-8.326171268678813,52.5052976800455],[-8.325776635577562,52.503099100705505],[-8.323578957472538,52.50276639016926],[-8.319767710415853,52.499466108254296],[-8.319776522123929,52.49474290029742],[-8.314894385531273,52.49303884009572],[-8.31361980043764,52.491148677124386],[-8.316694337831281,52.49159366752015],[-8.31945567322755,52.48911066986664],[-8.324393493092657,52.482945526862345],[-8.324040042075634,52.481158609890684],[-8.329713519763043,52.48033129364728],[-8.335094596572265,52.48262513947913],[-8.337916539402585,52.486834773181556],[-8.34000364667336,52.487745822916416],[-8.335278161597689,52.490155050021656],[-8.330909090717585,52.49544180631477],[-8.330656661682855,52.49829606807423],[-8.335201879778777,52.49717256541777],[-8.335496673749363,52.49998412842714],[-8.338094760132147,52.49892080280234],[-8.338817949032805,52.49964512928273],[-8.339325830366265,52.50289379041695],[-8.334905622362978,52.50429839230777],[-8.336464978063207,52.506559977829326],[-8.33506324250089,52.510473929550336],[-8.335345368703447,52.51278122868536],[-8.339518353083708,52.511980074047585],[-8.34533386182295,52.51324923095371],[-8.349708226847131,52.51172922949486],[-8.360102798186844,52.51076925836261],[-8.361506301666637,52.51031919859381],[-8.360012483993726,52.50807651985788],[-8.359738764362527,52.505143659302696],[-8.368189207167593,52.50322789803283],[-8.366228355121027,52.4999870547556],[-8.366720275690017,52.4975447773016],[-8.37274721037861,52.4943010898427],[-8.377812589992601,52.49553092559581],[-8.380458849974072,52.49474090763287],[-8.382758300133695,52.49175555025191],[-8.391246467184667,52.49067212405984],[-8.390991255611784,52.48863159349771],[-8.395965205583554,52.483436134481835],[-8.391094412617665,52.479907593549875],[-8.39054785252701,52.4783846417449],[-8.391370873146897,52.47796245603631],[-8.389751438132132,52.475868754556664],[-8.391623200924125,52.47503438203919],[-8.389390845200316,52.47246051519789],[-8.398201904169566,52.46996295937151],[-8.398499057438869,52.4684225656394],[-8.405920578942279,52.46660082843232],[-8.393845935603421,52.440475481252406],[-8.392751183860037,52.4405956288828],[-8.390632364359353,52.436857663227805],[-8.386381144615806,52.43281366883904],[-8.380688048558802,52.43566777272285],[-8.377966942392275,52.44183112587741],[-8.371889295700656,52.44464828582059],[-8.366824339468748,52.44551540717704],[-8.356035034284426,52.43602556276716],[-8.352825779599366,52.43581180197445],[-8.350657238105821,52.43368797498977],[-8.330128114863909,52.44041733485832],[-8.326923483542757,52.43530181821124],[-8.319931954685195,52.439591607160466],[-8.320765106254711,52.438511306509916],[-8.316907343627072,52.4376489832414],[-8.313395226850478,52.4353665116411],[-8.31631330437859,52.43246281325203],[-8.312789615298664,52.429862147326475],[-8.312693310586594,52.427274563918935],[-8.310429783654348,52.4250310013932],[-8.311494982326414,52.421976084055274],[-8.30958995929622,52.41996811479044],[-8.297109619691067,52.42107904104403],[-8.29096094395094,52.416912384175],[-8.283985888734517,52.414367386195096],[-8.281309141472446,52.40858668989117],[-8.28367464346391,52.40543931011666],[-8.282469351191441,52.40105313797111],[-8.269866057522544,52.402522706854754],[-8.268319185219145,52.403149167811314],[-8.267344794922371,52.40567454077945],[-8.26001983094145,52.40723217751762],[-8.260026461991002,52.408177443796596],[-8.247263611344781,52.40985904385225],[-8.230939661590362,52.41038904838678],[-8.229844050828651,52.40938864734255],[-8.230287295705116,52.40764227884062],[-8.228422127293559,52.40706417834298],[-8.22857337084212,52.40593745383953],[-8.226354599200691,52.4045241834657],[-8.231379565976214,52.4030582668767],[-8.227205505736125,52.400970585829114],[-8.22741570879606,52.3987937160459],[-8.228666341377563,52.39775087084659],[-8.22731113434475,52.39703025152567],[-8.227191806594503,52.395467992941384],[-8.228490047479365,52.39282698369921],[-8.22776482840456,52.390958985189116],[-8.228497113153164,52.3860582002956],[-8.223520789129859,52.38356942255904],[-8.217330633572002,52.37833443789487],[-8.217496073230032,52.3746871452492],[-8.21614611901846,52.372571014124624],[-8.214784658349753,52.36449836111879],[-8.20973093338656,52.367821553927946],[-8.203191735527689,52.36975732768451],[-8.199875009712825,52.3695893985741],[-8.199768702697975,52.36741374921922],[-8.192706578767217,52.36386159717278],[-8.167974387508767,52.36785456826067],[-8.165039650415752,52.364720078359824],[-8.164276155026387,52.36095631871244],[-8.166596561369033,52.35701875862138],[-8.16811136217176,52.34988893582823],[-8.166609741522949,52.34518893990491],[-8.181328296906642,52.33501802937181],[-8.183022217549247,52.330157700413544],[-8.181086966096574,52.32850019430287],[-8.179069521554627,52.323298033687045],[-8.177038546907633,52.321694931135085],[-8.175194726086481,52.3211063444685],[-8.173412278161996,52.322126400300384],[-8.168279696416121,52.321026592576025],[-8.164857642421218,52.318592109475276],[-8.163235737116935,52.31399266980612],[-8.165201876612727,52.30940923822151],[-8.165160788238957,52.3053076279886],[-8.16215020931364,52.303052309092],[-8.158606310016536,52.30312508305313],[-8.15633066854659,52.30060768016996],[-8.159798130008685,52.2991664213912],[-8.165718900634234,52.29340207668549],[-8.168974162567501,52.2916344608533],[-8.176616264996696,52.2908993069439],[-8.183479496366406,52.287595584050756],[-8.195604954763999,52.28715384193562],[-8.200642717708822,52.28900661442518],[-8.201752570740958,52.29129083542607],[-8.207383147741458,52.29445533408794],[-8.216669921197981,52.294734368115876],[-8.220886134741521,52.29364801378886],[-8.221330030941527,52.29493480097562],[-8.225373882004488,52.29608323358942],[-8.24381868475362,52.295824203747316],[-8.245813735324132,52.29612688359585],[-8.246249427108117,52.29713449093257],[-8.247100881220746,52.29638277133134],[-8.24894298064946,52.297098211599625],[-8.252469643025428,52.29418377532289],[-8.25600032507795,52.29438613904111],[-8.265582620530719,52.291349500495045],[-8.271198404714875,52.291469643852295],[-8.272783169642747,52.290375376373454],[-8.273862328281245,52.2911990445017],[-8.280715928193452,52.287395496604425],[-8.281501053889333,52.28539525338723],[-8.286040214269038,52.287783827257044],[-8.287876542443923,52.290285134867084],[-8.290892679281189,52.29070825196514],[-8.297043606377086,52.29480120032465],[-8.299519250870102,52.302942406259106],[-8.311400796462532,52.316935481211495],[-8.312369565061692,52.321920682625056],[-8.310953000527336,52.32406828012913],[-8.314399540552607,52.32383921847635],[-8.316909854722443,52.321533679358254],[-8.321467675417818,52.31975708854814],[-8.330502196049062,52.319530672198475],[-8.333554414651706,52.32017098471022],[-8.331829443964368,52.32250085941473],[-8.333503805220097,52.327332741719474],[-8.34102737206717,52.32927666674893],[-8.342649051390191,52.32714105787491],[-8.348264999020747,52.325767226307384],[-8.352310510668747,52.32238274563406],[-8.35724515999438,52.32259741295227],[-8.358804817975209,52.32099768051802],[-8.362585459698979,52.319937121787746],[-8.363499305181163,52.31732912977684],[-8.362771122847846,52.313067769920096],[-8.363579030049749,52.30888529623401],[-8.36870922815036,52.30669636643519],[-8.375354709767599,52.30625410661596],[-8.376890031864546,52.30487847138381],[-8.381285534802085,52.30427035563235],[-8.384703682627965,52.300902564078655],[-8.384414721941736,52.29806601046856],[-8.386415586109585,52.294627085409495],[-8.441383380452422,52.29256073997749],[-8.450109625352841,52.28929198091519],[-8.451946351090418,52.287296138135574],[-8.47742710424334,52.28596867309865],[-8.490496796410325,52.28426341866412],[-8.505263647362629,52.280387304128716],[-8.510172993096692,52.28023284190766],[-8.51021412909335,52.2817576226929],[-8.516919627929848,52.28050384056667],[-8.519165523889136,52.28327723106995],[-8.53444461323785,52.28614397322233],[-8.542584001554653,52.28915158991473],[-8.547291094669658,52.292497904208794],[-8.55831234339781,52.30739712975629],[-8.56462101724404,52.30627282334484],[-8.56966229539198,52.309943597073534],[-8.575982286624024,52.31049095361459],[-8.579677823897985,52.31011475160753],[-8.582686650086467,52.30576065325718],[-8.585407771948868,52.30707752456871],[-8.591383293242627,52.31443645285935],[-8.597874435091335,52.31871051282879],[-8.599931512648212,52.32189317207662],[-8.601763720429105,52.32055304438056],[-8.609008217489283,52.327127214669744],[-8.610073712765608,52.329701042617316],[-8.605444011474836,52.33279024043934],[-8.60981575217473,52.33598660916893],[-8.614116887239275,52.33601821819993],[-8.614157643789571,52.33721998818625],[-8.616512134837576,52.339213989162864],[-8.624001140800898,52.33743545427342],[-8.625405143578924,52.338184169827265],[-8.625095618921566,52.34205251213475],[-8.623912585307554,52.34286161668039],[-8.624375461974019,52.34440025615266],[-8.62749506624916,52.346632845904814],[-8.633309363640045,52.344434282280396],[-8.638206284942655,52.34710906931323],[-8.642127873994355,52.345579034557495],[-8.64410451238237,52.34828790975239],[-8.653595269936138,52.34763897989042],[-8.653428393907275,52.34873546863132],[-8.655060580428522,52.35022422798127],[-8.654418116755112,52.35272449438768],[-8.66185134587296,52.351638387701364],[-8.663191861612468,52.35448628681725],[-8.663275293459739,52.35917472330207],[-8.666214008377745,52.36041097674569],[-8.668434719044258,52.3598119678206],[-8.673724086527715,52.36798712100932],[-8.671024570624649,52.37280224874208],[-8.674266588105978,52.375855720767646],[-8.674688543444839,52.377669451631355],[-8.671548356510547,52.381466617619154],[-8.672371641585947,52.38375310103059],[-8.691078354449404,52.37836527685484],[-8.700335996382234,52.378143347510566],[-8.706296329758176,52.37530245681212],[-8.70932047609583,52.377779216302784],[-8.7158484896529,52.37385220841332],[-8.724185150644372,52.37101852721416],[-8.729034059846212,52.37239848801132],[-8.734792364331001,52.370966899460505],[-8.747476316997293,52.37605219383218],[-8.749842320229117,52.37960624631755],[-8.7582193805549,52.377451864295075],[-8.761696778530967,52.37965588351227],[-8.761904462837458,52.38216851207506],[-8.781419212723707,52.38769746839123],[-8.781986746187535,52.3855015394216],[-8.780774955541563,52.384558304114286],[-8.787496774323271,52.377710610042534],[-8.788167870196158,52.372769379481944],[-8.793167516889993,52.3716290011318],[-8.799717677604031,52.37979932432727],[-8.799789518472265,52.38753139290634],[-8.802645415489666,52.38796011738329],[-8.804900245885307,52.386584286722304],[-8.821673387205715,52.38375971015084],[-8.823103656891725,52.383016331871445],[-8.823192109320354,52.37995079040393],[-8.82794929735316,52.376728106190725],[-8.826535652985745,52.37488551325584],[-8.827945769648167,52.373834066438484],[-8.828514549893871,52.37087335480008],[-8.83289815207558,52.37114124542051],[-8.835249513076407,52.37016173271469],[-8.83761206889502,52.37132745198532],[-8.846918697723023,52.37110126451535],[-8.851708484790263,52.367873494755436],[-8.849388643804069,52.36379448497218],[-8.851875372457275,52.358673973920546],[-8.86568886579346,52.35372272325075],[-8.867466943115398,52.34916233528284],[-8.873127958871297,52.35069507539476],[-8.874616631631332,52.353348390255874],[-8.875527351456292,52.353612682394406],[-8.875513684244115,52.35402049326784],[-8.876357512673906,52.35441913438765],[-8.877078617638922,52.350269927657834],[-8.882370277798026,52.345452507061836],[-8.881363861528948,52.33963821075153],[-8.888437419660669,52.337957481153644],[-8.888212021474846,52.3364920613234],[-8.882724931407264,52.33197075346646],[-8.896244612350685,52.330858710693086],[-8.909789941892377,52.32470963078912],[-8.919856073910006,52.324745216705814],[-8.96127656110155,52.31918765032574],[-8.965134821672297,52.316797084992736],[-8.986403704523543,52.31072459145432],[-8.984998239355562,52.3091416012259],[-8.98586807084303,52.307375830092134],[-8.985003870932916,52.303695402185255],[-8.979107352348604,52.29913079624699],[-8.978478644472583,52.29644692839508],[-8.974828844982525,52.29284465138069],[-8.977153940914413,52.29334263722976],[-8.98285205624338,52.29191604818654],[-8.983083692353576,52.29267100052809],[-8.9879332605665,52.29243084396702],[-8.988273289937784,52.29341816760941],[-8.993459667123007,52.29496483781328],[-8.995042139772597,52.299629913967614],[-9.004750781040773,52.30640721937439],[-9.00522359102912,52.30764729017794],[-9.012942409775176,52.31157665990836],[-9.017615132175559,52.31247486954208],[-9.020837110837478,52.31473513662756],[-9.022248064151658,52.317784996974694],[-9.033521466463224,52.32242306521418],[-9.04578602020605,52.320788734690666],[-9.051307830343378,52.32350795934042],[-9.058203684942287,52.324274927833834],[-9.065688770715113,52.32694912029857],[-9.070624580410033,52.33180575376019],[-9.075064827427708,52.33108184505819],[-9.096727518727683,52.33251047804235],[-9.102324916063662,52.331926815470545],[-9.112542603526853,52.333426329499446],[-9.119606633980636,52.33777839363944],[-9.132985743085024,52.34238540072661],[-9.136026223150683,52.34442762503738],[-9.137664844069565,52.34212910860876],[-9.137983889153062,52.33610191247051],[-9.139371924359686,52.333674309264914],[-9.150609305092898,52.331361995297854],[-9.156108512064915,52.32851462611715],[-9.158459378263869,52.32663112771178],[-9.158689801185012,52.32178461666343],[-9.161230185323676,52.320299613011464],[-9.17524201962725,52.31921107328344],[-9.173520121771416,52.313877427461826],[-9.174676829244177,52.311915968962495],[-9.193341047240061,52.308058351257884],[-9.200473101580023,52.30819969933172],[-9.209425593585674,52.30672762660655],[-9.21168272418799,52.30461642412903],[-9.214218438815124,52.30404102701878],[-9.215286069980904,52.2990390690281],[-9.217490848152693,52.29822232317629],[-9.230517048766508,52.30386452601576],[-9.233022165226014,52.30822958699316],[-9.232489866300725,52.31047411227136],[-9.235748514253523,52.313488781958654],[-9.237179773438692,52.3178308327985],[-9.238602293148881,52.317463770753406],[-9.240372494150508,52.32157542537212],[-9.245734650874875,52.3222137676058],[-9.24762907840505,52.32475674143031],[-9.250157057835773,52.32411199194136],[-9.249164295014676,52.322949858516],[-9.251714183490256,52.3226315224821],[-9.250405229210042,52.324164800504086],[-9.25259166293258,52.32646478601695],[-9.26102262757615,52.32508420679826],[-9.269578049207192,52.32780525299395],[-9.276282957458438,52.331283186554465],[-9.28197221047533,52.33106223486349],[-9.285161862164765,52.33278654424647],[-9.29005939887468,52.33258629086432],[-9.29566378338502,52.334039206119655],[-9.30010328038116,52.33294999363396],[-9.300660467661428,52.33597220901482],[-9.305563052607804,52.33844969961536],[-9.313956516278694,52.34493631728052],[-9.314724452759668,52.34817032134895],[-9.318975143954898,52.34942641954405],[-9.320322230189909,52.351294552031085],[-9.323067294906206,52.35000029012276],[-9.325277620275086,52.35074905285386],[-9.330698982007794,52.355003367238744],[-9.339389987486202,52.353985029679784],[-9.34069290056819,52.35509286953183],[-9.340965828193427,52.35743177241104],[-9.347943145230762,52.36155019155607],[-9.347587387713903,52.36299765783268],[-9.344030885244246,52.36515668489367],[-9.344598369445556,52.366599784705365],[-9.343833069876021,52.36737405127094],[-9.32974625488293,52.369978315639266],[-9.328575413682922,52.371781891792125],[-9.325471873956332,52.371406986902535],[-9.32196748007577,52.37402309525412],[-9.318242640607195,52.37362292072382],[-9.317350733404849,52.375135055725224],[-9.311397315578468,52.37632422905789],[-9.305582638956153,52.3816510435049],[-9.304068118096847,52.380646489592344],[-9.302298576353559,52.38182582349377],[-9.303307533407917,52.38895653653172],[-9.30854166281422,52.39033163806657],[-9.312392965849615,52.3936320020415],[-9.315267738156352,52.39247902311113],[-9.316192415771242,52.39359442911523],[-9.313634556794392,52.395837920769665],[-9.31481417063884,52.39720537698236],[-9.321649380268221,52.3988358324906],[-9.329259629060575,52.40251789650043],[-9.336948601056973,52.40277930009098],[-9.33947018698049,52.40441642226724],[-9.338473634701483,52.40640771374895],[-9.341400258365484,52.40767206448939],[-9.339034339176262,52.41069981314417],[-9.339359181578473,52.411695060228375],[-9.33301359755794,52.41620261256448],[-9.33181783037495,52.41891778414052],[-9.327374403832295,52.423662127209376],[-9.321629160402871,52.426071370459404],[-9.307634606324957,52.428153982404325],[-9.304172059728097,52.434785513214756],[-9.314182542308638,52.434998883088994],[-9.318916239111848,52.44244663850507],[-9.321989454953089,52.44327574317584],[-9.325662490240763,52.44267480357055],[-9.331370817113427,52.45006263029165],[-9.333300659976645,52.457136338271134],[-9.340023364503857,52.46263543182608],[-9.339204787815962,52.46541002146617],[-9.340578948527439,52.468268052163104],[-9.339208395436732,52.46943982812344],[-9.339169504276901,52.47128460006989],[-9.342276639091855,52.47179098926562],[-9.343274150834485,52.473212872337825],[-9.338863923167501,52.47321746117397],[-9.338382645052093,52.47131990630992],[-9.3368157584702,52.47259962880454],[-9.336483227820349,52.470477703541185],[-9.332762750103559,52.47133146860457],[-9.33395970942596,52.47197073970109],[-9.333008010484086,52.47267992272817],[-9.331195294401873,52.47172365908569],[-9.322363473357925,52.471614478155274],[-9.321609559273972,52.47546580767994],[-9.318720397428777,52.47617177625473],[-9.316119183992658,52.47951163048518],[-9.3163341710967,52.485483238327376],[-9.318366389905258,52.4907241528401],[-9.315571849020426,52.49379578012703],[-9.312403628919736,52.4956527064897],[-9.297230922193894,52.49591725293518],[-9.305318116394378,52.52161395630569],[-9.313528378758043,52.52506358952304],[-9.32197472748985,52.527106716939045],[-9.331514608734025,52.52721126680494],[-9.33208899304321,52.53050217340477],[-9.331264371169649,52.532993195232635],[-9.337491738049973,52.53806312852725],[-9.33613368375663,52.538913255952416],[-9.34833962129266,52.54148239841665],[-9.348732213818925,52.54383293600144],[-9.350340355563084,52.54495659129096],[-9.348852887583242,52.54677012277572],[-9.34487972818478,52.54728574160178],[-9.343549885074301,52.5500605342349],[-9.3505129525837,52.55500349231845],[-9.342550105757308,52.555831156376655],[-9.337579692463022,52.56156726745444],[-9.34149513001889,52.563074100685014],[-9.34400303861869,52.56266399322229],[-9.344212663096098,52.56131981562187],[-9.345555140238059,52.56100081643644],[-9.349863263577438,52.562188896577105],[-9.35458925050032,52.56205529306877],[-9.356884392490436,52.56412078704838],[-9.356228735934108,52.56633139353066],[-9.353694683372142,52.567401285318155],[-9.360922910753956,52.57009984800353],[-9.36253717349851,52.57186531814073],[-9.365325108292598,52.57213244625676],[-9.367642690861992,52.57432895312126],[-9.36630571687998,52.574839589195896],[-9.36705811853012,52.57538645499846],[-9.364270853195334,52.579844813276544],[-9.360626991092099,52.5808119629965],[-9.359857752601792,52.58177593552268],[-9.36053295491978,52.582532861184845],[-9.353601911346093,52.58577492199996],[-9.344821861225222,52.589542686891214],[-9.338187313284191,52.58315331970756],[-9.32841511506896,52.580399476451404],[-9.294524623468622,52.579742804852906],[-9.269647119621062,52.58880182193288],[-9.228827308567919,52.60797330094746],[-9.193176571117775,52.61079314823629],[-9.164798854621655,52.611432007490855],[-9.149111046769308,52.614898729959606],[-9.12358770435458,52.63343375935935],[-9.103442412714365,52.63810641082407],[-9.073006182015078,52.649671503126775],[-9.064590029181256,52.65140290662548],[-9.052137369836249,52.65213767990366],[-9.01864391171886,52.649550355616945],[-8.973012738671306,52.66592673446371],[-8.951756415186663,52.669683448466046],[-8.910599713231692,52.67249944366107],[-8.864974478840402,52.67828481437706],[-8.846703564745084,52.678645719706196],[-8.832800933483073,52.680455358601805],[-8.822260219443013,52.67987733933404],[-8.810660426927479,52.677499789122805],[-8.805979285641625,52.67526037182973],[-8.80268757510159,52.67177836975451],[-8.789387474891683,52.66878341156544],[-8.776280455271753,52.669361725666214],[-8.761653315024693,52.675228414645346],[-8.748825725722828,52.67605682962819],[-8.717710803815626,52.673143098291376],[-8.706651365328943,52.67098467181028],[-8.70524363110395,52.67245003249591],[-8.705400806498298,52.674577018802246],[-8.703692068465982,52.675588821304494],[-8.701036996562825,52.6758784221756],[-8.697639410375228,52.67463044873757],[-8.692823265389535,52.67658912440724],[-8.689020418074028,52.67570083158175],[-8.688112792371966,52.679388684663635],[-8.679870050912768,52.68289684797711],[-8.677768602538109,52.68532750752514],[-8.677148218289863,52.68795150516256],[-8.671057574744312,52.68678763100553],[-8.653916645095167,52.689984787123485],[-8.641438773134109,52.688336748443554],[-8.640248851452881,52.68675986836118],[-8.636079881347642,52.687696155651416],[-8.637147095740543,52.685871633421854],[-8.6287774348861,52.684101584582294],[-8.627199065992638,52.68409651882009],[-8.62716682542526,52.68749352486766],[-8.626114681999159,52.6884639908165],[-8.61838470347587,52.68892921598395],[-8.613993292714175,52.68670445034821],[-8.608592853680712,52.67979596305916],[-8.604349130637294,52.67912282513807],[-8.597400288102405,52.67527374584139],[-8.595029310495494,52.673642993010496],[-8.594088247567589,52.67010963687152],[-8.590282370170153,52.66960565335853],[-8.587119937442171,52.671711717982475],[-8.58507367697024,52.67612673776079],[-8.582197086898164,52.67764983607098],[-8.57526107573193,52.67792164079595],[-8.566810268854365,52.67586248904227],[-8.563527794756313,52.67630346383897],[-8.55858859949861,52.67894636641589],[-8.551231621854024,52.67856057924049],[-8.543354799608592,52.68333370047493],[-8.542239004851185,52.68553348202687],[-8.542907323180911,52.68874360986369],[-8.540926024353695,52.693470411128835],[-8.542271892557675,52.69647664365977],[-8.532909975968161,52.70381054700458],[-8.526386676755408,52.70437985717945],[-8.520267554661705,52.70281418256219],[-8.512563168245201,52.70524224972482],[-8.51014820162572,52.71165988875833],[-8.506010159138661,52.7125850733763],[-8.505761087683718,52.715475241440295],[-8.502961183826793,52.71658039386419],[-8.501973509761221,52.71812063270599],[-8.50782668056218,52.7248327700988],[-8.507965544671329,52.72580269576112],[-8.50359929677124,52.73079185586577],[-8.507100783144697,52.735242195590885]]]}}]}