{"type":"FeatureCollection","features":[{"type":"Feature","properties":{"name":"County Longford","source":"Tailte \u00c9ireann Counties National Statutory Boundaries 2019 (CC BY 4.0)","simplify_tolerance_m":75},"geometry":{"type":"Polygon","coordinates":[[[-7.875847707928548,53.7773958526497],[-7.881201608035185,53.785632551258445],[-7.894090477678746,53.78628609385015],[-7.908896726632429,53.79368693849456],[-7.909987826977885,53.79516074396885],[-7.910852141782727,53.81023507030275],[-7.917673666585363,53.818590509614694],[-7.918770170899479,53.82148537493621],[-7.911753518601942,53.821350900433615],[-7.896952162735386,53.82401560648361],[-7.896876898085127,53.821766841434616],[-7.8914252821018875,53.82276240343589],[-7.888597594947352,53.82375814303748],[-7.8853683787826725,53.82864556538764],[-7.882790408449433,53.829114823239074],[-7.881772741906332,53.827853419797904],[-7.882552769548575,53.82124168367102],[-7.885205827517194,53.820234443767525],[-7.885163153905129,53.81740093160586],[-7.882451731520595,53.81523874547866],[-7.879076179377076,53.81830520032773],[-7.875548556935288,53.81532587705875],[-7.871884841151767,53.81751408339018],[-7.870518243656479,53.81393191136439],[-7.875640744745936,53.81090447020222],[-7.876444625286582,53.808446029689534],[-7.868409973471497,53.80596714077343],[-7.863780813247507,53.807992781744524],[-7.861119156890102,53.812446964135916],[-7.862690513088522,53.817516510367724],[-7.861873387107964,53.819400746625625],[-7.865291706050707,53.82531816599552],[-7.857057374756439,53.83146066548851],[-7.8547395401639095,53.83154613512906],[-7.853147028562566,53.83000157988696],[-7.846394893594455,53.81849099592539],[-7.843298029535479,53.817647183024945],[-7.842680509818681,53.81604445425441],[-7.83843344544584,53.81336854218943],[-7.8371079769205245,53.81083121191755],[-7.827915274873605,53.811704104461434],[-7.825365623597297,53.814178984671145],[-7.81901608167634,53.817218484050635],[-7.819298479805632,53.818478275625836],[-7.818192129387402,53.81928108689171],[-7.815227319588462,53.81994164547904],[-7.810919249086252,53.820377630047005],[-7.803114180939898,53.81516071704311],[-7.799233744635468,53.816295240440056],[-7.788284319578686,53.816362521503244],[-7.78766238686079,53.823123308459685],[-7.784884525091358,53.82431364423401],[-7.784186383152642,53.82597867858839],[-7.780250652699332,53.8289117801996],[-7.78214982567206,53.837252200605704],[-7.779209621144304,53.838578464869734],[-7.779195663885664,53.83996947626709],[-7.7765939534018385,53.841541253281434],[-7.776379691301576,53.84346936403393],[-7.771667664137816,53.846782353846805],[-7.771111178586296,53.849493397710894],[-7.776824762642641,53.86757861594197],[-7.766986672157133,53.86710552584441],[-7.759846140173092,53.86350659985924],[-7.755221630960629,53.86738022522444],[-7.754520450281559,53.869138445678416],[-7.758162837608333,53.87363506338686],[-7.750579369588963,53.87552736877784],[-7.749980463910889,53.87611008797286],[-7.751169475991272,53.87924696347549],[-7.7470997679026645,53.880224948880894],[-7.745557165591736,53.878681697004254],[-7.7377538611649666,53.87618173286494],[-7.7362413458864605,53.87776034148474],[-7.7305473650002865,53.87882624943627],[-7.728177770232018,53.88144154729082],[-7.726255479403066,53.88818275417287],[-7.713645443365298,53.890813470142064],[-7.710733240744124,53.893400166530405],[-7.712406362159924,53.897299718923364],[-7.711398962494774,53.900281216956735],[-7.70283953863322,53.90037537001681],[-7.6988369629044735,53.90468698633081],[-7.6932982115466135,53.90452492958896],[-7.690618270642822,53.90587101410404],[-7.692596841036905,53.91625094035665],[-7.69125312416807,53.91836131250611],[-7.688207746021846,53.919128846521104],[-7.686310821494216,53.91793320317017],[-7.678396614791506,53.917042603997466],[-7.667371874467296,53.92141217263706],[-7.668981733603142,53.925053367455895],[-7.66821621442773,53.92823912667577],[-7.66073190975381,53.929318126201565],[-7.66025281242682,53.93435855283846],[-7.657676802421098,53.937387790023294],[-7.653168539791983,53.93831207030681],[-7.650910602812193,53.941138571595964],[-7.6486179490488,53.94207850777826],[-7.6466352456801685,53.941473904463095],[-7.6441349006343104,53.937923957751806],[-7.634539986989458,53.93941459794987],[-7.619761113202445,53.93538578364936],[-7.611785214542949,53.93628885842308],[-7.610066723986282,53.938564529796764],[-7.607702390247714,53.93856640179714],[-7.606051548760613,53.93718611712427],[-7.603309046448514,53.93137158279751],[-7.5957659567284255,53.92831825721841],[-7.595914794763922,53.925007705946825],[-7.593384054000181,53.92102563519238],[-7.5874508000517285,53.9183118344866],[-7.583316937020279,53.91456390326815],[-7.582913068647293,53.912382921378786],[-7.585472714897695,53.908684271185194],[-7.580076357897877,53.90305282302358],[-7.576640600567594,53.90174053265727],[-7.575449384409297,53.9040413578405],[-7.576376046584988,53.906006030271406],[-7.574715964607461,53.90750675404749],[-7.561350464164002,53.905720166408926],[-7.557198586270615,53.90394283953314],[-7.556457276163925,53.89813834418209],[-7.551200790867501,53.89490195647599],[-7.549858961854791,53.89291893931941],[-7.5552621632315,53.8906670089763],[-7.556838254013294,53.88795854101261],[-7.5572827521058565,53.88297614145345],[-7.556015301992079,53.878597948352486],[-7.558556992655325,53.877706643943206],[-7.567716915475227,53.88023030743132],[-7.572069461089685,53.880064632799],[-7.571780190415082,53.873930644819026],[-7.576376649139931,53.865009745650724],[-7.580578316937652,53.86283129882566],[-7.582804762811098,53.8583065971671],[-7.585069702284889,53.85691132204849],[-7.58350989412327,53.85112126617127],[-7.578174319097595,53.85000367560522],[-7.570825058542715,53.854517338663904],[-7.562228287611405,53.85465997283398],[-7.554548877973666,53.85318027397298],[-7.543238318072837,53.853490368581056],[-7.5412369661664345,53.85767720782517],[-7.52796431821574,53.863664842343454],[-7.5230059754002045,53.8621659778768],[-7.51501414954611,53.85719246522716],[-7.514142489973389,53.85876222548176],[-7.515410044694525,53.859730442569806],[-7.514651691580178,53.86011019230574],[-7.505170106087609,53.860256788106724],[-7.500641021407719,53.85722837010171],[-7.49890064031824,53.858049082727895],[-7.4982786630552205,53.859789242761586],[-7.494460700524635,53.86034822459363],[-7.487495843821585,53.85227596825093],[-7.480920440990302,53.85401534214483],[-7.476755499778345,53.853624378266375],[-7.473450923229517,53.84795936082669],[-7.475873577227028,53.84564905233737],[-7.476375273873814,53.84302548533197],[-7.471472099056587,53.838496930053935],[-7.470201765318929,53.82938817272595],[-7.465833591943645,53.82337837931205],[-7.4663977900608245,53.81869489814097],[-7.472836178751852,53.81589856591237],[-7.475377274036415,53.812083640029385],[-7.469718204456316,53.81071737357847],[-7.468495131130615,53.80905239840491],[-7.468845559285258,53.80735985394529],[-7.466008935861845,53.80645598376746],[-7.462152097951519,53.80129806185537],[-7.456109815198883,53.802331365352686],[-7.4494978871804385,53.8011333943188],[-7.446825763298693,53.799621903937364],[-7.439948652608276,53.79824772854032],[-7.437585845625667,53.796053449470705],[-7.431490818325853,53.796017540169444],[-7.429983337404711,53.794830445698416],[-7.420735949600749,53.792339393600315],[-7.418672782788801,53.792709992768465],[-7.4169628794204625,53.791019654674166],[-7.411565528701084,53.7900145565263],[-7.410838951828985,53.78730454569658],[-7.412537404975037,53.785751805324146],[-7.409972726164199,53.77904919904236],[-7.4025588167059775,53.7732162800381],[-7.402671610697478,53.77163675818578],[-7.399156712198288,53.770197694080274],[-7.39554315984451,53.77265251609031],[-7.384703584029755,53.77124708484199],[-7.384866037875246,53.7670714061738],[-7.383221148681,53.76422201508319],[-7.377213493307585,53.76347704555733],[-7.380236354559353,53.75837444714143],[-7.375823346496568,53.7583990889854],[-7.374907090953047,53.755658618732824],[-7.379600662230788,53.75465130180361],[-7.381276460595525,53.7518384457719],[-7.383782738721523,53.75089728070215],[-7.383096693875708,53.747585678192586],[-7.3858989013690675,53.74550913940775],[-7.385327478091561,53.743496330294924],[-7.386396496177313,53.74180433336231],[-7.384270247603703,53.739122717264465],[-7.385010824805993,53.73717133820673],[-7.386602957702461,53.73642163081043],[-7.385753164746884,53.73514003726686],[-7.388794593537705,53.73496414770752],[-7.393768578524927,53.73230695279965],[-7.395292420314677,53.73372273598463],[-7.397707687863348,53.7326405058264],[-7.398841933254959,53.73415942678072],[-7.403847568595449,53.73390305536768],[-7.405925742254042,53.73238574422392],[-7.405237820604654,53.730492734077494],[-7.407119760716381,53.729107472797935],[-7.406437847302625,53.725903359508145],[-7.4163975160230455,53.72395862437762],[-7.422947702445426,53.730873644320994],[-7.429612839741503,53.73493093645626],[-7.437985034047874,53.73087522023094],[-7.445004205104792,53.73213825198459],[-7.447506799360123,53.72903449370382],[-7.45870126447715,53.729753482019674],[-7.458970298810224,53.72583248935888],[-7.46029785279431,53.72416816888177],[-7.4588993476610135,53.72276997379118],[-7.458740337790801,53.720408022376766],[-7.466384413180288,53.711894462399975],[-7.47342387903804,53.71478225750378],[-7.477002669366904,53.70985938215626],[-7.475518673097083,53.70939385630409],[-7.477030906971268,53.707744795570186],[-7.483235812198715,53.70952194539411],[-7.486111660534401,53.706200561382616],[-7.484484406681113,53.70476404444247],[-7.485538469437736,53.702186467888474],[-7.492690062459658,53.699451874165284],[-7.494866025695852,53.70149850497823],[-7.507768461313287,53.70663718705714],[-7.515872388623522,53.708508876472074],[-7.516995616664965,53.704972324630084],[-7.51379893206325,53.70339066032966],[-7.509490327628587,53.69888223474098],[-7.517625515122765,53.695488718496115],[-7.528267431011595,53.70005132658145],[-7.526401248582208,53.68987952372529],[-7.534950336455686,53.685068972467505],[-7.5307245350596865,53.68178396411192],[-7.5319183473582445,53.678940253059864],[-7.529404388673266,53.676853240857355],[-7.528602826793291,53.67438890584947],[-7.538461074052932,53.67673063536225],[-7.546295163085186,53.6756217703679],[-7.541941667994904,53.672034874411544],[-7.543718010398172,53.670266601798545],[-7.545323390572644,53.67080337938574],[-7.548606893841998,53.66935157255723],[-7.568326561286827,53.67130000257536],[-7.571207989433686,53.661613766972174],[-7.575321061973779,53.660097569655726],[-7.57380122579564,53.6562515703499],[-7.564692235279777,53.651872301767234],[-7.5654761300213815,53.651182816911756],[-7.564907536288915,53.64940923481284],[-7.569112845955913,53.64645537743608],[-7.592486191827225,53.65704976469507],[-7.611528006132818,53.65968450889437],[-7.614745413426189,53.65377883618558],[-7.615003128882215,53.64881637117784],[-7.60611154520152,53.64847399156376],[-7.595694773560124,53.64418376668221],[-7.57927011548008,53.64035982547701],[-7.570487628584042,53.635667158465246],[-7.564895690604265,53.629344072603864],[-7.569061467043863,53.627314156462276],[-7.568398676552624,53.62533768693166],[-7.5697710065993355,53.62230152298954],[-7.565234355114915,53.61775958381893],[-7.562298198104161,53.617114707753835],[-7.559853610840756,53.61360638896349],[-7.565845982619127,53.61120283721507],[-7.576871393372691,53.610821005190665],[-7.581768812552438,53.613929877374865],[-7.586295778060238,53.61344606387347],[-7.5887062136472645,53.61450196509658],[-7.598029127921084,53.61294583464341],[-7.605040404784816,53.609907140513634],[-7.608578611163166,53.60599082368237],[-7.6031611524792915,53.60244654196768],[-7.601160094160891,53.598746772072055],[-7.603420770966121,53.595774540969785],[-7.610242288579771,53.591854508401966],[-7.619422876736915,53.58922174762531],[-7.6218241930991795,53.591336947008664],[-7.627957624182431,53.5910020657147],[-7.631082935812533,53.58708472653981],[-7.630467576297808,53.57912057165259],[-7.638251306232277,53.57491431669221],[-7.649771192183038,53.56267752765358],[-7.660965749884622,53.55857395287429],[-7.656607915115446,53.55157584221789],[-7.656756307619553,53.54674494621612],[-7.657250488590201,53.540498791025925],[-7.662164090552593,53.533221992479476],[-7.674475127821867,53.52919170176538],[-7.679025633328012,53.53073157835397],[-7.682797627141686,53.534779100293996],[-7.684332037228751,53.53374899108744],[-7.690508058718243,53.53452494031619],[-7.705397823638437,53.53850600863065],[-7.709957895346109,53.53658955008657],[-7.711828952011416,53.5371742259248],[-7.719975691725196,53.535270243176676],[-7.723079746772014,53.5310382323274],[-7.721359347953473,53.52819738365962],[-7.7221756936200245,53.52764645836047],[-7.735616234054551,53.529477690242075],[-7.741044515366863,53.52702778504837],[-7.745882130599313,53.52690511577472],[-7.748906569374271,53.529419102197465],[-7.7485845968315745,53.530188457843344],[-7.7598542391739755,53.53530760057615],[-7.768613258233984,53.53676791101239],[-7.773818982550249,53.53542318493903],[-7.7795804984091035,53.53593041114437],[-7.7853749823046225,53.538632005007045],[-7.796001937713048,53.53651267057321],[-7.809130129613337,53.539516231992835],[-7.820571568691392,53.54487444646213],[-7.822837904829839,53.542421560517376],[-7.83221092182831,53.5424260371696],[-7.833033475199961,53.53979009393967],[-7.836613337936365,53.5389601250256],[-7.841184079495585,53.5417211825432],[-7.841398467168441,53.543351814219456],[-7.8444363859374135,53.543243830771345],[-7.8577597228779705,53.54916070872584],[-7.893900242301826,53.54297835799879],[-7.914724242263363,53.54459986930516],[-7.92172867123896,53.54253370739916],[-7.939140388375514,53.52777070306488],[-7.9478719203849595,53.52515190222236],[-7.9697926407364745,53.52173027498672],[-7.980712732426466,53.55190470602385],[-8.015056617364076,53.580915699880826],[-8.035979353762437,53.60768622836347],[-8.035949044687683,53.63092338574655],[-8.034654287324894,53.643386128927986],[-8.026757078480212,53.6531705918831],[-8.021486179871108,53.65774656116324],[-8.014788471510542,53.66239652785751],[-8.00379469415263,53.66220948319916],[-7.999479911087014,53.669028752121555],[-7.984092591914697,53.680364284891034],[-7.98247146437625,53.69032010659474],[-7.987659799535819,53.69764481386397],[-7.987158148609492,53.69988845693246],[-7.984480799732308,53.70107243852994],[-7.9768830677177816,53.70174649568575],[-7.972648621787696,53.70641264732872],[-7.965214109349672,53.711249399210054],[-7.954355801950668,53.71038500374958],[-7.950742644463924,53.712046906061005],[-7.949036447549928,53.71413511982972],[-7.9441400897140175,53.728244183906774],[-7.947543140845885,53.7353641110492],[-7.947026804598096,53.7375266258645],[-7.943474198682554,53.73877675461011],[-7.939068896131256,53.738381569686545],[-7.930107939084527,53.73320467226672],[-7.920768430756993,53.73392797777524],[-7.917003531190248,53.73587505247835],[-7.918121524116554,53.738103624667815],[-7.916871630512315,53.74422910651451],[-7.917622374663007,53.74693426622056],[-7.908700026045938,53.74919736993314],[-7.906272025258753,53.752423615302796],[-7.902123123093844,53.75363586943065],[-7.8988191159353445,53.756132947751254],[-7.889604172935112,53.75762810886201],[-7.886602536217784,53.75908334472455],[-7.8867656227995075,53.76258854429085],[-7.881942646774305,53.76736152087777],[-7.883451363883418,53.77150122063494],[-7.880450158128991,53.77619318685101],[-7.875847707928548,53.7773958526497]]]}}]}