{"type":"FeatureCollection","features":[{"type":"Feature","properties":{"name":"County Louth","source":"Tailte \u00c9ireann Counties National Statutory Boundaries 2019 (CC BY 4.0)","simplify_tolerance_m":75},"geometry":{"type":"Polygon","coordinates":[[[-6.391940509139358,54.01105460031877],[-6.390695247704634,54.00924849128167],[-6.385503316240651,54.00767202363915],[-6.36281943398994,54.00702734159787],[-6.3487890855413385,54.0083206670498],[-6.3463639033007455,54.007119263509004],[-6.345996170765882,54.00521620261259],[-6.3415847126470135,54.0043292885208],[-6.34267745652846,54.00311997893316],[-6.339605574326662,53.99822652791954],[-6.340876535415146,53.994961118731666],[-6.344857264841303,53.991441158525966],[-6.346793138077292,53.99100954631133],[-6.3481783643753955,53.98839173456716],[-6.35159006443971,53.986638873942034],[-6.358456195333298,53.986275690000646],[-6.36010646051538,53.98482973272583],[-6.360237333667767,53.98282094344539],[-6.361963178839614,53.98359585041172],[-6.3655768635422065,53.98059086061938],[-6.3649815533143626,53.97817157686981],[-6.359976422067882,53.973337208463555],[-6.362125237392292,53.970530442197486],[-6.360856818065521,53.969843027170725],[-6.3610192069020535,53.968229979305924],[-6.366818840306629,53.96123027273008],[-6.365661957483126,53.958274401015544],[-6.367561030796294,53.95693915194882],[-6.376233362435687,53.957065173919794],[-6.377843595203835,53.95533086693383],[-6.376928371514219,53.95456851070563],[-6.37865872961967,53.95438643471517],[-6.377867194361468,53.9539050475918],[-6.379420129753909,53.95156013429143],[-6.379400251748277,53.94400649672742],[-6.376599323443898,53.942801815877885],[-6.3730020419976725,53.94379635419152],[-6.371943115685298,53.939702516969184],[-6.373944371544346,53.93489733370885],[-6.371698558996285,53.930493682885064],[-6.375978726111826,53.92294765021547],[-6.376047260055632,53.92022795665228],[-6.373719063006191,53.9171657463953],[-6.369467220470314,53.90433283056472],[-6.3634988452304215,53.89722133678005],[-6.351739523423568,53.886692728560234],[-6.344937124963318,53.885069046455044],[-6.33075268366536,53.875755419697064],[-6.317114808957504,53.87566788450347],[-6.311726961256211,53.877741369826936],[-6.304047786597268,53.87869667890788],[-6.29697373266232,53.876468263470386],[-6.289751815606837,53.871480008232986],[-6.279062949198986,53.86938546943229],[-6.271306618849395,53.86938218665926],[-6.268216204668609,53.870967091333284],[-6.256787363177984,53.86392295194896],[-6.250320631573,53.86335576403607],[-6.246613129245293,53.86450353021545],[-6.240377354910323,53.862560849995354],[-6.237816710897772,53.860489016355984],[-6.24536852995301,53.85597644154],[-6.250153239286013,53.85063026179363],[-6.252774837520211,53.845500803766434],[-6.252271250120955,53.8439331492754],[-6.253957682188136,53.83847843171757],[-6.259628005648193,53.82966267208453],[-6.261350917563518,53.82265231695978],[-6.260210371940897,53.80674787826059],[-6.257411293332411,53.804991881240106],[-6.255187633357742,53.80524158986688],[-6.253356566383007,53.803661236057145],[-6.249318871855001,53.80405439553974],[-6.250005718588615,53.80331251861095],[-6.2492917756160296,53.8023081955055],[-6.246569915977196,53.801742131988],[-6.244629620653707,53.799619821887134],[-6.237953008951289,53.80084393405757],[-6.237631167816711,53.799385453920664],[-6.2313601013816164,53.80022626978038],[-6.231551229398173,53.79877713496281],[-6.22779209745509,53.797701903482206],[-6.22228603293798,53.79788919894984],[-6.223307377520196,53.79745559897691],[-6.221478900060584,53.79777051054478],[-6.2217145365350355,53.799096487668926],[-6.2213259019467415,53.79807295479824],[-6.216318089138665,53.79588653584086],[-6.217890228423774,53.79380551356535],[-6.22098206826336,53.79264321714793],[-6.222597513257954,53.78987886881848],[-6.227637941109783,53.78858495699512],[-6.232069564563253,53.78936048949278],[-6.235629139436034,53.78726714461559],[-6.237691014870105,53.78427781092871],[-6.237483762113215,53.78199509059028],[-6.239570804260964,53.77597187038512],[-6.243055182278617,53.77034421692058],[-6.247068259780325,53.759993594336144],[-6.248548903236346,53.759027993980865],[-6.247741724828222,53.75777221686527],[-6.249875068301791,53.74829605051402],[-6.251540608541381,53.73114960764164],[-6.248956720936673,53.72392276513309],[-6.246549944068363,53.72339575066571],[-6.2471000233220835,53.72245334248518],[-6.250733117610933,53.72394922917606],[-6.257460138313931,53.730635883608755],[-6.269735281696774,53.73221884430842],[-6.2949741316737295,53.72115343007565],[-6.310757636382979,53.7203562010183],[-6.310450309468708,53.71820580632069],[-6.323152907946584,53.71632097049996],[-6.319644560615175,53.71060107504111],[-6.313199333721017,53.70959930217509],[-6.312286463890076,53.708011511272964],[-6.319418021771552,53.70285052384289],[-6.326908101093965,53.703332430559215],[-6.329643670208388,53.70249206297689],[-6.330315930471343,53.70313586594974],[-6.328994056459321,53.70349887997625],[-6.329871157720134,53.70494308687707],[-6.328745237607666,53.705029606159805],[-6.3309676833296065,53.70719871790802],[-6.3482239031709184,53.70525992291588],[-6.355294366895307,53.705555311711926],[-6.36546441299465,53.702916012824176],[-6.3644629883075705,53.70039069173408],[-6.374076431697639,53.698491176876075],[-6.378197356964128,53.70470303065023],[-6.378945690018596,53.70757921577003],[-6.380410685046779,53.70745135135418],[-6.381081374246618,53.71451450337794],[-6.388932746764208,53.71460955059573],[-6.391800061337812,53.7188758620895],[-6.403485016825051,53.72045336913987],[-6.41816118937004,53.725691042489615],[-6.426675519538886,53.725025398328995],[-6.427856991014337,53.720684127737414],[-6.433175468292922,53.719166203416584],[-6.437137203759661,53.71928346133473],[-6.437317825509833,53.71836702145158],[-6.435190933331766,53.716906510669574],[-6.436103805972889,53.71560088322014],[-6.440318651375659,53.715168385417215],[-6.442609738476612,53.71621835698359],[-6.448615633297183,53.71436381563297],[-6.4543245170718855,53.71506311378071],[-6.455644143474629,53.71438066617527],[-6.455417563505311,53.71310189218297],[-6.457335977989427,53.712701798750686],[-6.463790717089302,53.713362867723255],[-6.469818793662265,53.72127476381055],[-6.473263336724385,53.7215242133966],[-6.475742058058225,53.723121212168074],[-6.4794309312059655,53.722509093756784],[-6.477846980213,53.72459899228126],[-6.479242780539329,53.7260218641893],[-6.482721844914539,53.72571493888384],[-6.483977600863154,53.72988447375165],[-6.480133107654893,53.73080098493472],[-6.477723493523887,53.73346558515664],[-6.478866787829901,53.73430301707111],[-6.475631594058624,53.733896281373674],[-6.4736082159600405,53.735756119915386],[-6.4744875774522,53.73809038043963],[-6.473603820297096,53.73744100142057],[-6.472113536747276,53.738683455388674],[-6.469709012116139,53.738788983022616],[-6.466527387343763,53.74100526136701],[-6.46688878478025,53.7427085020294],[-6.459043227447404,53.74867665957188],[-6.459732574973817,53.74919878582977],[-6.458297114553594,53.750440993231365],[-6.458902718283296,53.751129623673606],[-6.451089913343313,53.75403539518592],[-6.447630907210485,53.75699181401569],[-6.447194377261182,53.75813042155594],[-6.450758684883905,53.75953542615789],[-6.450898867500014,53.76160803486223],[-6.449677300330655,53.7628669430729],[-6.45222125920165,53.76319432555989],[-6.455298686009941,53.766559093253925],[-6.469076087317955,53.77001467276803],[-6.478578527432089,53.769859534477355],[-6.485437881848521,53.76848554349914],[-6.503695170673775,53.76822181054231],[-6.515782178330878,53.766584871378235],[-6.519316495395306,53.767768607840466],[-6.520622992462308,53.769632505504575],[-6.528549973473606,53.769106624946566],[-6.529358272721379,53.77202770630637],[-6.527661812998847,53.774195114658156],[-6.5372098443059174,53.7801789914015],[-6.540402577451775,53.77808658496365],[-6.543385952573741,53.778820588565786],[-6.547820538745508,53.778022667717025],[-6.549325836479622,53.78446688382495],[-6.5517295798067465,53.78747224773958],[-6.552932549382306,53.794330751292314],[-6.554267376303844,53.79487050534216],[-6.552652138848355,53.79628201885835],[-6.553068035693466,53.79797245383333],[-6.560874709668993,53.796819217509515],[-6.571473694722371,53.79716977191771],[-6.575524258201223,53.79892437293923],[-6.575101947211479,53.79962420308874],[-6.577102638330515,53.802017025459165],[-6.579903301787371,53.80311689143965],[-6.579709414122534,53.804307511719536],[-6.577081724474638,53.80548646098347],[-6.580107857493177,53.80641396334018],[-6.580016648199731,53.807577130495645],[-6.577455383242113,53.80841635504496],[-6.580484990553329,53.810808148935266],[-6.580033308121315,53.81363390418581],[-6.5787793432296375,53.81401854339763],[-6.583574618584239,53.81650892952087],[-6.580105905678205,53.81752386524874],[-6.579767991627914,53.819012028789565],[-6.578625343651832,53.819325747162004],[-6.579543312008424,53.82262804650068],[-6.5824970085327115,53.82462378187975],[-6.582192837101497,53.827797489738145],[-6.583594599727934,53.82921781531848],[-6.593558754353531,53.829760432656485],[-6.592063614202097,53.83217908407428],[-6.594970622911385,53.83390771421282],[-6.598761594826601,53.83841487509762],[-6.5985774637496935,53.839747104474085],[-6.593482162213478,53.8424673416676],[-6.591638928918646,53.84502817637858],[-6.594968733444199,53.84565068102243],[-6.594534085962557,53.84827226253682],[-6.593162522271321,53.84959540178392],[-6.593540602237521,53.85149909013505],[-6.597537893408657,53.858025301262956],[-6.60004168008959,53.858412679162306],[-6.603469048063259,53.86158045763531],[-6.602053201674249,53.863377431997726],[-6.620779319067008,53.87496194057269],[-6.6216780488243145,53.87727049881214],[-6.6262177382700775,53.879772586028025],[-6.632084101675729,53.8803443030462],[-6.6368890909806035,53.8794655013506],[-6.64363849154159,53.88084137087863],[-6.643777232018026,53.88336639265843],[-6.652452569270225,53.88558392733853],[-6.65596950479183,53.885417659131924],[-6.657039735596072,53.88433513694989],[-6.664885366236489,53.891574057359485],[-6.678841993625741,53.89299256370833],[-6.684282735351773,53.89988543846682],[-6.690991076878022,53.90193079159274],[-6.69522833801278,53.90175103470868],[-6.693982380960835,53.90595748890708],[-6.694698614603922,53.90791853920156],[-6.689217318489143,53.909152830569504],[-6.686373568741943,53.91195075775292],[-6.682337955363918,53.91245333890591],[-6.674000626790282,53.90884190491685],[-6.665395682880837,53.913392701295976],[-6.659327765234418,53.91333706224169],[-6.647510698710769,53.91600466734774],[-6.646709479491928,53.91733647489671],[-6.647309304370776,53.92185275123318],[-6.6447890893248385,53.92381293015067],[-6.630583420988332,53.9266028030394],[-6.628638351695022,53.928326604799395],[-6.633434616837109,53.932918405834414],[-6.644743969250091,53.9344557851484],[-6.660287144794011,53.94163746325059],[-6.659145252808806,53.94384413186988],[-6.651819960245543,53.9430165161395],[-6.647992838967296,53.94586530213448],[-6.650492580254619,53.94840265843008],[-6.653392270485911,53.94827306215043],[-6.653364836498435,53.9502527482831],[-6.660022104327741,53.95354748838558],[-6.662152835175215,53.95759134733144],[-6.659931996648251,53.9582487695606],[-6.656626091370717,53.956969525095985],[-6.655618637057028,53.95540913409088],[-6.6472285770798,53.95286447430287],[-6.649003056855064,53.95521414046976],[-6.6479702554441085,53.95708529450213],[-6.661297372555279,53.96250306188605],[-6.657699073858428,53.96537809642077],[-6.656027302959592,53.96610027401247],[-6.652860175056068,53.96381706220762],[-6.649937853626381,53.96351611060539],[-6.6376146343861055,53.96461980097375],[-6.635549270886178,53.96862360401925],[-6.643028890139539,53.97138215582069],[-6.640481137276522,53.974939169032],[-6.6333822353223395,53.9769676752926],[-6.626474368823611,53.975525623555534],[-6.624831510077549,53.98106279370085],[-6.62764182203689,53.982131582253686],[-6.619608184599186,53.98394173680759],[-6.60820670800432,53.98085281349375],[-6.5931439724350085,53.97459663694995],[-6.594369733655215,53.972559591008626],[-6.591004209212972,53.97052600380633],[-6.576185269103889,53.97049891716414],[-6.57247113713735,53.96899533555615],[-6.569108590145368,53.97079380949748],[-6.56565882325357,53.970887431566055],[-6.566802939289598,53.974085340215346],[-6.562328826774553,53.978732105955984],[-6.568251776343802,53.980110000148294],[-6.567887449870245,53.98177164632212],[-6.558555046180042,53.98774804501708],[-6.55734094834149,53.987885541535654],[-6.554793908158729,53.98569697116255],[-6.552849203884318,53.98648231046804],[-6.554355310916447,53.98783928059993],[-6.554319255291193,53.990015018488045],[-6.555923201904097,53.9910696229357],[-6.5545552151993345,53.99435669067228],[-6.562954661041548,53.9990201199676],[-6.551064503242775,54.00274246558286],[-6.549729477571618,54.00585320217815],[-6.551529896710703,54.007640409089625],[-6.555702904863919,54.0081443880512],[-6.558207054664915,54.00971058510046],[-6.5583199887893695,54.01544890560179],[-6.569348430198823,54.017338151204584],[-6.563631173471329,54.02028834436448],[-6.566875418276849,54.02043415144358],[-6.571611702662469,54.022506156207214],[-6.571228006510728,54.02679218438361],[-6.579236900489468,54.030189218562285],[-6.57283428458229,54.03302603744393],[-6.573499852237902,54.034053563921105],[-6.579450963727863,54.036252543291226],[-6.583789734733697,54.03962173640113],[-6.588219336809749,54.03892792974164],[-6.586078790000448,54.04064423434617],[-6.594958386433215,54.04453567362563],[-6.59296634663438,54.046308096301956],[-6.594199063131251,54.048724867404815],[-6.5936254574807895,54.049996572970116],[-6.595674700681034,54.05199309316759],[-6.590934529348892,54.05612325516489],[-6.586448592091198,54.057564731594596],[-6.582038718131617,54.054847845574045],[-6.579474215876297,54.05578468582079],[-6.575090437334643,54.053037527646595],[-6.569033765692737,54.05354647664346],[-6.569450782207303,54.05091116384657],[-6.561693850669787,54.05071004982126],[-6.558011692581974,54.049292139560364],[-6.552269064741692,54.051814506152745],[-6.549263533754787,54.05040624138703],[-6.547079598523189,54.052026158690644],[-6.545409372720027,54.05148806042455],[-6.543184581253909,54.05365592958889],[-6.531930193369584,54.059655464879775],[-6.5283463418114325,54.059139804107005],[-6.515743561372653,54.052515145164755],[-6.510518850745079,54.052682395380316],[-6.508434458596037,54.05347240889983],[-6.509839788984851,54.057463326674814],[-6.503511637333304,54.05991853170735],[-6.496552152717516,54.059245871813275],[-6.491858165484881,54.06252685093282],[-6.484859211535481,54.065316442451305],[-6.484338195186731,54.06675468825333],[-6.471316468346709,54.06631765586101],[-6.475310881205286,54.068752276873944],[-6.478603878867203,54.06937640275785],[-6.4786065607927465,54.070503599447214],[-6.48154039734847,54.07199792138228],[-6.481515992321773,54.07472551460973],[-6.480004748428397,54.07662584756422],[-6.477764555173484,54.07713324930682],[-6.471355683119549,54.07369314088674],[-6.466597276565489,54.07392787116514],[-6.462080952644082,54.070574314985286],[-6.456124751422026,54.07254242644324],[-6.453902551253047,54.069884276410626],[-6.450034674615223,54.0679838307278],[-6.45067840672369,54.06638836585168],[-6.448861632675132,54.06508281974769],[-6.449935747906075,54.06434641770215],[-6.448452111078283,54.064116122470324],[-6.4484305604689025,54.060893854322444],[-6.445676256390696,54.058393170187294],[-6.443362756056503,54.05796084102336],[-6.443515101363379,54.05646513093906],[-6.439684316410219,54.05797319436269],[-6.43737690877172,54.05746461069568],[-6.4334814724514295,54.06101688396534],[-6.429694535692264,54.058354448266876],[-6.427244063981037,54.060985118718584],[-6.422926932375125,54.061104564766566],[-6.421423433786681,54.0594597456118],[-6.4181530050797955,54.06236713945339],[-6.414702741873926,54.06172018719603],[-6.411955394351277,54.063039014969576],[-6.395192647827996,54.06152036902129],[-6.391169637163855,54.05885998914246],[-6.387255170282034,54.06161432680816],[-6.382749441430855,54.06848242818324],[-6.367332787841852,54.07021567254373],[-6.3635523719861045,54.072608490890495],[-6.362292945069848,54.07930681498713],[-6.363652493911525,54.09013962373754],[-6.366122443053626,54.093890947960084],[-6.362121245677548,54.09632479135131],[-6.362166063166578,54.09739020088631],[-6.364257523867572,54.09841983485736],[-6.366611470274143,54.1020804043175],[-6.36562832095351,54.10399150451941],[-6.366972570818816,54.10496766356611],[-6.368385202166714,54.110950768699716],[-6.365829964266482,54.11374539829572],[-6.363074494393981,54.11382953954528],[-6.3548147342195085,54.11048419098833],[-6.349094099047585,54.113947429523755],[-6.345890668287891,54.113675259264156],[-6.344732908938609,54.111652141687884],[-6.339936214378296,54.11190943080354],[-6.338338058905083,54.108349172632416],[-6.3360312442483,54.10827856015109],[-6.334505112000732,54.10500784042998],[-6.336196309274008,54.10204031329682],[-6.336373333997374,54.094712276427614],[-6.317902336244797,54.09095510384407],[-6.316989958212767,54.09354472011899],[-6.313287655291263,54.096066730887074],[-6.310487599530482,54.10018965813097],[-6.309014313303286,54.10337617138569],[-6.309040095028124,54.10672146010975],[-6.296085832460154,54.10922709278797],[-6.2908980496307,54.11266360449949],[-6.281282912110861,54.11122344122445],[-6.268003725982168,54.10214471182516],[-6.269403353783422,54.10130004498229],[-6.268408979322448,54.09954345063319],[-6.263566480437336,54.095492173352476],[-6.260415514750251,54.09061060886746],[-6.25294702263492,54.08718242287361],[-6.248626346214741,54.08022577178143],[-6.246422191334174,54.07875740675583],[-6.247213477095565,54.07838593589641],[-6.2437760874473405,54.07618258498338],[-6.236657507006651,54.07432476914939],[-6.234769036208423,54.0725608297413],[-6.23370663332604,54.07319386216449],[-6.233450422275899,54.07187041588284],[-6.228032599588185,54.069358113638565],[-6.213355144130504,54.06604926976636],[-6.202080715856219,54.06100020426537],[-6.196523490243953,54.057316173552785],[-6.1923044303147385,54.05254928463704],[-6.189318109729156,54.04640131561702],[-6.186355520605394,54.043336130445255],[-6.184661143507051,54.043271684373316],[-6.186666900719183,54.04252025172521],[-6.185011690456304,54.040896115932554],[-6.183074588605526,54.04027792926967],[-6.180388564330953,54.04207913328649],[-6.1821375923103306,54.043123203310444],[-6.177884285943723,54.042402155237895],[-6.175794625617853,54.04050656250948],[-6.173553295165289,54.04018927149191],[-6.174266173407863,54.03949409369153],[-6.17279592125767,54.03741521173523],[-6.164740832024504,54.03517467087778],[-6.1572459135104705,54.03014040684869],[-6.155071768254615,54.03009896078016],[-6.155093625437458,54.0289647977272],[-6.148564820114838,54.02730903128631],[-6.141615591379685,54.02831183344847],[-6.132780202869281,54.034867582164836],[-6.131431113399672,54.03461509637421],[-6.128960749956198,54.03050194072471],[-6.129759831627118,54.02653040581497],[-6.129146656023754,54.02178988632017],[-6.126326814865705,54.01712102141939],[-6.11505612788835,54.00979696736378],[-6.1105529295464045,54.00878507936639],[-6.109812711087851,54.00533480918486],[-6.10465678007457,54.002908864908484],[-6.103009756163676,54.000146689795606],[-6.11007838447063,53.99598585041844],[-6.132529515478568,53.98715973300345],[-6.14119911247215,53.98092970321919],[-6.140187585813148,53.97933955934792],[-6.1417671434717604,53.98118371224604],[-6.148024250505284,53.98169969036795],[-6.164989100244146,53.97699368896762],[-6.170793054364877,53.97763106930326],[-6.172091132448039,53.97933773997531],[-6.175465310303175,53.98009768460643],[-6.186937542685314,53.978534473749036],[-6.191704999165836,53.97987577147748],[-6.200225087935631,53.97995605769525],[-6.20511183118427,53.98218439637171],[-6.211908714078479,53.9829240869346],[-6.215503929714789,53.98461320211755],[-6.223694934540736,53.98497902408671],[-6.228813374088124,53.986789770361135],[-6.239932231737639,53.98433767709783],[-6.238637071235045,53.985237861382906],[-6.239921058774669,53.98712317076644],[-6.250941726269503,53.98801412768827],[-6.255059107830747,53.99216700572025],[-6.269534829401158,53.99481710155752],[-6.278600360104203,53.99977933755038],[-6.286215135044938,54.00191368573626],[-6.294930403588401,54.00826031976181],[-6.303065836718952,54.00988481697241],[-6.307328290155823,54.01195151670628],[-6.316071724374372,54.01253590408685],[-6.320931019659728,54.01411680371417],[-6.340660793458008,54.01278905192276],[-6.346094802407747,54.010937254319536],[-6.352378454417301,54.011408195061314],[-6.352119506995076,54.013258955975076],[-6.348257464675984,54.01404081661968],[-6.351625510293553,54.01747535701837],[-6.358961420885166,54.01953660166891],[-6.360352464609365,54.02151521890237],[-6.35968968377465,54.0226540647954],[-6.36555877108312,54.029807503637905],[-6.365328345606639,54.03122574957854],[-6.36706025857404,54.03099912390649],[-6.367499120100725,54.02955771517268],[-6.371132792991089,54.02947907390967],[-6.3642833829261285,54.02444973031221],[-6.363946336246426,54.02297707517079],[-6.366489664079524,54.022231004720965],[-6.365904477321755,54.020119086731235],[-6.360044468347347,54.016509482061245],[-6.359621615832994,54.01415787515272],[-6.360687780625281,54.01395629133296],[-6.355992791375077,54.013435865663546],[-6.365384466004961,54.01394363286959],[-6.366584097713377,54.0125335082762],[-6.38893050763274,54.01336321876819],[-6.391183240543667,54.01205159547587],[-6.398233510094186,54.01273479218785],[-6.39954190107836,54.01128425787368],[-6.391940509139358,54.01105460031877]]]}}]}