{"type":"FeatureCollection","features":[{"type":"Feature","properties":{"name":"County Roscommon","source":"Tailte \u00c9ireann Counties National Statutory Boundaries 2019 (CC BY 4.0)","simplify_tolerance_m":75},"geometry":{"type":"Polygon","coordinates":[[[-8.48820162551033,53.92148011244538],[-8.477341326946274,53.920917149385616],[-8.469080783772512,53.91300969154877],[-8.450900112481758,53.91350847491403],[-8.447703580810877,53.91511858579324],[-8.45032093424469,53.919640487454096],[-8.448197730113588,53.92557677531941],[-8.444216121390067,53.9268701416171],[-8.438685812797548,53.926322877326506],[-8.43806811398124,53.92769422267018],[-8.4342989455385,53.92861750454187],[-8.431282775784684,53.926853298350814],[-8.405034026959028,53.92677039029607],[-8.391329688009936,53.925283538085665],[-8.387386280864218,53.92566115817054],[-8.384437740166376,53.92727179560726],[-8.377402347682267,53.92665949132909],[-8.376782035230462,53.925492399864474],[-8.37396157235264,53.92509281408601],[-8.364739555669843,53.92741709721007],[-8.336267680390925,53.92623835723603],[-8.332948050071195,53.92765490898781],[-8.333666960501073,53.93050137063621],[-8.335897388778415,53.93126450703747],[-8.335200768582071,53.93286798982334],[-8.338062552323738,53.932901269538846],[-8.338354826103645,53.93552224516632],[-8.336831274986105,53.935566065859014],[-8.341894953236554,53.939633705774824],[-8.342638283012787,53.941555408325975],[-8.349617078172098,53.9423015878359],[-8.346838937429421,53.95093182056663],[-8.35705502752124,53.950441347842215],[-8.360290729741147,53.951219208758026],[-8.360864522398385,53.94799315889066],[-8.376310235690891,53.94923809362092],[-8.377285090624326,53.9494485182927],[-8.37745665181214,53.951862348666886],[-8.406134107475026,53.9566582513305],[-8.406969591560161,53.95772861302797],[-8.404445798759737,53.96046132511993],[-8.422256978987948,53.961949078854076],[-8.425417196577216,53.9646513563494],[-8.416959018605446,53.96522881317438],[-8.410265865994184,53.967182956959846],[-8.398681202876983,53.96443310181811],[-8.392812188643965,53.96485778379195],[-8.389056667677544,53.96899231817814],[-8.387059900258421,53.96891773033851],[-8.382264728038628,53.971441687812046],[-8.382197057084761,53.97246478436005],[-8.387036469865123,53.97318073217936],[-8.387100835642663,53.978431247184965],[-8.390477667895771,53.97888508945202],[-8.388490166247315,53.9815468764917],[-8.38570712183625,53.981797978091194],[-8.384658811823261,53.985590951943536],[-8.387910892721491,53.98836801778145],[-8.387692380282934,53.989856340344204],[-8.39280663177487,53.99335413948633],[-8.400876869916862,53.99665510615726],[-8.398246879225272,53.999507318355064],[-8.397882340385328,54.001641416839966],[-8.394649580182126,54.00146453565877],[-8.39448699279367,54.00029912633478],[-8.391761264600243,53.99925950856035],[-8.382650045539709,53.998604079130125],[-8.375805940973676,53.99957161847514],[-8.376838389577234,54.001638104355266],[-8.375052622733023,54.00436546604143],[-8.366208256767127,54.00459078540785],[-8.345607742942901,53.99925309373324],[-8.315199877211516,54.004607669160116],[-8.317625300734155,54.00765307442853],[-8.317236724077935,54.009446621588275],[-8.310872501579396,54.01064959207502],[-8.305972138568412,54.01661204539652],[-8.309043703439226,54.016764202298816],[-8.312221309665585,54.01864270142577],[-8.3118601495383,54.02041475177583],[-8.309741208522663,54.0216213538657],[-8.309904565935433,54.023591667750324],[-8.305352316750689,54.02570968214153],[-8.304252968400009,54.027512271516215],[-8.30463409241675,54.029158707243624],[-8.307177452987883,54.03016421505313],[-8.307092311076978,54.0315227461668],[-8.302766823166893,54.03762693651313],[-8.294513462487146,54.0447696318155],[-8.289193608151065,54.04290014610564],[-8.28665107597488,54.03957750060047],[-8.286626297577351,54.03768669822521],[-8.281561325043324,54.038494492031475],[-8.279272831304853,54.042902223890884],[-8.277024868625762,54.04194195892874],[-8.274993714996562,54.04265639033113],[-8.276838855332503,54.04494833480032],[-8.276455977342865,54.046671822111655],[-8.273861638213004,54.04774418612117],[-8.273791285884727,54.04877723941383],[-8.265475383939469,54.04976881186392],[-8.264786488177618,54.05199605519847],[-8.262725933754599,54.05327833126914],[-8.254969245261146,54.05032735297143],[-8.250874875861442,54.04429262474168],[-8.246860224102383,54.04147583671943],[-8.238374791480533,54.03964017851337],[-8.23592671267439,54.042091354807845],[-8.232933837077375,54.04296706861798],[-8.235963570512128,54.04438550809825],[-8.236895699102622,54.0467289852603],[-8.239312699432523,54.048701447028854],[-8.23683131439471,54.05198281098987],[-8.238527481125626,54.05354930226057],[-8.237751441917313,54.054841921243856],[-8.239174978877486,54.05829250708509],[-8.236059155997113,54.059734631751894],[-8.22801121868546,54.05919167490478],[-8.228182034005435,54.06004837854552],[-8.226359489542233,54.05962439100704],[-8.21853071751872,54.06155244490406],[-8.216934968271397,54.066717100561945],[-8.214918512553563,54.06836777367819],[-8.219802381970306,54.076962452513285],[-8.215971990036579,54.07836754145009],[-8.216223483039528,54.0796755359785],[-8.218677170967123,54.081564660287206],[-8.21977299747596,54.08395122462208],[-8.212127542754752,54.08418750726779],[-8.209722111612901,54.085654886696545],[-8.204453444055934,54.0848945336966],[-8.202166617603055,54.086278387255426],[-8.194477321369211,54.08754071929111],[-8.184767461783544,54.0860735125245],[-8.179693858877673,54.08642573071706],[-8.176984702497972,54.08839522370096],[-8.166537842730133,54.10135378876967],[-8.153008541433136,54.10160911884927],[-8.155871685454684,54.103959525386486],[-8.162250476308353,54.10637492273542],[-8.163511975745696,54.10898211357669],[-8.1620109819579,54.10973617280802],[-8.162552485403584,54.111423629014155],[-8.161404209982503,54.11239922413678],[-8.153887675244986,54.11575327894782],[-8.148064111727818,54.12523957090416],[-8.1406718260598,54.12383401441299],[-8.134740603855606,54.1198158328894],[-8.125584739111206,54.12006253512106],[-8.122423472557099,54.117554674067954],[-8.111046703644279,54.1142896838782],[-8.108525825918464,54.1108489305652],[-8.105526421539667,54.10892821856883],[-8.095862272024954,54.10900514376815],[-8.092243950087806,54.10763926616531],[-8.088636765279231,54.10803554491976],[-8.085546233705504,54.109696403281994],[-8.084233115955783,54.10944229506733],[-8.083134493190702,54.105773086340186],[-8.079088951962538,54.104577270915726],[-8.077222642326086,54.10571512164896],[-8.072352320969513,54.10450348570558],[-8.067486590148912,54.105284993521785],[-8.053149741892815,54.104686509992675],[-8.056972979123751,54.0782803729195],[-8.047569109246519,54.0715888574464],[-8.049602359362012,54.069154744148825],[-8.055256333150831,54.066211817028034],[-8.059428960687447,54.06166092381088],[-8.06035648953753,54.058221585819965],[-8.067430658565515,54.05558174654616],[-8.070460152209984,54.0512574872958],[-8.074914497356362,54.05145778613029],[-8.074970788456788,54.052705743742926],[-8.076589443115399,54.05353025511272],[-8.08047122664279,54.05300422240661],[-8.078503364851224,54.05115035531048],[-8.078969217572803,54.04899753985229],[-8.09150937768211,54.03379349219027],[-8.089421910220272,54.03167549689394],[-8.091180285806406,54.026132320571996],[-8.087841664631565,54.02214846902104],[-8.08866779654741,54.0210198792803],[-8.087683337755582,54.01759149565037],[-8.085545262178305,54.01602537071677],[-8.085377410791608,54.01110833046801],[-8.079907774214368,54.00918528292364],[-8.077473639400345,54.0044758935839],[-8.078855822576644,54.00280273002251],[-8.079034421785874,53.99991111690377],[-8.076579103103,53.998625182237014],[-8.079575736607564,53.99375139631273],[-8.07861910062641,53.991094241346275],[-8.077675492937361,53.990161330810686],[-8.075960307182998,53.99078245799045],[-8.075661961175957,53.989486448849895],[-8.07243685732194,53.989356099576085],[-8.07211126984174,53.98851539835251],[-8.069125950874538,53.988670201207626],[-8.06855071875583,53.98697351416468],[-8.071615531841857,53.98495592399898],[-8.072068968323999,53.98100616753465],[-8.07381691999365,53.979003661107924],[-8.079083467848612,53.97572288272142],[-8.090094086266504,53.97625691524252],[-8.091251414260732,53.97281169739577],[-8.094710288081005,53.969041726922725],[-8.09512405799007,53.96494901711109],[-8.099129905759808,53.963200401838336],[-8.102784250204992,53.96299274719957],[-8.112191121480233,53.956893914490166],[-8.115511947826757,53.952821784176045],[-8.113674829556652,53.95124853921836],[-8.107651970211636,53.95109720901556],[-8.100805395881753,53.94896633632998],[-8.099581229642013,53.948017984115715],[-8.101073528979883,53.944677818697066],[-8.100122330229178,53.94278232957826],[-8.091023872868586,53.941855533221435],[-8.084401921251285,53.942715209259],[-8.083552497312533,53.940275871105065],[-8.081578330535299,53.938867705760266],[-8.083083243031343,53.93588958239226],[-8.085825187524204,53.9338622100105],[-8.092896467639749,53.93169278640777],[-8.093550948118084,53.93028023796742],[-8.088974161657953,53.92813712794347],[-8.085219360510369,53.9230513175616],[-8.085934815078378,53.921097921286005],[-8.084654124771694,53.91988021294803],[-8.073088530119858,53.923729258873266],[-8.073985124508775,53.918603258682495],[-8.068406415077066,53.91739807489454],[-8.065293652376981,53.914794378143235],[-8.064067760864528,53.910962424592945],[-8.061815934357776,53.90960677025056],[-8.049020686667502,53.912537822106906],[-8.04732813540292,53.91477443311176],[-8.029786927123922,53.922367294118686],[-8.026232319781816,53.927161760089696],[-8.032054837635654,53.92935698672716],[-8.032619848697687,53.93095931604079],[-8.031584073261593,53.93309974464114],[-8.024902472368495,53.93590414194921],[-8.018683578404076,53.93380903428488],[-8.013340929068985,53.93401225586063],[-8.01022286161708,53.93288741067153],[-8.011047916684202,53.93155306319858],[-8.012843066733016,53.93121350878715],[-8.012863389547842,53.926788516718],[-8.004839432127072,53.91952922908495],[-8.0020205251539,53.919531960479986],[-7.998714061107787,53.92239187358314],[-7.994094975244333,53.92159569645711],[-7.989356709111635,53.915729771936796],[-7.989425060449775,53.91305297195177],[-7.9911503161463004,53.911527321450095],[-7.993729968155332,53.90414483641022],[-7.991631576565165,53.90115633164093],[-7.987929870632638,53.89963116705455],[-7.988543285317098,53.8965951857689],[-7.98152463485487,53.892602641082306],[-7.977301717821888,53.88806432042325],[-7.981136886055606,53.885701574424566],[-7.981683283016982,53.884170029999844],[-7.977603213275913,53.87755692035259],[-7.9775397406628725,53.875590762183776],[-7.981212655093413,53.869846864983295],[-7.9765565370929075,53.86568715298522],[-7.961618969216424,53.86696754228547],[-7.956947163056409,53.863915647189216],[-7.953462234519626,53.85811092928446],[-7.946792528790987,53.85506771851705],[-7.943727554499582,53.84993736015547],[-7.940377408593188,53.84754214158501],[-7.933522633325591,53.849956825952965],[-7.928583925470102,53.85047017190479],[-7.924419745921844,53.84645065070103],[-7.924095595577024,53.84107992917664],[-7.921626180313964,53.84034479064785],[-7.918748650040209,53.83751460077168],[-7.917973277699753,53.82853615569399],[-7.920912021691481,53.82479756791983],[-7.919921905021505,53.82445694496164],[-7.917673666585363,53.818590509614694],[-7.910852141782727,53.81023507030275],[-7.909465460475819,53.79426088085269],[-7.905287198867174,53.79117052467585],[-7.894090477678746,53.78628609385015],[-7.881201608035185,53.785632551258445],[-7.875847707928548,53.7773958526497],[-7.880450158128991,53.77619318685101],[-7.883451363883418,53.77150122063494],[-7.881972154268956,53.767251207203316],[-7.8867656227995075,53.76258854429085],[-7.886087574896165,53.76005583094139],[-7.887127313943458,53.75869397797991],[-7.898096211179461,53.75641526941971],[-7.902123123093844,53.75363586943065],[-7.906272025258753,53.752423615302796],[-7.908700026045938,53.74919736993314],[-7.917678616582243,53.74688175283879],[-7.916871630512315,53.74422910651451],[-7.918121524116554,53.738103624667815],[-7.917003531190248,53.73587505247835],[-7.919065403177344,53.73465400566544],[-7.923310211756348,53.73328611913815],[-7.930107939084527,53.73320467226672],[-7.939068896131256,53.738381569686545],[-7.943474198682554,53.73877675461011],[-7.947116931399556,53.73745201617006],[-7.947543140845885,53.7353641110492],[-7.9441400897140175,53.728244183906774],[-7.949250648976945,53.71378352010302],[-7.954249646716821,53.71040144427803],[-7.965214109349672,53.711249399210054],[-7.972648621787696,53.70641264732872],[-7.9768830677177816,53.70174649568575],[-7.984480799732308,53.70107243852994],[-7.987281813182922,53.6997806963254],[-7.987659799535819,53.69764481386397],[-7.98247146437625,53.69032010659474],[-7.984092591914697,53.680364284891034],[-7.999479911087014,53.669028752121555],[-8.00379469415263,53.66220948319916],[-8.014788471510542,53.66239652785751],[-8.02655458020518,53.65337032514456],[-8.034654287324894,53.643386128927986],[-8.035949044687683,53.63092338574655],[-8.035979353762437,53.60768622836347],[-8.015056617364076,53.580915699880826],[-7.980712732426466,53.55190470602385],[-7.9550486090892605,53.48146977110209],[-7.966835313795827,53.44970995889402],[-7.966197704730945,53.44683829966423],[-7.959898057263191,53.442874745868124],[-7.958655134963342,53.43582162708134],[-7.957232697364256,53.433514297308776],[-7.955325963352014,53.431851140949576],[-7.9525165561780895,53.431443332730936],[-7.955759637527215,53.43124039777806],[-7.972956197389754,53.42227561898871],[-7.942027206088861,53.41206734729839],[-7.94050158315841,53.41241194282577],[-7.943707358574107,53.410646066196584],[-7.942474489255758,53.406055084847004],[-7.9394296434170215,53.402963175855774],[-7.930470683550814,53.39996834543339],[-7.929132548605963,53.3976261071824],[-7.924138636862305,53.39496402687654],[-7.923289887074553,53.38821729126925],[-7.919878125427391,53.38372906619411],[-7.917211592244127,53.38258517712716],[-7.913885341346134,53.37915318936173],[-7.914302662546603,53.37692436561622],[-7.910447000892232,53.37196063919143],[-7.911795501610946,53.368378586714186],[-7.918390985172394,53.36735456578759],[-7.925272438675027,53.36172818524331],[-7.931242411603133,53.361878259936105],[-7.9370280121474,53.35800339509865],[-7.943669186986176,53.350033522084985],[-7.942684788328589,53.3481438133393],[-7.94344800950113,53.34614324721482],[-7.941310549549214,53.344001591475596],[-7.943578161257825,53.34115577733424],[-7.95371697804604,53.33979975162731],[-7.960602912974523,53.336944781294584],[-7.969000396695043,53.335368504047224],[-7.975998197827784,53.33546199922981],[-7.982905354844746,53.33755515086639],[-7.98882720626611,53.33365134011744],[-7.989558266163961,53.330862558682426],[-7.986191187778149,53.3291437227178],[-7.99125344603607,53.327529596054546],[-7.995904875311844,53.3244081368337],[-8.003759551521009,53.321983995873325],[-8.012316491397423,53.32446359613943],[-8.02160762582816,53.323874447249054],[-8.026059975209721,53.3220349332657],[-8.027162573624528,53.321046939082485],[-8.0264997365787,53.317551040849395],[-8.027924170358443,53.31302828198997],[-8.025320934746146,53.308663841508995],[-8.02581323254936,53.30700719199711],[-8.024122649910009,53.30410563823529],[-8.029549671075442,53.300318933849155],[-8.031800258329499,53.29502014975013],[-8.037340433518258,53.291479136998085],[-8.04624314284632,53.28880146480987],[-8.04954700818633,53.28218628477698],[-8.048894828390614,53.28095531344866],[-8.051897878874193,53.27703364152565],[-8.055774931225113,53.27454325561736],[-8.056567492878346,53.271575865362436],[-8.061712088043663,53.2714285777459],[-8.0659220178784,53.273559578545324],[-8.075679522826361,53.27237473986174],[-8.085117586597057,53.273544951243586],[-8.08781650539712,53.275009265680175],[-8.090675846833877,53.274157976563],[-8.097110325317038,53.275753699775706],[-8.099164580601368,53.27801437870549],[-8.133086009369881,53.28195400443708],[-8.136789296043062,53.281244943618745],[-8.139660285663224,53.27896716852584],[-8.142359924634137,53.27901822232882],[-8.149725687898089,53.28055470311037],[-8.150376296827647,53.28183861701297],[-8.14901092802954,53.283845094788525],[-8.153544198649476,53.287345489926054],[-8.175828691082486,53.28782010575441],[-8.180154824069993,53.29135716193487],[-8.179941154344082,53.29343508598203],[-8.181749934886899,53.294822842063205],[-8.183370728535733,53.300091505591176],[-8.188093896358641,53.30150915872522],[-8.187285181385816,53.30431714502502],[-8.190026596408984,53.30675402997077],[-8.195389136603922,53.30780329919371],[-8.190331235335742,53.31330816468446],[-8.189973604846678,53.316986102286954],[-8.192225224907286,53.31898955894065],[-8.188936648292533,53.321947942420195],[-8.186852896087466,53.32228373302218],[-8.19059114784086,53.3288852129047],[-8.188310293793746,53.32979385765843],[-8.187615578928606,53.33618655918687],[-8.193512223621202,53.335540111326445],[-8.195617574945757,53.341199555824346],[-8.19721089725003,53.34103601314065],[-8.199948088400388,53.34777711339732],[-8.205941413761586,53.34762123474303],[-8.209470787922724,53.34517032020494],[-8.213568475644587,53.3441054917315],[-8.215829209653783,53.34655151785169],[-8.23250480611991,53.34965151742149],[-8.2298766127038,53.351354807770115],[-8.227565230606213,53.35614611945848],[-8.231639398549927,53.35891310488821],[-8.237583568078026,53.35821242033216],[-8.238566255412744,53.360352566760696],[-8.237370662292694,53.36479582988037],[-8.242502729556808,53.365929072918426],[-8.243768464559269,53.367132898891256],[-8.243199110263323,53.369737165442764],[-8.246242839523406,53.37456941585983],[-8.242966165647744,53.375851748958915],[-8.237895380459525,53.380535832513694],[-8.236454414716535,53.38013912867012],[-8.234495379063434,53.3815991392925],[-8.236040727998567,53.38277220889607],[-8.230490113131907,53.386021802837405],[-8.231249144934592,53.3886554517206],[-8.226860744010175,53.390599896249405],[-8.224616995831033,53.39599477157546],[-8.231357016550493,53.40076730263904],[-8.231759920891346,53.40298630362684],[-8.233818800520549,53.40473632764828],[-8.238244120249359,53.40625239046875],[-8.238103151771309,53.41075721572213],[-8.239164909731262,53.412103876640515],[-8.24428183684843,53.41317808000098],[-8.254242384285046,53.4123736289917],[-8.257223355974723,53.413587363760904],[-8.258501859096025,53.415820234907386],[-8.256739995008857,53.42050647745938],[-8.258555221454301,53.42232384359593],[-8.259179399005436,53.42725148183126],[-8.262830128509352,53.42934701595682],[-8.263125478788048,53.43321168016078],[-8.260976907524784,53.435341470947144],[-8.25445231893831,53.43613341869883],[-8.248909286074932,53.43818187730928],[-8.24424118612018,53.4366373960682],[-8.243612026357043,53.43809777957523],[-8.24044106085745,53.43901980698551],[-8.240776007709544,53.44031259468643],[-8.238916984232201,53.4407829848923],[-8.239497982166805,53.44288172325753],[-8.237590378862755,53.44415330031518],[-8.237882910726443,53.44497809288817],[-8.24154879117224,53.44775045291523],[-8.251038549971414,53.44999017059932],[-8.252803299128367,53.45218176141175],[-8.262681204983537,53.45582885186444],[-8.263615608685363,53.45899473486007],[-8.262649400946627,53.46112552563142],[-8.266467425248248,53.46356117075048],[-8.276920686708358,53.466768383261204],[-8.279919718548163,53.46946044735106],[-8.287493246516407,53.471800551087085],[-8.287320175057951,53.47321587108205],[-8.28303208691672,53.47472021623767],[-8.280273390186883,53.47711430263848],[-8.275394233005942,53.47726979299601],[-8.270497826804478,53.479418035076954],[-8.275334071902959,53.481314996023606],[-8.28157755046066,53.48810990686812],[-8.28077392446722,53.4905307405573],[-8.27484527562381,53.49423430275784],[-8.275264341343153,53.496045917262364],[-8.281168229366022,53.49902579046978],[-8.283135171756054,53.50207640073623],[-8.28251828817435,53.503295453153214],[-8.285754175075317,53.50449310599321],[-8.288847280690293,53.507396021204585],[-8.292640150268467,53.508252172916514],[-8.292997621941367,53.509462095415024],[-8.291749150036184,53.51460369528413],[-8.29034425292442,53.51573415584074],[-8.291172750665497,53.51805418806812],[-8.285393344777077,53.520108327840276],[-8.280992352820347,53.51857487303908],[-8.277807271599773,53.519690950658834],[-8.276628083594815,53.520861837993046],[-8.2769440337249,53.52394632738263],[-8.278376007955126,53.52537357500729],[-8.294191040428972,53.530610760780256],[-8.291381065324574,53.534656703482234],[-8.284975677515126,53.537730645025434],[-8.296613424146829,53.542265893933894],[-8.296218535509679,53.54354842488729],[-8.291268445005457,53.54509066964351],[-8.29848952584274,53.54851453137443],[-8.2982852801113,53.55133738950541],[-8.295674070944138,53.55307546565729],[-8.29550525479863,53.554250716300174],[-8.30049811240656,53.55630903404585],[-8.303160574306819,53.55873443402154],[-8.308143310059444,53.55994259116559],[-8.305228016380877,53.56122468560323],[-8.30400245278082,53.56424138508412],[-8.297925478532655,53.565969984386115],[-8.28809344137175,53.56185202973211],[-8.283913731728461,53.56318683226924],[-8.282944422787523,53.56469110919873],[-8.290245412999193,53.56958857430451],[-8.296998559201144,53.57221944936685],[-8.301064018760957,53.57245287896391],[-8.302127740350963,53.57437434045576],[-8.305732160053433,53.575136451254835],[-8.306542752083725,53.578173857223746],[-8.314598582195366,53.579121801653734],[-8.323100084742364,53.5773728159847],[-8.333199696088924,53.57682203964866],[-8.341850929775262,53.57848294854879],[-8.342898773991822,53.579973211939844],[-8.34270140652918,53.58220804850796],[-8.337469389860706,53.58808633316089],[-8.342443750407302,53.59089113683034],[-8.3497189916788,53.59166071867746],[-8.35229054589749,53.593573028516865],[-8.351829248629864,53.59499834861957],[-8.354015736178846,53.5987856193508],[-8.360279974721662,53.59819084712146],[-8.363794440397733,53.60036631226992],[-8.367503350982158,53.60106515462262],[-8.37362413167975,53.59875756645288],[-8.378701845484748,53.59903478424814],[-8.383642302072833,53.60549008187085],[-8.382538888564245,53.61028561412373],[-8.380392225752198,53.61151126168003],[-8.379070924650556,53.616949602371655],[-8.38655816398271,53.6191803876965],[-8.393410667667167,53.623669743268806],[-8.388797888415192,53.62502645530889],[-8.389895607553234,53.6266642180865],[-8.397109386541837,53.6269611092217],[-8.410904779614455,53.62488516601924],[-8.407419406326715,53.6277706611554],[-8.403722813250495,53.62790614856959],[-8.399603298201878,53.62957256431448],[-8.400241470099385,53.63042946678729],[-8.39940877463101,53.63220357979715],[-8.39633576242068,53.63139492898379],[-8.397332228489242,53.63279436459655],[-8.39493304233087,53.63965545643919],[-8.38322388715224,53.6398405740942],[-8.377275488307722,53.64272712493913],[-8.377217369889589,53.6436847245304],[-8.366998646822633,53.64026307568075],[-8.364448811769957,53.64112567296873],[-8.362708026829047,53.64318191071846],[-8.3616173611063,53.64814615906001],[-8.36345261662462,53.65162757002128],[-8.365606004943077,53.65144743966164],[-8.371039861410747,53.654809484864515],[-8.373680689054508,53.65502380584523],[-8.377210885314591,53.653160660541836],[-8.380477624592436,53.65424669840289],[-8.38182954340219,53.65685237644067],[-8.38585665152726,53.65869958644879],[-8.386452081363133,53.65995847421976],[-8.393592118744674,53.66109312250554],[-8.398053165360793,53.66319078272043],[-8.398576234652243,53.66514795839348],[-8.402980147813373,53.66624410546299],[-8.406323902930925,53.665386933851245],[-8.411226336281054,53.667071184731604],[-8.41592993296794,53.66672921600125],[-8.42528216016686,53.670844363998754],[-8.4281394488145,53.67022686620746],[-8.427814027795963,53.67115010798773],[-8.433334743871486,53.673572820173554],[-8.435538883216932,53.67661758613671],[-8.43740714364213,53.67715505436526],[-8.43614730163076,53.68102414056224],[-8.433934012901128,53.68196541812236],[-8.43854657687318,53.684462500972316],[-8.443564304658805,53.6849494971169],[-8.446555137108874,53.68634562450067],[-8.447194632875767,53.687700226102244],[-8.444004711628924,53.691478832849455],[-8.457967825431549,53.6967891836123],[-8.459425683927204,53.700076975778934],[-8.4543845767141,53.69998833717992],[-8.448883238599418,53.69787105914098],[-8.444512679310058,53.70237172225551],[-8.441889826279592,53.70331227937217],[-8.446158482144483,53.70511459180351],[-8.452610482478413,53.70582144027341],[-8.453040538929434,53.70826272241882],[-8.458651058129947,53.710656227650375],[-8.458024325169612,53.71145238123751],[-8.468618931988823,53.71542894484422],[-8.488232615132926,53.715770163944946],[-8.519772249806028,53.71227169380825],[-8.534536304283883,53.718887343598865],[-8.533873417098427,53.71630648769828],[-8.550656931923012,53.71870881723267],[-8.559405539062054,53.71589120633471],[-8.568482574784307,53.71664590173629],[-8.57370826056393,53.71891153692409],[-8.582831347136393,53.71375301907765],[-8.581074611461636,53.70864412790562],[-8.604316918450888,53.710495240057405],[-8.606582397800661,53.70881453548757],[-8.605622989710106,53.70749745254847],[-8.608837272910613,53.70596474702737],[-8.613492231495128,53.705090092718265],[-8.619795944838355,53.70604646328729],[-8.624011845453238,53.704724783496545],[-8.634752120574273,53.70419249596514],[-8.633634292509123,53.70076511012121],[-8.634400627301835,53.69973056611276],[-8.63632367190126,53.698204199848476],[-8.639801948881397,53.69772557975656],[-8.645259357149953,53.69398161197658],[-8.64114022256908,53.68924650751398],[-8.640990631565277,53.68579200480844],[-8.650806279860301,53.683044905034755],[-8.65545786190633,53.678855933727306],[-8.655532534348346,53.67692705460522],[-8.659031213375862,53.67579466535142],[-8.666004680156425,53.6746865305256],[-8.666991666597859,53.67547210224164],[-8.673164960187115,53.675184266558546],[-8.693991290042588,53.67142456352286],[-8.713214032066476,53.66589976167156],[-8.723446897022411,53.66505607372614],[-8.72466508079411,53.66966499983728],[-8.729079829166926,53.67121491248415],[-8.733849784031882,53.66582459883512],[-8.739964862857297,53.66261149378127],[-8.745105593754598,53.661981607693086],[-8.74956213118884,53.662465738667365],[-8.755845127478835,53.66588171276797],[-8.761403174674799,53.66389299602111],[-8.769030385130382,53.664083617161374],[-8.773530910462249,53.666434916059806],[-8.777852203130175,53.665177321189056],[-8.785759263458507,53.658719412846374],[-8.794293321200014,53.65703935215615],[-8.800913325363787,53.65729862876713],[-8.80909532590837,53.66085275088917],[-8.814932797243854,53.66200991801397],[-8.81914909222208,53.665926022632284],[-8.823486719898588,53.66516887860944],[-8.82122134661719,53.66707670568786],[-8.818644862961941,53.66691410015363],[-8.816880549471318,53.66873601812591],[-8.813696429136133,53.6694263067002],[-8.812741361231407,53.67193849221959],[-8.806885988348395,53.6748419760537],[-8.806986361582723,53.67680416432286],[-8.805625260158129,53.67761850828696],[-8.806606973084394,53.678995707001405],[-8.801681601322011,53.68167259609797],[-8.797891236309464,53.68963977982255],[-8.794630824011897,53.691943985177076],[-8.794565813481245,53.69361358069756],[-8.792878152170605,53.69390891239987],[-8.791430182002236,53.6961635698067],[-8.786180193577058,53.695588306076495],[-8.785144266029716,53.69235197033322],[-8.780207373233814,53.691215252964625],[-8.778805414045841,53.68918285120171],[-8.776000709081393,53.68807574529496],[-8.771713241066683,53.69018289309391],[-8.766939713674468,53.68946127054991],[-8.759318180132649,53.69086625262965],[-8.756297368834437,53.6929202527375],[-8.760773867187975,53.69694456403091],[-8.757748320768785,53.69764977068327],[-8.75609317895524,53.70075861078879],[-8.75029326684444,53.70071661383382],[-8.746483107009757,53.70357050830839],[-8.744036865150479,53.70320945637413],[-8.729079577961183,53.706514485630336],[-8.728581385024738,53.70842841740742],[-8.726175476534909,53.709911217776515],[-8.7226954764518,53.710750479632196],[-8.720562762746525,53.70999220387482],[-8.716777154900836,53.71215547997526],[-8.712886355437067,53.7121161915884],[-8.712198381424317,53.71412793875057],[-8.713624518986007,53.71421790114077],[-8.71446904621989,53.72469644030152],[-8.709770886942515,53.72353334428103],[-8.707496809612035,53.72472104837475],[-8.693336481414162,53.72397331517031],[-8.696541092364706,53.7304773205888],[-8.700558906057946,53.733742957541956],[-8.696490122120817,53.736177096262516],[-8.69484765346096,53.73960103632619],[-8.689963182736903,53.73959686766924],[-8.691165515736605,53.74268717293471],[-8.689312200667777,53.744929540638076],[-8.684443832523622,53.7455184593804],[-8.684914748807296,53.748931596793916],[-8.680130485567728,53.753200747989844],[-8.680460790046979,53.75616682655681],[-8.682038084916732,53.75747336895895],[-8.680229308736696,53.760193712216186],[-8.68062697505732,53.764054575657276],[-8.682972569061002,53.76432138951249],[-8.684255021629173,53.76662188689222],[-8.675912707290651,53.7708673146011],[-8.672932409833455,53.770771038641534],[-8.669217666386752,53.77259425605086],[-8.66769087296759,53.776035112048355],[-8.666223281070042,53.77649214038531],[-8.672573046843478,53.778067468091955],[-8.675924798463598,53.77756584934762],[-8.68011263057175,53.779946244609626],[-8.687088404205895,53.78729781964501],[-8.689161101975387,53.788218333131596],[-8.68628867377143,53.79154022983573],[-8.686311234986494,53.7929818323134],[-8.693889393890185,53.79817920837511],[-8.695097260980436,53.79682927058097],[-8.69968520177036,53.79621706105492],[-8.705137548472507,53.79725220454548],[-8.709089751377917,53.80224203696221],[-8.714162647606916,53.80321205666349],[-8.718537951233435,53.8027047982355],[-8.733173424425075,53.80630546834773],[-8.739434321891906,53.80993959896321],[-8.728126693214616,53.81511259789524],[-8.725438119224812,53.81382310482205],[-8.715552525036738,53.81722246141736],[-8.715507452017578,53.81948594341419],[-8.723017438083627,53.82435605607753],[-8.72198029773693,53.8272701633988],[-8.715367283483245,53.827967359807324],[-8.714130988521063,53.82932100628494],[-8.715449398134474,53.83071460832753],[-8.713093891010296,53.830077234613796],[-8.711316668699675,53.8319188276829],[-8.713877746542058,53.83472501351369],[-8.718115956827008,53.835550742083115],[-8.71471666511932,53.83771964260559],[-8.717301829453293,53.83892707503081],[-8.71675981806435,53.83951372885981],[-8.717755080059309,53.839817135866596],[-8.716413376048251,53.84048142184188],[-8.71778572130642,53.843102098883904],[-8.721245842537082,53.8443284005731],[-8.723757888345693,53.847104123674846],[-8.721241013960451,53.84847852269389],[-8.711048687004391,53.8468788302208],[-8.708130049947206,53.85011811880227],[-8.698374082070016,53.84997405303789],[-8.695054628953926,53.852633043362836],[-8.694491024770597,53.8539250404466],[-8.697295635132194,53.85492206075192],[-8.695183926972012,53.85551561292517],[-8.694258427351786,53.862410213815494],[-8.69949850952725,53.86318375056578],[-8.701469633795641,53.86673273565034],[-8.700687587366186,53.867481004650074],[-8.702438710365525,53.86827714040116],[-8.701331964977603,53.8694288858572],[-8.703477930655549,53.872235818392326],[-8.705697650420985,53.87299234232374],[-8.704673682659246,53.87408682827093],[-8.682534557826639,53.873449700442144],[-8.676843817759101,53.87702713538578],[-8.647728301783724,53.86544358101134],[-8.6440391359426,53.86700648299366],[-8.6387896403192,53.866863482572896],[-8.635443828067658,53.86867527847005],[-8.635270956832725,53.87091036834439],[-8.638214789039989,53.872650575977474],[-8.637389910412994,53.87705948479953],[-8.630598623623296,53.877975920858276],[-8.629814625650223,53.87982052735613],[-8.6307531992921,53.88054361420114],[-8.626787351591716,53.88187287073976],[-8.623969719247023,53.88093577669494],[-8.620552742231954,53.881697517276926],[-8.625883796351129,53.884646554092335],[-8.626472557933047,53.88620863163688],[-8.6366278521764,53.889533705483416],[-8.63723987506138,53.890881850279655],[-8.634213373325744,53.891871296350686],[-8.633243382177312,53.89918720069746],[-8.639448318551453,53.901798872200274],[-8.64738550304989,53.90170368861616],[-8.648189938875703,53.9027025838837],[-8.661705203143997,53.905953106831504],[-8.666869777782043,53.908899446839456],[-8.667948403473575,53.91195348022324],[-8.685487156682314,53.91876011790597],[-8.680563271553778,53.923186920049986],[-8.686950329902094,53.9248989843788],[-8.678449789024564,53.942781326972025],[-8.681615583733361,53.94745104736699],[-8.672527598865871,53.94660758326348],[-8.66677502937918,53.948047006875726],[-8.66840790488756,53.94953212281907],[-8.676247610336535,53.950354994649985],[-8.68113554275548,53.95354060559453],[-8.685467099426601,53.954865248334926],[-8.686393387790325,53.95700488576065],[-8.685814248706295,53.958551698805],[-8.690641573123484,53.96064799808832],[-8.689790623818448,53.96079293641706],[-8.691650522239138,53.96200636207261],[-8.691241831412984,53.96315200984406],[-8.685262213983295,53.96476779573211],[-8.684572366862103,53.966651719504355],[-8.682993521413099,53.967356585497996],[-8.683119121293018,53.968766729329026],[-8.680695930439207,53.96957250490711],[-8.680137037733246,53.970840681019226],[-8.67755322219272,53.969718885946996],[-8.666673309845763,53.97493862895084],[-8.66368252138583,53.970826867636845],[-8.651032210714726,53.96597005337563],[-8.60769027023323,53.95509431754315],[-8.60390224093477,53.952010999246866],[-8.599399670394105,53.95017115655519],[-8.59690913467687,53.95433630447837],[-8.600556833708653,53.95728200334377],[-8.600434407634163,53.95828962168313],[-8.593424156959035,53.95580292757164],[-8.586162658167822,53.95482296888979],[-8.585481847035842,53.95384710350421],[-8.573281480698677,53.95385328992318],[-8.567935538449232,53.95228989384008],[-8.55003779368255,53.953332483783804],[-8.54279906166415,53.954896185190016],[-8.536988038206758,53.958066570940204],[-8.52990499787874,53.95279181139606],[-8.526846746136412,53.9493950612683],[-8.527664738488138,53.94811720156619],[-8.526808946394878,53.947274481491085],[-8.521825538970656,53.94433881340976],[-8.52262282274146,53.94265247724311],[-8.519549165195842,53.93961061196569],[-8.519884240929306,53.93800627661234],[-8.522402233953038,53.93615764894766],[-8.523072911190322,53.9330160378676],[-8.518972564800185,53.9263650254383],[-8.509569935441304,53.92482427911091],[-8.506658059518703,53.92620895551179],[-8.501879328678356,53.92612177860744],[-8.48820162551033,53.92148011244538]]]}}]}