{"type":"FeatureCollection","features":[{"type":"Feature","properties":{"name":"County Tipperary","source":"Tailte \u00c9ireann Counties National Statutory Boundaries 2019 (CC BY 4.0)","simplify_tolerance_m":75},"geometry":{"type":"Polygon","coordinates":[[[-7.751536094611058,52.341011528061074],[-7.761781643965177,52.34248746643653],[-7.780069797705609,52.34308006171111],[-7.789535886932276,52.34124913662081],[-7.7894344265987066,52.33807538603673],[-7.7866008968976335,52.3331479853523],[-7.7885975556759295,52.32983166783825],[-7.793478017441101,52.32820283924511],[-7.791006191281651,52.32476335058712],[-7.790426607358239,52.31916155245938],[-7.79346436015276,52.311050464842644],[-7.79323498328462,52.305551200235975],[-7.7965318318666945,52.300943643198906],[-7.796641767109546,52.2988854490994],[-7.794399447134562,52.29637674921601],[-7.792993651650961,52.29069109749034],[-7.787634373415412,52.287614445911295],[-7.787112330494841,52.28553246649011],[-7.783716974854959,52.28185304977826],[-7.783098703312968,52.27992538758809],[-7.784801074520702,52.27737578440318],[-7.781013445630892,52.2752291995543],[-7.7817423325151776,52.27345152102403],[-7.777654608595844,52.27443618906975],[-7.775845260165612,52.27263428882647],[-7.776284415231134,52.271562379521235],[-7.773945953406172,52.27071337693677],[-7.772043211618986,52.27213923622085],[-7.768328417242521,52.27245854385658],[-7.768984390739164,52.27192078375855],[-7.766397065880912,52.271058156014305],[-7.762840895991165,52.27133444155445],[-7.761645354539424,52.268731501770915],[-7.761835891991502,52.26595121206566],[-7.753752226581079,52.25811406415844],[-7.7532448475073865,52.25584079290649],[-7.747791065994879,52.251463571535346],[-7.748490079185746,52.24927611851647],[-7.745856204686824,52.243955333927765],[-7.746823996544387,52.24221847313666],[-7.750024424485113,52.24099919010441],[-7.751324781483784,52.235753678763274],[-7.75274415844254,52.23398991592424],[-7.75111154411664,52.23249483755704],[-7.75138392557354,52.23026697328771],[-7.748716562635173,52.227657447969385],[-7.749419546202435,52.2246582508032],[-7.748024955134368,52.224413037631095],[-7.749573398650411,52.222685036444716],[-7.7478107322285,52.22101560360768],[-7.745989535886358,52.21648921250532],[-7.746751690537159,52.21612153281767],[-7.759038495526868,52.21528964809304],[-7.76750245569544,52.21866702840645],[-7.773043252076707,52.21764463787763],[-7.780326254524112,52.219064630911085],[-7.785653325375859,52.221384240778264],[-7.795881042106385,52.220981881932076],[-7.8032936923298415,52.2178726268708],[-7.807884714412438,52.21242387293082],[-7.811422804760192,52.21064986785673],[-7.812153637467035,52.21293209644824],[-7.814856567713781,52.215440465291195],[-7.815284161886772,52.21765295678359],[-7.8203560245959745,52.22125192365034],[-7.8501343807241115,52.227233392307575],[-7.857909478324478,52.22395334487985],[-7.866257010452681,52.224135518597976],[-7.87183296752018,52.225445309509844],[-7.876114154012624,52.22736884687461],[-7.875589620983385,52.22972349733181],[-7.885867967032967,52.22568982377448],[-7.891552728120705,52.22492325726152],[-7.906020051240065,52.22830415390007],[-7.915915016285126,52.22791533539343],[-7.921922682711741,52.233915164664566],[-7.930643776349171,52.23582954232645],[-7.936822105609817,52.239830068711946],[-7.940898638770758,52.24285634429833],[-7.942497681339093,52.24629861965116],[-7.95234339391635,52.24217576907881],[-7.972261272761254,52.24237524957858],[-7.9733465028159465,52.23792925560185],[-7.97997545981327,52.237782595582324],[-7.984087859803862,52.24154770648574],[-7.990891875569785,52.24294853814474],[-7.99173836838714,52.237917971170276],[-7.9906373196178,52.23651048736834],[-7.990930640272652,52.23322498087606],[-7.99306264549167,52.228198361944294],[-7.996904649846529,52.22520991276331],[-7.994358986086076,52.22129739708802],[-7.994722827075923,52.21697586257681],[-7.990454912658908,52.212139349700216],[-7.990373610491675,52.20917678956488],[-7.995002987580304,52.20533526815546],[-8.002793526807864,52.20217743316203],[-8.006013324835804,52.20208495443429],[-8.022498870221645,52.208411226205214],[-8.033039053219387,52.207024725932676],[-8.042890487632533,52.20830447265903],[-8.044202131359656,52.207437994022776],[-8.051891776932333,52.20843548131507],[-8.05144204059597,52.20756380494679],[-8.056370929868667,52.207480808438184],[-8.057504454998972,52.20852212842789],[-8.061356373110463,52.20893363119462],[-8.063322597868103,52.20734488922225],[-8.064842045404905,52.208160207811424],[-8.067469829111332,52.20704291807757],[-8.071752015273262,52.20719376586317],[-8.073604445152489,52.20822266300081],[-8.074899111497007,52.20696130522207],[-8.077030969521656,52.208106553926385],[-8.080033455908088,52.20581225767293],[-8.0827147262584,52.20708563091703],[-8.084049995888627,52.20582527653706],[-8.09008179717676,52.2067313964919],[-8.099131252213047,52.20532496612939],[-8.105308936547651,52.20700883762176],[-8.105274015669218,52.21004974284473],[-8.106999754128879,52.214577908453755],[-8.103395766663004,52.23118273808063],[-8.113932153151021,52.23138701319254],[-8.132978678524223,52.23539752242317],[-8.135381561497782,52.23493835772599],[-8.138789364268137,52.23748189336305],[-8.152901365263938,52.23841478976906],[-8.156995263318262,52.24124508347173],[-8.160952206549307,52.241928480895616],[-8.161491367494085,52.253044164822505],[-8.165582489484388,52.259965101392105],[-8.162638964555262,52.265603049737656],[-8.169311780865248,52.266461347123126],[-8.165802758695339,52.26978074791339],[-8.164340753695049,52.27286004776559],[-8.16513932714469,52.27761704092393],[-8.176579787637268,52.27668073359037],[-8.17857832862422,52.28160382945431],[-8.18320596735158,52.28767580003873],[-8.176616264996696,52.2908993069439],[-8.168974162567501,52.2916344608533],[-8.165718900634234,52.29340207668549],[-8.159798130008685,52.2991664213912],[-8.156312868646305,52.30069913503066],[-8.158606310016536,52.30312508305313],[-8.16215020931364,52.303052309092],[-8.165160788238957,52.3053076279886],[-8.165201876612727,52.30940923822151],[-8.163235737116935,52.31399266980612],[-8.164857642421218,52.318592109475276],[-8.168279696416121,52.321026592576025],[-8.173412278161996,52.322126400300384],[-8.175194726086481,52.3211063444685],[-8.177038546907633,52.321694931135085],[-8.179069521554627,52.323298033687045],[-8.181086966096574,52.32850019430287],[-8.183022217549247,52.330157700413544],[-8.181328296906642,52.33501802937181],[-8.166609741522949,52.34518893990491],[-8.16811136217176,52.34988893582823],[-8.16781980468634,52.352437270698275],[-8.165706036354644,52.35951194793464],[-8.164265122471063,52.36112478633053],[-8.164938614839363,52.36454996953648],[-8.167974387508767,52.36785456826067],[-8.192706578767217,52.36386159717278],[-8.199768702697975,52.36741374921922],[-8.199875009712825,52.3695893985741],[-8.203191735527689,52.36975732768451],[-8.20973093338656,52.367821553927946],[-8.214784658349753,52.36449836111879],[-8.21614611901846,52.372571014124624],[-8.217496073230032,52.3746871452492],[-8.217330633572002,52.37833443789487],[-8.223520789129859,52.38356942255904],[-8.228497113153164,52.3860582002956],[-8.22776482840456,52.390958985189116],[-8.228490047479365,52.39282698369921],[-8.227191806594503,52.395467992941384],[-8.22731113434475,52.39703025152567],[-8.228666341377563,52.39775087084659],[-8.22741570879606,52.3987937160459],[-8.227205505736125,52.400970585829114],[-8.231379565976214,52.4030582668767],[-8.226354599200691,52.4045241834657],[-8.22857337084212,52.40593745383953],[-8.228422127293559,52.40706417834298],[-8.230287295705116,52.40764227884062],[-8.229844050828651,52.40938864734255],[-8.23145361489799,52.41069017849226],[-8.260026461991002,52.408177443796596],[-8.26001983094145,52.40723217751762],[-8.267344794922371,52.40567454077945],[-8.268319185219145,52.403149167811314],[-8.269866057522544,52.402522706854754],[-8.282469351191441,52.40105313797111],[-8.28367464346391,52.40543931011666],[-8.281309141472446,52.40858668989117],[-8.283985888734517,52.414367386195096],[-8.29096094395094,52.416912384175],[-8.297109619691067,52.42107904104403],[-8.30958995929622,52.41996811479044],[-8.311494982326414,52.421976084055274],[-8.310429783654348,52.4250310013932],[-8.312693310586594,52.427274563918935],[-8.312789615298664,52.429862147326475],[-8.31631330437859,52.43246281325203],[-8.313395226850478,52.4353665116411],[-8.316907343627072,52.4376489832414],[-8.320765106254711,52.438511306509916],[-8.319931954685195,52.439591607160466],[-8.326923483542757,52.43530181821124],[-8.330128114863909,52.44041733485832],[-8.350657238105821,52.43368797498977],[-8.352825779599366,52.43581180197445],[-8.356035034284426,52.43602556276716],[-8.366824339468748,52.44551540717704],[-8.371889295700656,52.44464828582059],[-8.377966942392275,52.44183112587741],[-8.380688048558802,52.43566777272285],[-8.386381144615806,52.43281366883904],[-8.390632364359353,52.436857663227805],[-8.392751183860037,52.4405956288828],[-8.393845935603421,52.440475481252406],[-8.39905287408531,52.45026195722306],[-8.401112267998837,52.45735555641708],[-8.40315905598906,52.45948750728142],[-8.405917896922363,52.466638840266185],[-8.398499057438869,52.4684225656394],[-8.398201904169566,52.46996295937151],[-8.389390845200316,52.47246051519789],[-8.391623200924125,52.47503438203919],[-8.389751438132132,52.475868754556664],[-8.391370873146897,52.47796245603631],[-8.39054785252701,52.4783846417449],[-8.391094412617665,52.479907593549875],[-8.396037236896298,52.484253522582144],[-8.392131649730235,52.4869213124271],[-8.390963101958354,52.488689616026605],[-8.391220442114479,52.49068471281031],[-8.382758300133695,52.49175555025191],[-8.380458849974072,52.49474090763287],[-8.377812589992601,52.49553092559581],[-8.37274721037861,52.4943010898427],[-8.366282678468897,52.497832804351354],[-8.366240363758388,52.50002668278976],[-8.368189207167593,52.50322789803283],[-8.359738764362527,52.505143659302696],[-8.360012483993726,52.50807651985788],[-8.361506301666637,52.51031919859381],[-8.349708226847131,52.51172922949486],[-8.34533386182295,52.51324923095371],[-8.339518353083708,52.511980074047585],[-8.335345368703447,52.51278122868536],[-8.33506324250089,52.510473929550336],[-8.336464978063207,52.506559977829326],[-8.334905622362978,52.50429839230777],[-8.339325830366265,52.50289379041695],[-8.338817949032805,52.49964512928273],[-8.338094760132147,52.49892080280234],[-8.335496673749363,52.49998412842714],[-8.335201879778777,52.49717256541777],[-8.330656661682855,52.49829606807423],[-8.330909090717585,52.49544180631477],[-8.335278161597689,52.490155050021656],[-8.34000364667336,52.487745822916416],[-8.337916539402585,52.486834773181556],[-8.335094596572265,52.48262513947913],[-8.329713519763043,52.48033129364728],[-8.324040042075634,52.481158609890684],[-8.324393493092657,52.482945526862345],[-8.31945567322755,52.48911066986664],[-8.316694337831281,52.49159366752015],[-8.31361980043764,52.491148677124386],[-8.314894385531273,52.49303884009572],[-8.319776522123929,52.49474290029742],[-8.319767710415853,52.499466108254296],[-8.323578957472538,52.50276639016926],[-8.325776635577562,52.503099100705505],[-8.326171268678813,52.5052976800455],[-8.317757317671834,52.50599315217215],[-8.3112582863937,52.51070461990538],[-8.303940944619274,52.508788274170776],[-8.294232804856524,52.51185527024153],[-8.289530418552381,52.51473634891335],[-8.289426507449582,52.51654819681156],[-8.285830961853431,52.52155464246671],[-8.27176831770055,52.51707352779189],[-8.26895168164316,52.52067036565183],[-8.264821815854004,52.51931436902245],[-8.258855567709439,52.51996434637317],[-8.256171214423457,52.51701253547905],[-8.256440482054618,52.51111736335754],[-8.25421816718029,52.50980431378462],[-8.248723439391709,52.511948866712494],[-8.237524928746044,52.51317937518525],[-8.236529634165656,52.516035251589265],[-8.231744489033161,52.515139362414025],[-8.230506613869357,52.52118058649252],[-8.22828937115841,52.525121201930446],[-8.226087180937641,52.52590535228179],[-8.228413238160947,52.532835345492884],[-8.232617540054118,52.53573729767814],[-8.23160779585758,52.54374622944421],[-8.228254560944562,52.548184292794296],[-8.225796922355281,52.55505621556242],[-8.22654431005696,52.5560228833041],[-8.228909502547285,52.55557893960116],[-8.230926141701609,52.55666810813697],[-8.231339353154594,52.55969077851193],[-8.232746049464346,52.56133846918832],[-8.2356452693039,52.562224061704086],[-8.233118400010706,52.56277576701874],[-8.229454915017795,52.566327636425044],[-8.226661097773372,52.56660621146312],[-8.225691232608561,52.56826073831195],[-8.2274504901957,52.5690498554442],[-8.227013276047176,52.57050569229583],[-8.224351658431623,52.57188465349441],[-8.225645966741725,52.574523973730024],[-8.23015574773172,52.578027509210635],[-8.237475345100368,52.58175108779853],[-8.235331152474787,52.5820902648635],[-8.235165277362466,52.58337352989442],[-8.233107299581881,52.58479538220211],[-8.233550771420683,52.58596366302717],[-8.22495836960205,52.58885093240614],[-8.225489528560589,52.590523793359075],[-8.224019302963589,52.59170446391728],[-8.21966723037801,52.59225555907863],[-8.214264227747114,52.59505715653625],[-8.212042510148134,52.6009106157089],[-8.20917422205148,52.602083554120334],[-8.210490175634444,52.60760626160598],[-8.219324223303019,52.61044528489952],[-8.218958555069975,52.618106302611245],[-8.21552770602368,52.621457046537095],[-8.211166083686193,52.62132148758841],[-8.21304032750115,52.62295078342703],[-8.2118310767717,52.62863975548217],[-8.215347965412812,52.632824471730295],[-8.213365880967851,52.635049223502875],[-8.209548661944117,52.63589575973023],[-8.205534341514435,52.638651812785646],[-8.20301593964999,52.64110035526989],[-8.203590156578223,52.64161011396617],[-8.19755317201911,52.64291431824671],[-8.195137287186432,52.64464700284905],[-8.194546427276075,52.649903826026154],[-8.197628287296851,52.655244741445614],[-8.192771279774545,52.66223773613108],[-8.192642732649627,52.664628495688646],[-8.187864324243353,52.668425171698914],[-8.190358774017488,52.67132714573259],[-8.197211606233864,52.67063150850382],[-8.199138803580583,52.66920537400051],[-8.205619614802082,52.66938552766959],[-8.209647340344937,52.671328169601146],[-8.21091780528103,52.67097867452676],[-8.210732566110797,52.66966178997645],[-8.215775149738812,52.67086619259174],[-8.220673028440245,52.66824493775136],[-8.224392976163495,52.668291944456854],[-8.224808950407569,52.66649942996173],[-8.228584438504774,52.66510852731244],[-8.227190116879212,52.66260427999616],[-8.228828238749548,52.66200473983893],[-8.228351959566035,52.66257104765258],[-8.232330354817057,52.66663860196335],[-8.236968780537072,52.66892371753556],[-8.254342833976231,52.67009078615428],[-8.252477749736121,52.67491326241382],[-8.253818041078398,52.679986030720826],[-8.25307168671951,52.68241770143069],[-8.268452583353959,52.68692749688887],[-8.268932614826705,52.68851573082506],[-8.274653835914021,52.69054714872501],[-8.281035976149862,52.69166776514288],[-8.282579745220044,52.69367732428398],[-8.28425500666985,52.69285294448033],[-8.284999083690456,52.69456541148392],[-8.292006705215874,52.6945139171538],[-8.296575764650392,52.696314896447305],[-8.29789960755299,52.69430915247991],[-8.306289539627056,52.69418837655811],[-8.306229625620015,52.692553937230194],[-8.308005595435429,52.692034434629164],[-8.31518282912283,52.69279641770434],[-8.317043693395346,52.69237178130803],[-8.31851774397753,52.69021771266529],[-8.32091077737923,52.6914229710087],[-8.321696141465448,52.689546277427716],[-8.337539120022411,52.68921233043967],[-8.337456481997854,52.68719615096653],[-8.33931988258996,52.685905372423804],[-8.350855955346862,52.68216383707662],[-8.354711637911905,52.68205524749042],[-8.355461892266083,52.681583153384295],[-8.354793438389917,52.68047487930363],[-8.357237802289172,52.68062563681261],[-8.35921457318699,52.67931219874487],[-8.370054066616634,52.68376413109027],[-8.37239895723636,52.682743257927356],[-8.374064988308522,52.683362893194186],[-8.37747730030062,52.68157680531755],[-8.384736129109772,52.681353279160696],[-8.386378392445181,52.68303480373035],[-8.386818360771406,52.6869477087445],[-8.393625593464494,52.68927485937267],[-8.400353605710148,52.689894997229075],[-8.402238019228225,52.69248183982891],[-8.415754489546208,52.68766992331864],[-8.417249550856596,52.68433694702441],[-8.427714114207868,52.67786114081115],[-8.432837692924684,52.681139973472256],[-8.43286941328633,52.682468131925155],[-8.440502127747857,52.686012071981644],[-8.4468390746056,52.68645619904344],[-8.449226055366696,52.6850010619295],[-8.450705150563929,52.684565380632826],[-8.451644118649812,52.68465317007921],[-8.449558534065822,52.686544443940846],[-8.455403634403464,52.691698997681705],[-8.45720188778552,52.698558300210564],[-8.465318130051138,52.69590235643951],[-8.46600747309436,52.69718781704567],[-8.464927013113174,52.70291227472722],[-8.461837473272285,52.704953484727426],[-8.462819316114023,52.70546002967504],[-8.465032738455374,52.70376194347983],[-8.468412045186314,52.707032948269706],[-8.468944019441293,52.709923014394704],[-8.466916542628255,52.71771931363715],[-8.470167866765827,52.71813830276566],[-8.470124294609581,52.73248767608468],[-8.472600356529606,52.733922529771725],[-8.470995756076876,52.73549824258086],[-8.472570655420585,52.7361284945698],[-8.47293683599276,52.7376174322276],[-8.46959654366463,52.73905250520753],[-8.475211797839993,52.74690809317265],[-8.476045521201014,52.753527585287245],[-8.480079096239285,52.757398950857656],[-8.477102467186924,52.75875213455134],[-8.475609679505414,52.762585625616786],[-8.469448873453915,52.76718456024389],[-8.469132834331344,52.76920991813031],[-8.465620738005612,52.77189344168597],[-8.462000269342495,52.77714386695787],[-8.455313604205594,52.77788929214753],[-8.454176666849262,52.77889951744057],[-8.454798452430282,52.78095555413887],[-8.443278503556122,52.78605443968124],[-8.43707829158122,52.797866338114304],[-8.436992525447017,52.80681085023363],[-8.445608919556559,52.809528482848485],[-8.449088216329198,52.812539445105806],[-8.448807141634058,52.82011666232485],[-8.451775399962553,52.82397526073246],[-8.455311456615437,52.8468936375095],[-8.424715625074825,52.86777591730273],[-8.418460153413585,52.875403696817806],[-8.407521796750654,52.912582823628874],[-8.3675154969994,52.91654427693648],[-8.338498197734138,52.91520185945082],[-8.313906953081702,52.935522512672385],[-8.307979506532792,52.94897862620405],[-8.290098367630062,52.960747822427386],[-8.282425076129616,52.97046180145672],[-8.284500444730623,52.972563502078145],[-8.30983049956572,52.97693081302326],[-8.316738686308536,52.985143226312424],[-8.301827023567748,53.0074530198236],[-8.278475141846581,53.01868087666528],[-8.268703984317025,53.03663234637078],[-8.267760137262636,53.05636351715994],[-8.249339679557563,53.06327403977973],[-8.218742348787417,53.06761347470421],[-8.213553159314923,53.07839995633757],[-8.208468923998785,53.0794447266775],[-8.198432202952732,53.08420360605203],[-8.197017389270423,53.08712755087927],[-8.196999068708816,53.090114592985984],[-8.193879179483114,53.0910633582836],[-8.188977515178921,53.095443233015835],[-8.174532845783745,53.11126412917441],[-8.168754951019702,53.1143171740254],[-8.171867678032623,53.11809552426353],[-8.172264181360964,53.12107627528153],[-8.170296361106628,53.12360424340712],[-8.165182235613416,53.126126338565214],[-8.162371556426857,53.1299052164434],[-8.161008483183805,53.134808153265745],[-8.155957859196116,53.13568893055022],[-8.146386783415634,53.14259925259682],[-8.14814276527919,53.14389685224693],[-8.147955127896793,53.145235393526455],[-8.136477234281386,53.15177668927845],[-8.127309736587536,53.15856965093739],[-8.11861104356963,53.16066292762078],[-8.106238090242876,53.15990910179952],[-8.08434489874433,53.16300925629803],[-8.081454332133388,53.16689478268989],[-8.077532147736342,53.167469273600936],[-8.074051651241296,53.16476069631243],[-8.074522584713609,53.16324986013805],[-8.070945223320876,53.16138068319925],[-8.061818790925761,53.15966066536364],[-8.05734464189698,53.15689179510498],[-8.054964994912101,53.15390096451978],[-8.045658520128326,53.152495133336814],[-8.04484439981214,53.1512152487832],[-8.039314570520045,53.149621484870174],[-8.03752613131316,53.15053365397371],[-8.036997078969097,53.149558382062864],[-8.033768907269929,53.14929269910266],[-8.033164974084789,53.15033803813835],[-8.024547112185624,53.14819334748093],[-8.020076165605369,53.14811900689472],[-8.014959268525715,53.14429800280211],[-8.008835954289347,53.14388624431066],[-8.004520359843513,53.13905762574923],[-8.001596265980236,53.138251059966244],[-7.992312095648609,53.138982815365985],[-7.9838815075723915,53.13540963314754],[-7.977420265366645,53.13417389725519],[-7.973268064884238,53.130663938324425],[-7.974305101538273,53.130340966979816],[-7.974286898458491,53.12911940631754],[-7.967713908888133,53.12833079144574],[-7.9648006255062835,53.126323299649286],[-7.955250807531236,53.12537815671844],[-7.951556453980392,53.12208287834585],[-7.948039331454053,53.121833212026665],[-7.945905070527756,53.11975003692517],[-7.940484415505607,53.117929010873],[-7.937869171685587,53.11528559532866],[-7.93777570239882,53.11241354413877],[-7.936210281908905,53.10981893133339],[-7.929867730981614,53.109401175834904],[-7.928637654158664,53.10793237119325],[-7.921085308818491,53.10488907270288],[-7.919857865617059,53.10307704282325],[-7.920865596732836,53.10007562616881],[-7.925701304958187,53.09935219104649],[-7.928246127739488,53.097053280742806],[-7.927372635025473,53.09441763613962],[-7.9203384098249385,53.088844047592346],[-7.921683954439636,53.08701567920239],[-7.92067897866258,53.08516785803793],[-7.922676609106023,53.081917881020715],[-7.928507299829606,53.078380256685065],[-7.92815854875915,53.075148451756334],[-7.929263879118709,53.07392319563967],[-7.926905917240881,53.0707243522588],[-7.927046795781544,53.065787992651124],[-7.930519569071544,53.063489820186646],[-7.931558484605679,53.06131544540139],[-7.93399701157577,53.060871804817594],[-7.9352325867293345,53.0539835504835],[-7.939185977708155,53.05161267362491],[-7.936063650992238,53.0492198731844],[-7.93678835543847,53.04838866717479],[-7.936323380230879,53.044832812832134],[-7.943246109547084,53.04367898391275],[-7.9545978103212835,53.046585371657834],[-7.963534250670598,53.04188613834435],[-7.955420315568879,53.03274630228621],[-7.962166177691904,53.03100457030466],[-7.961995888736003,53.02784129890299],[-7.963660370870194,53.02507952882425],[-7.962281798099506,53.02267434564071],[-7.959861787548101,53.021846108928486],[-7.963427739863739,53.0165195590565],[-7.962767039285019,53.01151036193895],[-7.960131820288805,53.00642287782224],[-7.952774154624164,53.00219088908799],[-7.9499516552765215,52.99542791512964],[-7.9596982114160495,52.99249962910533],[-7.965857842238999,52.99581012942432],[-7.968835093722517,52.99496667400229],[-7.976341578763537,52.997271009184765],[-7.982192395430755,52.996957639051374],[-7.992779817517785,52.99881877900791],[-7.996399221976243,52.99744566953502],[-7.99721405535563,52.994660352286616],[-8.00453561728405,52.992316404247326],[-8.007945264697632,52.98506801095014],[-8.008199675935812,52.984146346023785],[-8.0044872087287,52.981536436582],[-7.996003194436689,52.97807943674137],[-7.987468047867336,52.97257494963374],[-7.986266949883466,52.97031811070677],[-7.98797409391214,52.965551999161725],[-7.97950343335087,52.95424426103956],[-7.975150076481941,52.95049323308821],[-7.975245137273674,52.94853150896602],[-7.979571763661368,52.946552638640405],[-7.983335855408039,52.947091120865494],[-7.98592135553364,52.94625948826341],[-7.986522710132725,52.94204072710475],[-7.984249641718522,52.93865193716214],[-7.98835016001544,52.93644407961517],[-7.993900257320091,52.93074045353031],[-8.012963064541552,52.92846730878717],[-8.017767280608371,52.93120667979856],[-8.02790726670131,52.93308811840434],[-8.039612197814504,52.9383544368478],[-8.045882315056005,52.939869162425275],[-8.047422677456082,52.93575458871599],[-8.049314174770691,52.933482808145186],[-8.051237700572578,52.933121036213215],[-8.051489618278005,52.930440388461],[-8.055110470956617,52.92810598907489],[-8.047554172489864,52.9192201428003],[-8.037916403942189,52.91179185001392],[-8.042958097740453,52.90290585264373],[-8.045966679610515,52.902740442318255],[-8.0474942875575,52.900105539042464],[-8.041737688424051,52.89781969000864],[-8.039629682226082,52.889151021542936],[-8.031603350738916,52.891021352112375],[-8.030533730143068,52.89015251112898],[-8.025637026917943,52.890492484143465],[-8.024277928322986,52.88705231710246],[-8.018569065214947,52.88755575490244],[-8.011616556958987,52.885573914317355],[-8.011545476754822,52.88384707441458],[-8.00725619544993,52.883873379147865],[-7.9998394268938995,52.88141948315433],[-7.994647794001408,52.88143478545344],[-7.987318432667337,52.879199831243746],[-7.991066677786655,52.87470612787115],[-7.993723995429735,52.87349550061769],[-7.99457348970341,52.86505020618939],[-7.998047059620835,52.866298933293855],[-7.9984790890746105,52.86521849747516],[-7.996158008926611,52.86430822899007],[-7.995956335068529,52.86267716873031],[-7.9883677507488065,52.858595980662514],[-7.987554276136907,52.857497155743715],[-7.9890712629719465,52.85620218178306],[-7.988619827876156,52.8551364711207],[-7.981890899339944,52.853125065889415],[-7.978695989943827,52.84944966259215],[-7.969910969143087,52.84820254496253],[-7.965660620197192,52.849367022380676],[-7.966502178337807,52.84963484403417],[-7.964559011314055,52.85071140853883],[-7.963135827713705,52.85045876295065],[-7.960215199181699,52.8538086153318],[-7.96401865217532,52.85711533296325],[-7.963474962920002,52.85801000631364],[-7.959613570538179,52.8602018005779],[-7.954603549313966,52.861362931958084],[-7.950765617014115,52.866009712982866],[-7.944999455238378,52.866544878065696],[-7.944376212671947,52.87057572109378],[-7.9458454321599685,52.87594009253016],[-7.944157685298897,52.87793742528656],[-7.944987031191924,52.8798177474914],[-7.9613047057810995,52.890979249737484],[-7.961166245709496,52.89305013128041],[-7.956433250073548,52.89413926262789],[-7.939347362565576,52.88828070185364],[-7.9351275344715555,52.88461881855369],[-7.932459190997052,52.87626210144637],[-7.92519807098435,52.87709030260786],[-7.920044860488644,52.88061536658237],[-7.914138224371906,52.882123053794395],[-7.915090507829504,52.883042571097704],[-7.912350425819179,52.88426545119883],[-7.914772192083148,52.88663920168934],[-7.9149395582049555,52.89039036966752],[-7.918928982190499,52.8931520349527],[-7.91688843369907,52.89617392371354],[-7.917360822381999,52.89697740426074],[-7.912217301075107,52.896666716023844],[-7.908637606816537,52.893696333473045],[-7.8944964669861495,52.893325524605125],[-7.893186733741354,52.894174987275704],[-7.893746857174339,52.896859631938554],[-7.887475501709722,52.89760504190833],[-7.884342530571708,52.89958242626492],[-7.891594678313123,52.90444291386071],[-7.893796673342071,52.90775409181183],[-7.891645903270625,52.90720708794006],[-7.881665975570069,52.91057893430435],[-7.8790656454151655,52.91006028427975],[-7.87394813057464,52.913691740374404],[-7.869970493697329,52.91337097390393],[-7.866683358215863,52.914575002466584],[-7.863739968739529,52.913717662645595],[-7.8606941288903815,52.91615790092996],[-7.8713644609588655,52.9237662167158],[-7.860905255121659,52.9262632881042],[-7.851071182923283,52.93137250478869],[-7.844835868969552,52.932488377010216],[-7.84338013323425,52.93383052147736],[-7.847320179204845,52.93577463398491],[-7.8499649931228825,52.93989217264852],[-7.856013497864251,52.94039409563072],[-7.862484287197554,52.942645320647394],[-7.867205659940469,52.94576780355368],[-7.8644627118019335,52.946959241266015],[-7.86268215343161,52.95183911030805],[-7.865314462524567,52.95491666631937],[-7.864563920862234,52.956320204417906],[-7.845114777603126,52.955326878430405],[-7.8446648291090435,52.95907722641493],[-7.839990440722,52.96056596579688],[-7.8374505950110676,52.96281863911821],[-7.8404791162653025,52.9646331602025],[-7.82767051147283,52.96558704845405],[-7.826073608242374,52.966693890003846],[-7.826428120183853,52.96788706014245],[-7.824101787159533,52.96834572476312],[-7.823216826364217,52.97056591792117],[-7.826142052675573,52.97277528961678],[-7.825421478586583,52.97472973469942],[-7.818994756199753,52.975531201002624],[-7.815420424421424,52.974817696966355],[-7.812531373966688,52.97844551094778],[-7.803117510854222,52.98075685221673],[-7.802038875181631,52.98185685621349],[-7.798605371663987,52.981862072639764],[-7.797192655654699,52.97965617073588],[-7.793117779243841,52.97812462734118],[-7.79352865542804,52.97449783209042],[-7.7913129466605096,52.97424166614051],[-7.790494368987512,52.973012460849446],[-7.791074584334705,52.97024545412132],[-7.781910971395942,52.97147120607936],[-7.777358788658289,52.97032007747392],[-7.774775237624893,52.971527986325235],[-7.773560789890484,52.97051224711982],[-7.7703449097681485,52.97065825490625],[-7.759651838861715,52.966226643894935],[-7.761116011406874,52.96367416263867],[-7.759400261697629,52.96085702090567],[-7.7532023757573985,52.960823310745035],[-7.747356900935662,52.96254530139729],[-7.743430843809475,52.96070085586218],[-7.730447564080735,52.95765678584341],[-7.730172173492374,52.95277352302131],[-7.7255176951787785,52.949370710923056],[-7.724552647281906,52.94774160441052],[-7.725312943630355,52.9453774961944],[-7.711250303246359,52.94218079970976],[-7.710117722771318,52.94009253921583],[-7.705680239671811,52.93819109590709],[-7.702184868851637,52.93406828632006],[-7.692965762827389,52.93457216301803],[-7.685403324510225,52.933131625887874],[-7.678822741750995,52.93482516156703],[-7.669081692027046,52.934305763261854],[-7.661032676898454,52.935323337589715],[-7.660286910934699,52.933669081446695],[-7.6641613089594,52.92693805432302],[-7.6629050920078985,52.92459573314897],[-7.665815182766037,52.92126701476517],[-7.671478268907056,52.918968505321146],[-7.675961154519467,52.9154106280798],[-7.68055519250834,52.9144013106514],[-7.684299827148391,52.914902420861786],[-7.692133679367446,52.91137012653111],[-7.699950074394949,52.904699510097835],[-7.7058191746136,52.90227522352956],[-7.708700074835648,52.89626539602849],[-7.707922421498133,52.894089977809074],[-7.708734130950654,52.89147372549038],[-7.7201227173837506,52.889943194164296],[-7.72528252450814,52.88792935124435],[-7.725213114843149,52.88488413789092],[-7.7228605490053175,52.87934177926244],[-7.720701621067164,52.87745160411624],[-7.719752015774553,52.87116817053196],[-7.717401688985767,52.86519062783056],[-7.73465140018915,52.85836204923431],[-7.732173509349305,52.851975022375015],[-7.719343468575074,52.841542371746876],[-7.716426919861719,52.83747524541832],[-7.697348982062778,52.83186064610324],[-7.694323735487623,52.829322314878524],[-7.694747008565394,52.824723707339416],[-7.688571840551552,52.81582477550154],[-7.690216838887101,52.81062166394485],[-7.6896242296001445,52.808088393599995],[-7.680366798469539,52.80524825716127],[-7.678946808606168,52.79426146504855],[-7.674206750536936,52.78126972979638],[-7.671263698415975,52.77747869902167],[-7.66736879200989,52.76094578705284],[-7.669670437404772,52.75923518685536],[-7.669873871377646,52.75565854839882],[-7.654126374790253,52.74673270735506],[-7.646183353980158,52.735073959774994],[-7.648032981083257,52.73349385338236],[-7.6478266761286555,52.73213105218987],[-7.626174449717843,52.733689202718686],[-7.61473146252431,52.72538590087862],[-7.611106117403052,52.72442163541736],[-7.6087116404951995,52.720981628150085],[-7.603498176374448,52.719623850754104],[-7.594619403220725,52.72034809037862],[-7.594215807593548,52.717615877277346],[-7.59285733256092,52.716239301224235],[-7.5871127060567956,52.7132116483806],[-7.580947796689902,52.71127369144022],[-7.576720357933599,52.71251192085095],[-7.56970815532487,52.70847167079548],[-7.561011281369731,52.70574664586249],[-7.560552675778397,52.702754289046965],[-7.553478958857472,52.70268471817328],[-7.547682338483968,52.700413935605816],[-7.546631254547881,52.69799213520883],[-7.547029104489662,52.694795693492786],[-7.541702244672731,52.69331032226661],[-7.536232018380288,52.68923266651941],[-7.533593159683439,52.68324578250102],[-7.538588818068132,52.6803375589026],[-7.535569622024818,52.679076910290384],[-7.531441288917164,52.67381666389988],[-7.527469194728515,52.672849153179364],[-7.526716946267848,52.668638951815865],[-7.51980926547953,52.66178028933732],[-7.5190197204578135,52.659149008119094],[-7.521180862662569,52.65469498187933],[-7.512302630159578,52.647017157678235],[-7.510787592279733,52.64250750751351],[-7.503701606337796,52.6384182924304],[-7.503589316144921,52.637069041909356],[-7.502155047671429,52.63680989272147],[-7.502343156098924,52.635391579477805],[-7.4993223160141165,52.634192379351305],[-7.4996591559870165,52.633266661714906],[-7.489882150224672,52.62793094930948],[-7.488298035988948,52.62513937550063],[-7.483369676730013,52.62341512502762],[-7.4821719029972185,52.620811662872164],[-7.478200085896686,52.61973830155206],[-7.478650028845099,52.61872665511249],[-7.477341244014786,52.61822366485658],[-7.477932707390824,52.61734484261574],[-7.475963664288272,52.617119040632325],[-7.475268252739311,52.61595802101343],[-7.476262752102606,52.614886389129474],[-7.474605066165824,52.61457026135683],[-7.476078353451368,52.611942820911125],[-7.4746741672181125,52.61111997555487],[-7.476301107474209,52.60738216941942],[-7.478981683918332,52.60647142848253],[-7.478429863646985,52.60547910813281],[-7.481115583385609,52.60385345992635],[-7.480635833572481,52.60034117727638],[-7.478819939244212,52.597332899209306],[-7.479954593926995,52.596116610784975],[-7.475733330523484,52.592516773496655],[-7.475575319483067,52.59068836498422],[-7.465117154990673,52.58701890953035],[-7.461106556702179,52.58458324765663],[-7.451361073480794,52.581872854841635],[-7.452769698216265,52.57868678205214],[-7.458465554881758,52.574087528659646],[-7.45526242285438,52.57396727071046],[-7.45511961407381,52.57023148209062],[-7.457598072195107,52.56726976623161],[-7.4556497569124565,52.563501583432355],[-7.458987697699545,52.56053427467095],[-7.459416621225014,52.55885131865687],[-7.459165076105642,52.55793796351067],[-7.45315797285334,52.55786111597695],[-7.451503833902012,52.55419156745049],[-7.454052489774244,52.55150194982747],[-7.454503799509679,52.54932599902603],[-7.454437834336942,52.54691801343819],[-7.452767655984981,52.54554254501199],[-7.45630937908425,52.54340368748363],[-7.456461483408624,52.539789228592475],[-7.458566989792041,52.53571518685265],[-7.457139975436844,52.52953572378352],[-7.457322651568923,52.52329068767553],[-7.458827836759981,52.52142143679694],[-7.454064602933798,52.5214952782805],[-7.4502748140790755,52.51639856983232],[-7.451726961685428,52.51592501624187],[-7.451384130264915,52.51322538300735],[-7.453433451112355,52.51203747953016],[-7.45323015605662,52.510661033541304],[-7.448424440118618,52.50915340652995],[-7.443424447258507,52.51038943007782],[-7.440003481100188,52.51387576552851],[-7.43244001106439,52.51856095014561],[-7.423728903273595,52.5139979446426],[-7.4200654972457105,52.51091001938264],[-7.425208392806779,52.504465371020615],[-7.429533526109556,52.50314619466924],[-7.430274306409025,52.497612117167265],[-7.432613771143646,52.49587928856865],[-7.432014246018411,52.49521623712157],[-7.43807889741634,52.49249409663146],[-7.439355946603887,52.493216875280645],[-7.4439295345679115,52.49131334430299],[-7.456023835895524,52.48417626907471],[-7.4568874519733415,52.482639904039324],[-7.459524290641057,52.482314897866395],[-7.458507215911543,52.48026842768512],[-7.459510941936074,52.47680413434703],[-7.46209683922988,52.47436971226489],[-7.467889710147138,52.47221743728783],[-7.462763549506329,52.46933772370053],[-7.46099234462057,52.465880615122074],[-7.4410657613436975,52.46595906610798],[-7.441050079221084,52.459619289114634],[-7.43254056307115,52.45497382187938],[-7.43056883495674,52.45505645932079],[-7.429362173850353,52.45317993368623],[-7.422945375215085,52.45207339398405],[-7.421591641483309,52.446841900542836],[-7.418694341464743,52.44198920391259],[-7.409745978551862,52.43802509273413],[-7.408367879399784,52.43539781759951],[-7.403518904396461,52.43445521023791],[-7.401499522057178,52.43167071605708],[-7.4018913251355585,52.42995165372273],[-7.399937386851039,52.42795111921646],[-7.395326886890695,52.42748888062335],[-7.3910169154578105,52.428591551741356],[-7.389323947602496,52.425553459767464],[-7.384697186734369,52.42466177443366],[-7.382449863476098,52.42032898005091],[-7.383668109914468,52.41781782734484],[-7.383212788386133,52.41650882564219],[-7.385458260486089,52.41560312683716],[-7.385478790934947,52.41040467468134],[-7.3890993176177835,52.40754779625437],[-7.390459565108827,52.39996058455668],[-7.393067156606946,52.39854550334947],[-7.394532577913441,52.3947936852762],[-7.390674142361428,52.38644561888704],[-7.388242603460561,52.383708369864635],[-7.3921544795507526,52.38045781587925],[-7.389626027646553,52.3777784202144],[-7.394024544471526,52.37234606441607],[-7.393844644551913,52.36875987404564],[-7.39536265220527,52.36865031331165],[-7.397066074257983,52.364051703178355],[-7.394958725049738,52.36316253629722],[-7.39380287173753,52.360426295224066],[-7.39056907686227,52.359558455924585],[-7.388760684460544,52.35653598001452],[-7.382983898125386,52.35494543628066],[-7.3808734676156575,52.35254505636392],[-7.376146782250197,52.35028302167211],[-7.377289546669061,52.34943845109489],[-7.375040270260758,52.34890793547206],[-7.376016739370934,52.34804131132391],[-7.373531442528481,52.34759210720417],[-7.3729259680610175,52.34703186410248],[-7.374155288777401,52.34679535712402],[-7.372139207021767,52.34563522852085],[-7.373726934242408,52.34533292784782],[-7.372299949479347,52.34446824926137],[-7.37205511035693,52.34197733351007],[-7.374288852432191,52.34056078823331],[-7.375947947059339,52.340951074283744],[-7.374365406085627,52.33854614834257],[-7.375792182474258,52.3364114151352],[-7.3787678576834965,52.33655333421096],[-7.373699896374181,52.33459737328722],[-7.374005625449909,52.33355509306435],[-7.393918587898505,52.33497209993637],[-7.408332184955485,52.33845179594738],[-7.415948181336875,52.34195205167244],[-7.417229871004577,52.34006027162888],[-7.42002443093706,52.338837229666275],[-7.431532141703112,52.33819331423071],[-7.431569037653789,52.33892768736518],[-7.437247649838443,52.339926183615596],[-7.438059420216292,52.34512512269815],[-7.4370707957346065,52.347935831360964],[-7.445608109742645,52.34956840780578],[-7.482987410698007,52.35132267611252],[-7.487679503002162,52.352768620723225],[-7.5087617209648,52.35548459422914],[-7.5163184440082595,52.359071495025056],[-7.531814827467048,52.3604918585476],[-7.543562541015588,52.359821952138915],[-7.550114991959009,52.36156317934003],[-7.555995601965227,52.3616047979395],[-7.562385682290293,52.36061270787483],[-7.564672997950834,52.35826012948278],[-7.571987761908915,52.358418142887395],[-7.597050763527792,52.36389299125401],[-7.608469458414024,52.36211415288946],[-7.620805179528153,52.362458932585945],[-7.624879142832984,52.35968693545085],[-7.628669840601067,52.35861671206199],[-7.6411909150299575,52.3586725588684],[-7.647094762458796,52.357110360058876],[-7.654629805671081,52.357452952259855],[-7.66194196071612,52.35918689335698],[-7.673598373639721,52.35629760050225],[-7.672267541655292,52.35363789533914],[-7.67378700737503,52.352815366453484],[-7.679212222596949,52.35281187245951],[-7.692124384754628,52.34909855377892],[-7.701946813284605,52.34833026077959],[-7.702151200134239,52.34763989476927],[-7.70023683791314,52.347290103181685],[-7.705772553552822,52.34632455072734],[-7.70721563969978,52.34499455026242],[-7.709667192414434,52.34480008412557],[-7.709838575895438,52.346919727826304],[-7.7158189271337525,52.34546736870272],[-7.716798411402633,52.3497676135593],[-7.723039415688497,52.34977603275231],[-7.736993180461851,52.34744348674507],[-7.7371851932783535,52.345135907697816],[-7.7386087960650665,52.34391197664312],[-7.751536094611058,52.341011528061074]]]}}]}