{"type":"FeatureCollection","features":[{"type":"Feature","properties":{"name":"County Waterford","source":"Tailte \u00c9ireann Counties National Statutory Boundaries 2019 (CC BY 4.0)","simplify_tolerance_m":75},"geometry":{"type":"Polygon","coordinates":[[[-7.594631844327828,52.09695641589014],[-7.587905598334489,52.09823892186517],[-7.593488445836378,52.09693392594787],[-7.597077283609752,52.09182649766842],[-7.61224055876459,52.08737308375513],[-7.615592020246958,52.091659617353706],[-7.61980925570449,52.091462422555885],[-7.620246593356488,52.09227944779729],[-7.618998850224285,52.09226292746542],[-7.6209375390648395,52.09352380956888],[-7.618460855162408,52.09393710244571],[-7.618646786694274,52.09611715757891],[-7.617079881968315,52.09722063256655],[-7.618771207650178,52.100356103613926],[-7.618040916603785,52.10166402119904],[-7.626914592111378,52.10364383697631],[-7.624649685021972,52.10418301879372],[-7.625475318006775,52.10495736545088],[-7.630193862602431,52.10387025124853],[-7.629453245714335,52.10425051014672],[-7.6378631810399,52.104907532698036],[-7.638332309013244,52.10400803680384],[-7.638351584030328,52.10499794958841],[-7.639618014024803,52.10538870785344],[-7.638737332147036,52.104951877684776],[-7.641492572854245,52.104759386371626],[-7.639279615133721,52.10421751187014],[-7.641630053899896,52.104085333973586],[-7.643294446341626,52.105759792475446],[-7.645788181171253,52.10623089282569],[-7.642239784505203,52.10363441658064],[-7.638537421762548,52.10280467920413],[-7.638228045365327,52.103563693985315],[-7.637614393256119,52.10229816368619],[-7.6320090060490475,52.10119979152524],[-7.6235351947520265,52.10133296013614],[-7.622356375064308,52.099651524858665],[-7.6230531621676185,52.09867534250568],[-7.622644853265438,52.094164234447696],[-7.621586709149751,52.093888632467156],[-7.622235989724096,52.09295089086972],[-7.61885997164405,52.09008705061523],[-7.615259060608052,52.08917242871682],[-7.615480034281275,52.087795547762795],[-7.616558794913303,52.086662730226045],[-7.6210204795126835,52.086132394846864],[-7.622659080965458,52.082182733569695],[-7.627196473315992,52.0841465838734],[-7.632116232715933,52.08464698156529],[-7.63552958129242,52.08181098928628],[-7.635324074175664,52.0793663884239],[-7.63081908032351,52.07700102069182],[-7.631429405696608,52.07614146960694],[-7.63483376641697,52.07666232934282],[-7.634237939244873,52.0746447732118],[-7.632122533241803,52.073047961784816],[-7.634267430244875,52.07091782764751],[-7.6278240547089755,52.066317480051765],[-7.634508095023281,52.06663519237525],[-7.636097510312454,52.06617299192527],[-7.6372818622974865,52.06372472469638],[-7.63965553596149,52.0633703901304],[-7.648688231668608,52.064584386349544],[-7.649253258400157,52.06541677131556],[-7.6480032991336495,52.06620465431016],[-7.64876050695461,52.06676758805541],[-7.647891381258705,52.06651905805641],[-7.6486865979693475,52.066881769754566],[-7.649993109798618,52.06631215468376],[-7.650350958518112,52.066666085778046],[-7.648520833538404,52.068210637606356],[-7.6485163954663316,52.068458233064895],[-7.648699574469673,52.06883767994556],[-7.648662398683471,52.06825368510561],[-7.650788815584555,52.06887450450757],[-7.6517103900755545,52.06846755245622],[-7.652031697024356,52.06918253590045],[-7.655217527415086,52.06961097001681],[-7.65630561622654,52.06958236297713],[-7.660673512003735,52.06707908428504],[-7.665424337399887,52.06846991996515],[-7.660608457191465,52.066975830074696],[-7.656144084793219,52.06945780890709],[-7.651774501248376,52.06836911549886],[-7.64940403906185,52.068349593887305],[-7.6508715998764645,52.066565299249184],[-7.650155198642583,52.066005241821706],[-7.6492771645333075,52.066157538464786],[-7.648921737000597,52.06608046102468],[-7.649962945545085,52.06589088928177],[-7.648546876583735,52.06389733708649],[-7.649933760502672,52.06267698421933],[-7.648183487617262,52.06396357099939],[-7.647516247300377,52.06382268958389],[-7.648141866810613,52.063822212793134],[-7.649220222023605,52.062511129494126],[-7.647704301174652,52.062661586157006],[-7.648660016998254,52.06301308339019],[-7.648095947450438,52.063723089675506],[-7.643318803932306,52.06365753788483],[-7.64527505733928,52.06269443557631],[-7.642234286940753,52.06223027016722],[-7.640404005493257,52.06113619489598],[-7.640120196875218,52.0597557525398],[-7.638248181385333,52.06122215672921],[-7.633150676324591,52.061145806291975],[-7.631554686236121,52.06009970276074],[-7.632686354916214,52.06385575377419],[-7.6291539249663645,52.06235922679997],[-7.62374256628086,52.061920198514834],[-7.622131365523472,52.06429614882043],[-7.6205391216182585,52.06468193494266],[-7.618849573118431,52.06251305445519],[-7.619715771930924,52.06109138514641],[-7.6197204872340665,52.0605155332299],[-7.619485626006696,52.06037319048402],[-7.617687951318293,52.06282039916189],[-7.613243120166869,52.0635939663374],[-7.61148012820443,52.06276486266023],[-7.6108023469232595,52.06430496560133],[-7.608409142398003,52.063608693196684],[-7.609093326968545,52.0646509029616],[-7.607009867612743,52.06431709204947],[-7.606824377260173,52.06307890397909],[-7.607190374356966,52.06323858127199],[-7.60806419008326,52.063281562927095],[-7.608138239937362,52.06326076605083],[-7.606928705117111,52.06252132672657],[-7.606090318712586,52.06256739157268],[-7.606676775624103,52.063077000242735],[-7.605533054265372,52.06301988254818],[-7.606186732445269,52.06369985213354],[-7.6051687709036075,52.06459680501159],[-7.606159344121784,52.068827909305526],[-7.610769446964306,52.07760567461218],[-7.610211206209779,52.07855106345881],[-7.611440376910561,52.08156276510266],[-7.609833805109702,52.08228741166128],[-7.610604769149997,52.08522073851112],[-7.608641356578455,52.081190740526715],[-7.604271362755735,52.06343021382495],[-7.601253658764257,52.059095914018776],[-7.595341569100343,52.05744706556826],[-7.588737872012774,52.05153767430309],[-7.571946759088181,52.05148844421087],[-7.566280383648411,52.050552047843446],[-7.56498035409254,52.05106876896773],[-7.565718855015709,52.05183188712195],[-7.564782480460549,52.05106660914341],[-7.5597360898829855,52.05165231884487],[-7.551841414802125,52.05408591571232],[-7.544164398219885,52.054800632772675],[-7.546128122790626,52.05522843683312],[-7.537298565234955,52.05427605894421],[-7.536668030239704,52.052200302791185],[-7.538621304777321,52.05199822628395],[-7.538839313851787,52.05091301401766],[-7.540355104918894,52.05152847794853],[-7.539771726285027,52.050642603192884],[-7.5408977911335,52.05003928685931],[-7.539614599535205,52.04852022294166],[-7.5458096522343405,52.046934057814944],[-7.546887880108336,52.044706640783325],[-7.559894260231368,52.04257082966056],[-7.559680491249234,52.04150059416412],[-7.560823481933831,52.04100524297439],[-7.5670711833450675,52.040867324435034],[-7.56871721101088,52.03783231593239],[-7.571012230537556,52.037605334870854],[-7.575659110637101,52.034320946875745],[-7.577768359806249,52.03140720139718],[-7.576883638181855,52.02763211994512],[-7.575213527179684,52.02765501028628],[-7.57699471866651,52.02543170627994],[-7.576403380039477,52.02426931743733],[-7.581870971829686,52.02356419049356],[-7.581576954837471,52.02279927025876],[-7.583954824114882,52.0218476743942],[-7.585805334158085,52.01897850364699],[-7.580699015684354,52.010454252519494],[-7.577666620328775,52.008412620128624],[-7.580152174994967,52.006231705725035],[-7.579019367123656,52.005670810569974],[-7.580389357617889,52.004007747788066],[-7.579033238089412,52.00272991846639],[-7.583334705091188,52.00167087820965],[-7.582421084661776,51.99666171021294],[-7.583940622457478,51.996119492693026],[-7.5833767719278145,51.994295339473965],[-7.586262046480404,51.99151767307566],[-7.589944151815328,51.992232791581664],[-7.595828230708442,51.988486186976544],[-7.598915303561097,51.98956836023929],[-7.603166646727852,51.98677560566032],[-7.604775849658261,51.98779132279726],[-7.607023666842869,51.98673347060152],[-7.606424166484266,51.98508751494527],[-7.609030173563225,51.98593418075698],[-7.610455960607483,51.98296931700579],[-7.613120024346366,51.98141290548264],[-7.614854737133562,51.982115854122014],[-7.6177315746522964,51.980755285251455],[-7.619502638217031,51.981913767881565],[-7.623775521005354,51.98045591414062],[-7.632936963018331,51.981196567299996],[-7.634754375432944,51.98065337275514],[-7.634340207777023,51.979193047145415],[-7.636155771999981,51.97935460311235],[-7.639439312897588,51.97692832528534],[-7.644482550761033,51.97710376118168],[-7.6487781860347726,51.97865858737799],[-7.655475145748715,51.97659448989347],[-7.663527781979308,51.97637586678349],[-7.663945284755209,51.97526873538943],[-7.66531609882077,51.97586783121507],[-7.667080650539088,51.9748608806849],[-7.689293319761935,51.97553022586183],[-7.70184686886411,51.972221922310105],[-7.7097800258666265,51.96649534218222],[-7.710692491851432,51.963688964171745],[-7.708720214112514,51.96278170805191],[-7.710490341592385,51.96162894672561],[-7.710028030956957,51.96066125974733],[-7.718214795853057,51.95929085858116],[-7.7221201405452256,51.95247416058805],[-7.7194808138921545,51.94990123210207],[-7.70764782121717,51.94794474581932],[-7.708653920810047,51.94610753260172],[-7.707491007651441,51.94587900512796],[-7.709745501511195,51.942551887059714],[-7.708271422495036,51.94212319442567],[-7.709233651198263,51.941200785333976],[-7.711514313850798,51.941010756907936],[-7.711866426527893,51.941778658823154],[-7.7120084689133686,51.94076554853461],[-7.713041852300657,51.940887842467816],[-7.714084493754319,51.94281480972903],[-7.717171620877563,51.942368505511354],[-7.7212424236259265,51.939230385168976],[-7.7272372896011365,51.939785758842085],[-7.726964414185716,51.9407614141111],[-7.72842705562317,51.940114759477325],[-7.7292710257890525,51.94124815160424],[-7.728907867814657,51.940065942110145],[-7.732385322918146,51.93804242471583],[-7.735695566622003,51.939192947142594],[-7.7370178076484475,51.938000798585186],[-7.73980719060317,51.939089840753624],[-7.745137536802347,51.93855246412563],[-7.7481500971893595,51.940585996561346],[-7.75712293030997,51.941293170005515],[-7.758190789451833,51.94249159097483],[-7.757901890289098,51.94421482538035],[-7.759233902480556,51.94464965303541],[-7.758749915293312,51.94542288312585],[-7.764434260079136,51.94523426008936],[-7.765075957080823,51.946352929958024],[-7.763085369346452,51.9475208927489],[-7.764595456670342,51.949109774625654],[-7.7748721974818755,51.95175442968169],[-7.785412785363997,51.94927988633631],[-7.78954206919272,51.949786934051254],[-7.793018279741861,51.94888994602632],[-7.794893151164878,51.945734133398076],[-7.795452511361629,51.941765097171114],[-7.801747078446452,51.942083309116484],[-7.8115953729733745,51.939128696163095],[-7.818520747066133,51.93876295006013],[-7.822300472140908,51.94099007970231],[-7.829610222433876,51.940902032389324],[-7.833083176105066,51.94355780543334],[-7.832262247855816,51.95048056937133],[-7.831282419725437,51.95114221189609],[-7.831936826883014,51.953153515719194],[-7.842150018185995,51.95422001713499],[-7.8446238404718,51.96696115781193],[-7.846989642988311,51.971837840466726],[-7.8552066484958125,51.980138977208355],[-7.860995042964875,51.97562158830942],[-7.8729432946174605,51.97476958532272],[-7.87546310429232,51.9723412666877],[-7.877768005804976,51.97277452554771],[-7.879169433071513,51.97518116512619],[-7.882342441754111,51.97485846276382],[-7.884367708683944,51.97718738469164],[-7.886379555203809,51.97545593594669],[-7.888518486349226,51.97699042829492],[-7.8901869159757,51.97565984089885],[-7.899288226929736,51.97576954233495],[-7.910055569102295,51.97407978204928],[-7.91491842399281,51.97705490485423],[-7.917737362477408,51.97575027278713],[-7.919798421554873,51.97628509376937],[-7.921019773878558,51.980794422630595],[-7.925620267147708,51.986305378040804],[-7.925475155125398,51.99139495649294],[-7.930227618596936,52.00016783902483],[-7.9302882285260585,52.003085391956766],[-7.927752066154375,52.00780040521137],[-7.9327653604684,52.00971290857652],[-7.9340616694590596,52.01185731166899],[-7.937891767903848,52.01380710335399],[-7.9582588962649545,52.019102259915925],[-7.9572828288698565,52.02252501863928],[-7.960940860219846,52.02309359843554],[-7.961687828665359,52.02627108439529],[-7.957097634213145,52.036201733895666],[-7.96251923716904,52.03671562819822],[-7.967958196714552,52.035409146295386],[-7.973320005695416,52.03245736764338],[-7.980571538797972,52.03554892821804],[-7.986729631688705,52.03454242960749],[-7.9871300388027535,52.03707785432542],[-7.989523968521702,52.03957791050572],[-7.995286752071128,52.043148221187764],[-7.999841963630827,52.04411665500108],[-8.002847169760768,52.04882691681958],[-8.007918544666744,52.05132462052027],[-8.013872945749592,52.05128176824987],[-8.022242572675776,52.055626438375974],[-8.021806726259152,52.059622387896844],[-8.019449184411636,52.060025385861486],[-8.018026491771911,52.06225676152853],[-8.021452032681,52.066383387887306],[-8.017911904384865,52.06928183990066],[-8.015389518214658,52.06980007218938],[-8.016021897644416,52.07111146437395],[-8.013908190045571,52.072565664472954],[-8.013780492478013,52.074212035519956],[-8.016978139453071,52.07683669032012],[-8.016409811636501,52.082177788585874],[-8.021579097668134,52.08245239213644],[-8.020462888780873,52.08442026891927],[-8.02265489131164,52.08444877619511],[-8.02082585842909,52.087167368298786],[-8.022073051767526,52.08728296266543],[-8.021672246457653,52.089391415517056],[-8.024086955273006,52.08923126008737],[-8.025804871357899,52.095634697983385],[-8.027350455977633,52.095330922487825],[-8.02882674566123,52.09754814270967],[-8.027699690156368,52.09962940773811],[-8.026614358136548,52.099691357038566],[-8.029006762024158,52.10083457596975],[-8.028176558951433,52.10328380931699],[-8.03768412084554,52.103481370960395],[-8.044377661760823,52.109919645976234],[-8.042616347305811,52.11181297968186],[-8.045851864341445,52.11502838350308],[-8.070734271657537,52.11714890135643],[-8.070298594788413,52.12132693089621],[-8.071286580492275,52.12550166788475],[-8.08053081407179,52.12539298472756],[-8.082876651807938,52.12865998828834],[-8.08310559152108,52.13175448530286],[-8.081470754737182,52.13198474099463],[-8.0820818569813,52.136755092308185],[-8.07848068050195,52.137080420266265],[-8.073078602162143,52.12982196590751],[-8.071264586526679,52.12559319604117],[-8.062272088250404,52.1261781630258],[-8.062571831844046,52.12820277344036],[-8.06065888963638,52.132538846416985],[-8.062121433835294,52.1341002716302],[-8.062401828498391,52.136775479292],[-8.067551383403135,52.13781684986436],[-8.066199193294088,52.140353249228475],[-8.07370894898124,52.14391928502876],[-8.081268840766047,52.140567855466955],[-8.084979213430032,52.14059339335487],[-8.084891443020126,52.13898806256821],[-8.09483373857695,52.13851832086136],[-8.095686491459448,52.14219223146248],[-8.09733242739817,52.14283420159904],[-8.109652466132156,52.14095497753546],[-8.111021042244223,52.14516584146244],[-8.1426190600134,52.140889708497774],[-8.15641530694801,52.140617171964834],[-8.16269527729018,52.14165732471956],[-8.161003483245597,52.1427188380365],[-8.161068816910849,52.144561050884136],[-8.153876463476786,52.145965044434654],[-8.15254446100202,52.148808634607036],[-8.155685159929194,52.1515700663045],[-8.157326078920768,52.154964181753456],[-8.15739580513107,52.15992493327392],[-8.154315947911922,52.16491664690857],[-8.151960754623664,52.16545823723196],[-8.137955033338654,52.16380105224677],[-8.134994001314006,52.167143180610445],[-8.133754583874287,52.17130148289593],[-8.128690545590834,52.17451147742587],[-8.123514492393788,52.184925063634466],[-8.11985826710398,52.19541552937097],[-8.120688189192164,52.19739028834983],[-8.125390834272276,52.20119958762424],[-8.124442044860292,52.201944755455614],[-8.11954867712058,52.202478788540986],[-8.116272123923203,52.20493920574207],[-8.10794509743012,52.2062450438558],[-8.101658210032369,52.20654416069897],[-8.099131252213047,52.20532496612939],[-8.08953782849987,52.20674851138878],[-8.084049995888627,52.20582527653706],[-8.0827147262584,52.20708563091703],[-8.080033455908088,52.20581225767293],[-8.077030969521656,52.208106553926385],[-8.074899111497007,52.20696130522207],[-8.073604445152489,52.20822266300081],[-8.067469829111332,52.20704291807757],[-8.064842045404905,52.208160207811424],[-8.063036769546782,52.207388529392134],[-8.061356373110463,52.20893363119462],[-8.057504454998972,52.20852212842789],[-8.056370929868667,52.207480808438184],[-8.05144204059597,52.20756380494679],[-8.051891776932333,52.20843548131507],[-8.044202131359656,52.207437994022776],[-8.042890487632533,52.20830447265903],[-8.033039053219387,52.207024725932676],[-8.022007672526788,52.20839479766565],[-8.015103417330627,52.20500266281043],[-8.008390805791707,52.203650446731714],[-8.006013324835804,52.20208495443429],[-8.002793526807864,52.20217743316203],[-7.995002987580304,52.20533526815546],[-7.990373610491675,52.20917678956488],[-7.990454912658908,52.212139349700216],[-7.994722827075923,52.21697586257681],[-7.994358986086076,52.22129739708802],[-7.996904649846529,52.22520991276331],[-7.99306264549167,52.228198361944294],[-7.990930640272652,52.23322498087606],[-7.9906373196178,52.23651048736834],[-7.99173836838714,52.237917971170276],[-7.990891875569785,52.24294853814474],[-7.984087859803862,52.24154770648574],[-7.97997545981327,52.237782595582324],[-7.9733465028159465,52.23792925560185],[-7.972261272761254,52.24237524957858],[-7.95234339391635,52.24217576907881],[-7.942497681339093,52.24629861965116],[-7.940898638770758,52.24285634429833],[-7.936822105609817,52.239830068711946],[-7.930643776349171,52.23582954232645],[-7.921922682711741,52.233915164664566],[-7.915915016285126,52.22791533539343],[-7.906020051240065,52.22830415390007],[-7.891552728120705,52.22492325726152],[-7.885867967032967,52.22568982377448],[-7.875589620983385,52.22972349733181],[-7.876114154012624,52.22736884687461],[-7.87183296752018,52.225445309509844],[-7.866257010452681,52.224135518597976],[-7.857909478324478,52.22395334487985],[-7.8501343807241115,52.227233392307575],[-7.8203560245959745,52.22125192365034],[-7.815284161886772,52.21765295678359],[-7.814856567713781,52.215440465291195],[-7.812153637467035,52.21293209644824],[-7.811422804760192,52.21064986785673],[-7.807884714412438,52.21242387293082],[-7.8032936923298415,52.2178726268708],[-7.795881042106385,52.220981881932076],[-7.785653325375859,52.221384240778264],[-7.780326254524112,52.219064630911085],[-7.773043252076707,52.21764463787763],[-7.76750245569544,52.21866702840645],[-7.759038495526868,52.21528964809304],[-7.746751690537159,52.21612153281767],[-7.745989535886358,52.21648921250532],[-7.7478107322285,52.22101560360768],[-7.749573398650411,52.222685036444716],[-7.748024955134368,52.224413037631095],[-7.749419546202435,52.2246582508032],[-7.748716562635173,52.227657447969385],[-7.75138392557354,52.23026697328771],[-7.75111154411664,52.23249483755704],[-7.75274415844254,52.23398991592424],[-7.751324781483784,52.235753678763274],[-7.750024424485113,52.24099919010441],[-7.746823996544387,52.24221847313666],[-7.745856204686824,52.243955333927765],[-7.748490079185746,52.24927611851647],[-7.747791065994879,52.251463571535346],[-7.7532448475073865,52.25584079290649],[-7.753752226581079,52.25811406415844],[-7.761835891991502,52.26595121206566],[-7.761645354539424,52.268731501770915],[-7.762840895991165,52.27133444155445],[-7.766397065880912,52.271058156014305],[-7.768984390739164,52.27192078375855],[-7.768328417242521,52.27245854385658],[-7.772043211618986,52.27213923622085],[-7.773945953406172,52.27071337693677],[-7.776284415231134,52.271562379521235],[-7.775845260165612,52.27263428882647],[-7.777654608595844,52.27443618906975],[-7.7817423325151776,52.27345152102403],[-7.781013445630892,52.2752291995543],[-7.784801074520702,52.27737578440318],[-7.783098703312968,52.27992538758809],[-7.783716974854959,52.28185304977826],[-7.787112330494841,52.28553246649011],[-7.787634373415412,52.287614445911295],[-7.792993651650961,52.29069109749034],[-7.794399447134562,52.29637674921601],[-7.796565839461887,52.29830574649587],[-7.7965318318666945,52.300943643198906],[-7.79323498328462,52.305551200235975],[-7.79346436015276,52.311050464842644],[-7.790426607358239,52.31916155245938],[-7.791006191281651,52.32476335058712],[-7.793478017441101,52.32820283924511],[-7.7885975556759295,52.32983166783825],[-7.7866008968976335,52.3331479853523],[-7.7894344265987066,52.33807538603673],[-7.789535886932276,52.34124913662081],[-7.780069797705609,52.34308006171111],[-7.761640022137936,52.34247695195612],[-7.752553296468675,52.34095450942227],[-7.747333962598818,52.34153627231838],[-7.738278851069789,52.34406558744621],[-7.736993180461851,52.34744348674507],[-7.722789795664649,52.34979799952037],[-7.716798411402633,52.3497676135593],[-7.7158189271337525,52.34546736870272],[-7.709838575895438,52.346919727826304],[-7.709667192414434,52.34480008412557],[-7.7086656767827915,52.344726169718435],[-7.705772553552822,52.34632455072734],[-7.70023683791314,52.347290103181685],[-7.702151200134239,52.34763989476927],[-7.701946813284605,52.34833026077959],[-7.692124384754628,52.34909855377892],[-7.679212222596949,52.35281187245951],[-7.67378700737503,52.352815366453484],[-7.672267541655292,52.35363789533914],[-7.673598373639721,52.35629760050225],[-7.662294691455052,52.359130941892076],[-7.647094762458796,52.357110360058876],[-7.6411909150299575,52.3586725588684],[-7.628669840601067,52.35861671206199],[-7.624879142832984,52.35968693545085],[-7.620805179528153,52.362458932585945],[-7.608469458414024,52.36211415288946],[-7.597441590563188,52.363886395280936],[-7.571987761908915,52.358418142887395],[-7.564672997950834,52.35826012948278],[-7.562385682290293,52.36061270787483],[-7.555995601965227,52.3616047979395],[-7.550114991959009,52.36156317934003],[-7.543562541015588,52.359821952138915],[-7.531814827467048,52.3604918585476],[-7.5163184440082595,52.359071495025056],[-7.5087617209648,52.35548459422914],[-7.487679503002162,52.352768620723225],[-7.482987410698007,52.35132267611252],[-7.445608109742645,52.34956840780578],[-7.4370707957346065,52.347935831360964],[-7.438059420216292,52.34512512269815],[-7.437247649838443,52.339926183615596],[-7.431569037653789,52.33892768736518],[-7.431532141703112,52.33819331423071],[-7.42002443093706,52.338837229666275],[-7.417229871004577,52.34006027162888],[-7.415948181336875,52.34195205167244],[-7.408332184955485,52.33845179594738],[-7.393918587898505,52.33497209993637],[-7.374005625449909,52.33355509306435],[-7.373699896374181,52.33459737328722],[-7.378827590146939,52.336269851260425],[-7.374746584066081,52.33738444834205],[-7.374527689918998,52.339057964276456],[-7.375947947059339,52.340951074283744],[-7.374288852432191,52.34056078823331],[-7.372060661815185,52.34193664468907],[-7.372045341294974,52.34302118066767],[-7.35924700856601,52.342401443366604],[-7.357212670929089,52.34118162518692],[-7.357241170454339,52.337409569175776],[-7.35568786628844,52.33597602812121],[-7.323929260025705,52.3308612714252],[-7.323363377344492,52.32917464980373],[-7.317978370791858,52.324237964875884],[-7.310694926751985,52.32135432649246],[-7.303559842475778,52.31644750195098],[-7.299838816016701,52.31107019217424],[-7.3012036432826255,52.304186718603496],[-7.295339363608493,52.30065288851744],[-7.285173574356816,52.29767830419683],[-7.2839221019359135,52.296187884246045],[-7.284264517425014,52.29147487127929],[-7.2832042880443915,52.288941255911965],[-7.276292914306565,52.283061128697284],[-7.265000248058587,52.26740331191313],[-7.2589037464049895,52.26451843750456],[-7.246654808703258,52.26335937336449],[-7.23976945564143,52.26145650600961],[-7.236914946860701,52.25950172868857],[-7.230171333233743,52.24833953260868],[-7.219144148770311,52.243129833082875],[-7.212454381430497,52.243104898474776],[-7.199018851476256,52.2496336977248],[-7.191963270253009,52.25741936450966],[-7.180664991071887,52.26483388053657],[-7.1722246275414285,52.272341333401805],[-7.158451313562397,52.27947742360565],[-7.1507557732365825,52.27916362998663],[-7.132886837455946,52.268964615147745],[-7.105232051930311,52.2667272476157],[-7.105102034557974,52.268690670723124],[-7.100299387565173,52.270386786349924],[-7.097979827829798,52.26817124447567],[-7.09904975047301,52.2676090529507],[-7.096007710193176,52.26667364897019],[-7.09667108939431,52.26572804723963],[-7.1006119531317475,52.266350992473356],[-7.096850883852172,52.25751796954303],[-7.092080964703279,52.25263890509708],[-7.087833816009582,52.25163098126176],[-7.069926062215433,52.25676992509939],[-7.042754641191378,52.25563041372956],[-7.03794025810741,52.25634784401456],[-7.034372739106495,52.262298549293654],[-7.030070526949053,52.266237464341096],[-7.021175017316245,52.271278366953084],[-7.000172085916484,52.275699842640606],[-6.9886731910676545,52.274680157759654],[-6.9850683403189375,52.27201720149874],[-6.983617832905073,52.269279401090174],[-6.983697183996379,52.26637210453885],[-6.98575374790006,52.26370189335707],[-6.991050273745504,52.26019570445565],[-6.992132915974263,52.25701366539442],[-6.990768720924754,52.25365577176287],[-6.985156932495001,52.24834868063658],[-6.9657131916602575,52.240508459168254],[-6.970069104591413,52.239348522421956],[-6.971410341627576,52.2372179558722],[-6.971479725157925,52.23466498028337],[-6.969167279499512,52.23008613319289],[-6.96867673233794,52.226611404695845],[-6.970780542386046,52.22165278638686],[-6.974722365338077,52.21794955942154],[-6.976592008274097,52.21353482786404],[-6.9740528594538365,52.209900851461164],[-6.971208530350115,52.20882224326048],[-6.971131431620622,52.20706089156931],[-6.976289813812833,52.203162899707436],[-6.980817343694578,52.19737611513491],[-6.983302214964934,52.189627017860296],[-6.982855521523507,52.1871113419028],[-6.981337434937809,52.18583417802969],[-6.977769830384115,52.18609158202568],[-6.9729359101951776,52.184611540840415],[-6.9731467086920675,52.18355553477044],[-6.974944689045885,52.18295071855646],[-6.9745822650816445,52.18151808436881],[-6.969787691840265,52.177514447116316],[-6.953936365361816,52.18016576976974],[-6.949998736438234,52.17956037896879],[-6.9514649613827055,52.17728672389263],[-6.962233536994825,52.175904912591655],[-6.971863961065478,52.17205771340082],[-6.972805468591758,52.16951967896887],[-6.974571219889032,52.169113264896076],[-6.97463166359357,52.16391559418894],[-6.976741892270935,52.161851076099964],[-6.983445276765042,52.159646637479845],[-6.987406358181465,52.15495165880972],[-6.989522836705977,52.1545989470048],[-6.991420000535095,52.15590067797931],[-6.9944509336630345,52.15501518005974],[-6.994691511009,52.15430961012706],[-6.992919545038789,52.15359520591275],[-6.993720507578483,52.15253679935324],[-6.991845854595712,52.15209523812706],[-6.993929198828225,52.150334311193255],[-6.992950705191251,52.14982078258364],[-6.993739127542145,52.14911264525515],[-6.99085032205373,52.1488796230793],[-6.992211224562671,52.1480898277419],[-6.992299914635347,52.147134118784194],[-6.990389283150234,52.14743013184514],[-6.9900399718537765,52.14972643500164],[-6.988963972941582,52.148848869610646],[-6.9900202818031465,52.14541945498434],[-6.993226612447671,52.14476427278694],[-6.999507722842287,52.1408900002362],[-7.003170747895658,52.14097685869782],[-7.008918487460481,52.13843456218527],[-7.010611609391674,52.139094438567135],[-7.013530882138807,52.1380876284804],[-7.016468949311648,52.13970742630629],[-7.016094443254832,52.13751078391507],[-7.017966794693278,52.13700244281185],[-7.018990728470484,52.13507694305856],[-7.0220099563940686,52.13475659635049],[-7.023831148650174,52.13322489601911],[-7.024615324115293,52.13397595135158],[-7.0259598905893945,52.133372264529775],[-7.027106337649011,52.13484028941733],[-7.03476264294306,52.13265817930241],[-7.034271304201894,52.13442533974324],[-7.0355354651087465,52.13382866123639],[-7.035419541135717,52.134824809595635],[-7.039700615311353,52.1352951164471],[-7.041087041368382,52.13757243717541],[-7.043096329378613,52.135862737786354],[-7.045368772223019,52.13749064905559],[-7.049708049546898,52.13808815883359],[-7.049466371158329,52.13891600135844],[-7.0546554486585915,52.137798534264086],[-7.056035363038875,52.139712411243806],[-7.056944015964222,52.13940824556197],[-7.055744207326592,52.13749452698701],[-7.057128907245983,52.13707071467619],[-7.063038748225935,52.13626302777362],[-7.063982823043677,52.136916460906455],[-7.0743138293133665,52.134226542632945],[-7.078942847263349,52.135093511119024],[-7.081797986479034,52.133789745916985],[-7.081172900554201,52.13478761571544],[-7.082104358004297,52.1350108763199],[-7.08756656195388,52.13247229078615],[-7.087938660388607,52.13109176223394],[-7.09376584730244,52.12975032252941],[-7.097011424923952,52.12731915755351],[-7.096972109513057,52.12812532782072],[-7.09876980761478,52.12731698623425],[-7.0984571724928225,52.12901081348761],[-7.102952382488278,52.129215805211466],[-7.103751256847025,52.12900070388575],[-7.103444089280827,52.12811262362508],[-7.103912138431891,52.1278031194403],[-7.107855592244192,52.127618855308576],[-7.108744611908812,52.12849537632847],[-7.106152839284799,52.131026878765546],[-7.105756668211133,52.13329350154574],[-7.107171293651962,52.13311191740476],[-7.107977803816909,52.13378729086721],[-7.0919820413753545,52.14299263340739],[-7.091557476634931,52.143954130369735],[-7.093297055082926,52.146830047684304],[-7.087656871064309,52.149416906103994],[-7.079695332151227,52.15553198265898],[-7.077520111308577,52.15852306052514],[-7.074086878241134,52.1578645646277],[-7.070867649807337,52.15935525012414],[-7.066394390369078,52.15958048567039],[-7.063944589415576,52.159967743131254],[-7.062551104476772,52.16042057367414],[-7.062460831919897,52.16066348590282],[-7.070977137197851,52.16002976811815],[-7.073573903909568,52.15891096748787],[-7.077736764047878,52.16028332212319],[-7.077658345066769,52.161686209655755],[-7.070008179262842,52.17010561867033],[-7.070504899020769,52.17158638290901],[-7.074063033980879,52.16636729005992],[-7.075693215150401,52.16634722880947],[-7.083532800704757,52.161604586595175],[-7.088454670553605,52.162898318002966],[-7.098729860732154,52.168956000350505],[-7.107404343739437,52.17017146665183],[-7.12272262054385,52.16950062254149],[-7.123855906263615,52.16720597798517],[-7.1201641344388324,52.16156972213652],[-7.123904178499872,52.16684784686027],[-7.126530767016766,52.16628948585696],[-7.127286369505729,52.16709567296882],[-7.12427677243744,52.168226476037624],[-7.133134027954219,52.17033440591109],[-7.135009627989219,52.17323169099058],[-7.136285039742655,52.173920826182986],[-7.136017674311542,52.172404056704764],[-7.1351648141450505,52.17247064516532],[-7.134779226309466,52.17228076637857],[-7.1354761039556,52.17126766782774],[-7.130683334833101,52.16904302086511],[-7.132902952898111,52.16436976164885],[-7.135663335662807,52.16180756616822],[-7.130744194245445,52.162338974801635],[-7.129179466565851,52.16138415644943],[-7.13512516088841,52.159733871553726],[-7.121159825953727,52.15755286098542],[-7.12151847839824,52.15927742004565],[-7.118415242129889,52.15830801400697],[-7.118821211451726,52.15673987805524],[-7.118152308076603,52.15809300928672],[-7.117372283246087,52.15721264423407],[-7.119445600355856,52.16072945372851],[-7.116563700504322,52.15659370283746],[-7.116094500430856,52.1573952788023],[-7.113198750412183,52.15411367148925],[-7.098262587897407,52.154720495229846],[-7.095590159061266,52.15277149395413],[-7.09188422058333,52.15233680541445],[-7.090788247059765,52.15338671191734],[-7.090196586034884,52.15170683805255],[-7.0886839880180865,52.15209031842824],[-7.08873871193888,52.15091815853523],[-7.090272254909991,52.14953881869988],[-7.096664999951049,52.14910750779775],[-7.135020119115529,52.15874689245601],[-7.150980170576404,52.15910440893005],[-7.153495132314304,52.156375739408624],[-7.156872312090072,52.15585349638143],[-7.158831983010489,52.153921660933094],[-7.158175233510437,52.15361263552761],[-7.1580987701572365,52.15347031553227],[-7.159323293963684,52.15343644166696],[-7.157889778180594,52.15323415721111],[-7.161924038963072,52.15080384636717],[-7.16191963806491,52.14953082179829],[-7.163390601197269,52.14898813629147],[-7.163063276153889,52.14592056852718],[-7.165801120900322,52.14420657244225],[-7.1649942477,52.14330109132141],[-7.166375836513707,52.14327682337589],[-7.165883490064665,52.14235515245445],[-7.16674078790228,52.142588049779086],[-7.168196772541521,52.13992136841489],[-7.170316743799674,52.13938189594873],[-7.169614989724589,52.138423817505135],[-7.170579661216927,52.138279428815515],[-7.1705232411684765,52.1365352018104],[-7.172459936492354,52.137559881241536],[-7.172682342531416,52.13697529592766],[-7.17340623774438,52.13680040311593],[-7.1751695817211365,52.1382044347833],[-7.178718175327479,52.13674754367766],[-7.17810770690952,52.13593346301899],[-7.179394615695846,52.13653339729123],[-7.1804564855079285,52.1342647668202],[-7.181542729682933,52.133943996247005],[-7.181285651105391,52.13476891210806],[-7.182889316859256,52.13519121797116],[-7.185423273995696,52.13343106552003],[-7.186244271847479,52.13461013921124],[-7.1879777727071845,52.13373232120664],[-7.1889504463473495,52.134401179975576],[-7.189310529382629,52.13353645145363],[-7.189627468050238,52.13545600028378],[-7.191108250341414,52.135817923370084],[-7.192254578841457,52.134566907939146],[-7.192389295927792,52.13530078402939],[-7.195027711772884,52.135100246228276],[-7.195509395212902,52.13381609374878],[-7.197042774972161,52.134983759713876],[-7.200922656248349,52.13376641397987],[-7.200921559535627,52.13495185640434],[-7.2075376133796,52.13617215045407],[-7.210007539814601,52.13434634847941],[-7.212268079192347,52.13505131993202],[-7.215976638026329,52.13389748764662],[-7.218384698059,52.13147082411692],[-7.228868493896225,52.132670647206716],[-7.236867532575878,52.13483684135151],[-7.242515334083998,52.13408382333362],[-7.24429831686634,52.13251448014169],[-7.245954247552825,52.13488401816745],[-7.2666108894413295,52.1381372253202],[-7.270480140103189,52.13749094378615],[-7.270867537587419,52.13890287827179],[-7.274275404889272,52.14012631257915],[-7.277911275889732,52.13882519647726],[-7.281984244448399,52.138943584245105],[-7.283570558985325,52.14047259547451],[-7.291961202887857,52.1410962746356],[-7.302939820274549,52.139041579172044],[-7.303933360045071,52.137721831545804],[-7.302846540922317,52.13768306096561],[-7.302677891481721,52.13756393136954],[-7.303988554568365,52.137245474216705],[-7.30233860585523,52.13749321340034],[-7.302230318886956,52.13669824767971],[-7.3052999713939375,52.13550638692537],[-7.304420307833522,52.1341765474112],[-7.307410579680391,52.13261406199669],[-7.3088107856663305,52.13331251926296],[-7.307369167439144,52.13411646339949],[-7.3086271163758125,52.13414102254534],[-7.30799726474611,52.13503848711214],[-7.308769327884276,52.13597599413068],[-7.312804437980543,52.135858961361755],[-7.313424717897259,52.13684603482053],[-7.314629948470371,52.13658057258334],[-7.314579537781584,52.1374627046992],[-7.318236301272955,52.13668589922263],[-7.319719900083912,52.13754896246802],[-7.318505110731715,52.1387425458451],[-7.319619419369181,52.139437027562515],[-7.322343824488523,52.138815137700234],[-7.321452451434362,52.137469404664614],[-7.323277668467588,52.13716064122815],[-7.32369741288643,52.1355263185729],[-7.328806505659324,52.137573294363435],[-7.333100436234833,52.13630859728612],[-7.33698341176208,52.13658499381621],[-7.33657177640328,52.13718444209667],[-7.340363874636669,52.138314818938035],[-7.361343173015973,52.13727951319653],[-7.3610459237624175,52.13894669348724],[-7.367887047835904,52.138751221626855],[-7.371520759823402,52.13787690156696],[-7.374368147962692,52.13388685488209],[-7.37718130469903,52.134267458461885],[-7.382163741946685,52.13240919586097],[-7.382109754585329,52.13028706354907],[-7.385060778735828,52.13114179151435],[-7.386562464809343,52.130525791211284],[-7.386149628318179,52.1299091254153],[-7.388290381540485,52.129240121330845],[-7.389746588499314,52.1300859621991],[-7.390890886347123,52.12911780421117],[-7.392670595285732,52.13009932188003],[-7.393387978880154,52.12774182628762],[-7.395480011266745,52.12971079300887],[-7.396351929745115,52.12842268179344],[-7.396842881692404,52.12954811474326],[-7.398989133740775,52.128824058634166],[-7.399491642738236,52.130402067509955],[-7.402281401599211,52.131733716006714],[-7.404799964832185,52.13181109311665],[-7.409421935427583,52.12977022699277],[-7.415794062918554,52.130336022665595],[-7.41867263709781,52.128658096853755],[-7.419547431875896,52.13007626014861],[-7.422542309581922,52.128728318424635],[-7.424143367720585,52.13050166474542],[-7.425818745221611,52.130491837902184],[-7.43505184075333,52.12708538865612],[-7.438860539952806,52.1278521679367],[-7.440877297648194,52.12682706285186],[-7.44306177362485,52.127221297194],[-7.447586793556402,52.1227954077579],[-7.453166149937233,52.122288658532945],[-7.458558308703323,52.11958291181732],[-7.459631571615449,52.11986309283198],[-7.45898210033572,52.12472290702286],[-7.460158787166342,52.125277223842275],[-7.459537703660285,52.1249410082006],[-7.462714718883346,52.121662680467644],[-7.462646790497688,52.11988578840296],[-7.4668900917857375,52.119030294281266],[-7.468745157617437,52.11756519795078],[-7.467364617982486,52.11587597013311],[-7.469210138951429,52.11371459661899],[-7.471248267450017,52.11414520712447],[-7.471279895520931,52.11264044530246],[-7.475852419056334,52.1108720055266],[-7.480428353007677,52.11233085039516],[-7.480597280835461,52.11101244670555],[-7.48239781661982,52.110562766408776],[-7.4818756580455625,52.10993377591581],[-7.484263406676377,52.10951271384435],[-7.485191035613909,52.10696844961475],[-7.488177100034964,52.10765827803981],[-7.49200341979984,52.10655157222423],[-7.491502042447129,52.10413008314334],[-7.4932629160252775,52.10423487929357],[-7.493563179076558,52.10300850941858],[-7.495918671099931,52.10453967926023],[-7.498673882644443,52.10353257007017],[-7.4988481361121675,52.102586464439064],[-7.503072940727385,52.104472842945505],[-7.504029945690072,52.10327185608841],[-7.510546218471361,52.10640965983368],[-7.51307576671011,52.10559287612518],[-7.5191371070173165,52.10599963636832],[-7.530344372396375,52.10193669704754],[-7.532836160093018,52.10008426761912],[-7.5351800618545415,52.10031022704827],[-7.539441288396274,52.098528693609836],[-7.544605432456883,52.094977714885275],[-7.546997872673727,52.09156950276039],[-7.548798568842432,52.08692460170484],[-7.5475247843679805,52.08612110830483],[-7.5476208308768715,52.08447114759571],[-7.550244683398287,52.08322013191385],[-7.552456693915785,52.0805387237021],[-7.551576327287046,52.078691129254906],[-7.5535996605974844,52.0777862171037],[-7.560469296002242,52.08071452837377],[-7.570171551982456,52.082513993307934],[-7.572035313391324,52.08452892445355],[-7.571024042526732,52.084462326453476],[-7.56988064527317,52.08647747401764],[-7.570293943800066,52.0883331142513],[-7.574405235773444,52.09259597653748],[-7.579884678775381,52.094125989199384],[-7.580235627960577,52.09599129302831],[-7.583684550417823,52.098623468713946],[-7.587602249950296,52.09821970362995],[-7.583815332321045,52.0988831429672],[-7.585444961711665,52.09979295037998],[-7.584120692254072,52.1003122756906],[-7.585732888389492,52.10466808412453],[-7.581482509378887,52.107607492491375],[-7.58572991825231,52.106000009381724],[-7.587321230515142,52.103472002991104],[-7.5891744025604355,52.10313541417155],[-7.592000955958392,52.10550989670708],[-7.593121018496115,52.104906146257115],[-7.592762660246407,52.1059978033245],[-7.594345460040318,52.10561582107636],[-7.5949450956496545,52.10805650939174],[-7.595932991930745,52.10782283551618],[-7.593757946988451,52.104092386340454],[-7.59169043360773,52.104162342222736],[-7.591881966478087,52.10325386135967],[-7.593645902682939,52.103952160299016],[-7.592528303444489,52.10289717094932],[-7.586703701468276,52.10187854755979],[-7.585974602336831,52.10132369466712],[-7.586897291906024,52.100611883545916],[-7.585065182533953,52.10093112622611],[-7.594631844327828,52.09695641589014]]]}}]}